"","OBJECTID","ID","NAME","ALT_NAME","CROSS_ST","LONG_NAME","LABEL","BOROUGH","NGHBHD","ROUTES","TRANSFERS","COLOR","EXPRESS","CLOSED","lng","lat","UNIQUEID"
"2",2,2,"Rector St",NA,NA,"Rector St (1) Manhattan","Rector St (1)","Manhattan",NA,"1","1","RED",NA,NA,-74.0135879178449,40.707949836686,"2"
"3",3,1,"South Ferry",NA,NA,"South Ferry (1) Manhattan","South Ferry (1)","Manhattan",NA,"1","1","RED",NA,NA,-74.0139260004303,40.7013249998299,"3"
"5",5,126,"149th St","Grand Concourse","Grand Concourse","149th St / Grand Concourse (4) Bronx","149th St / Grand Concourse (4)","Bronx",NA,"4","2,4,5","GREEN","express",NA,-73.9274064982365,40.8183476673731,"5"
"9",9,128,"167th St",NA,"River Ave","167th St (4) Bronx","167th St (4)","Bronx",NA,"4","4","GREEN",NA,NA,-73.9212956017937,40.8356910682969,"9"
"11",11,129,"170th St",NA,"Jerome Ave","170th St (4) Bronx","170th St (4)","Bronx",NA,"4","4","GREEN",NA,NA,-73.9177051393428,40.8402027060274,"11"
"14",14,131,"176th St",NA,"Jerome Ave","176th St (4) Bronx","176th St (4)","Bronx",NA,"4","4","GREEN",NA,NA,-73.9116942698032,40.8486459521749,"14"
"16",16,133,"183rd St",NA,"Jerome Ave","183rd St (4) Bronx","183rd St (4)","Bronx",NA,"4","4","GREEN",NA,NA,-73.9039619975774,40.8583670003775,"16"
"17",17,216,"205th St","Norwood","Bainbridge Ave","205th St / Norwood (D) Bronx","205th St / Norwood (D)","Bronx",NA,"D","D","ORANGE",NA,NA,-73.8794270002712,40.8749790008816,"17"
"20",20,36,"231st St",NA,"Broadway","231st St (1) Bronx","231st St (1)","Bronx",NA,"1","1","RED",NA,NA,-73.9047844828945,40.8789101212723,"20"
"22",22,37,"238th St",NA,"Broadway","238th St (1) Bronx","238th St (1)","Bronx",NA,"1","1","RED",NA,NA,-73.900640997567,40.8850770004547,"22"
"23",23,64,"241st St","Wakefield","White Plains Rd","241st St / Wakefield (2) Bronx","241st St / Wakefield (2)","Bronx",NA,"2","2","RED",NA,NA,-73.8503746269586,40.9034277240946,"23"
"24",24,38,"242nd St","Van Cortlandt Park","Broadway","242nd St (1) Bronx","242nd St (1)","Bronx",NA,"1","1","RED",NA,NA,-73.8985062589137,40.8894240372368,"24"
"26",26,139,"3rd Ave","138th St","138th St","3rd Ave / 138th St (6) Bronx","3rd Ave / 138th St (6)","Bronx",NA,"6","6","GREEN","express",NA,-73.9271935801557,40.8109945310879,"26"
"29",29,68,"Baychester Ave",NA,"Tillotson Ave","Baychester Ave (5) Bronx","Baychester Ave (5)","Bronx",NA,"5","5","GREEN",NA,NA,-73.8385910001237,40.8786630004965,"29"
"31",31,136,"Bedford Park Blvd","Lehman College","Jerome Ave","Bedford Park Blvd / Lehman College (4) Bronx","Bedford Park Blvd / Lehman College (4)","Bronx",NA,"4","4","GREEN",NA,NA,-73.8897814325573,40.8735963202348,"31"
"33",33,140,"Brook Ave",NA,"E 138th St","Brook Ave (6) Bronx","Brook Ave (6)","Bronx",NA,"6","6","GREEN",NA,NA,-73.9192370002541,40.8075680013297,"33"
"34",34,155,"Buhre Ave",NA,"Westchester Ave","Buhre Ave (6) Bronx","Buhre Ave (6)","Bronx",NA,"6","6","GREEN",NA,NA,-73.8322596870824,40.8470255395291,"34"
"36",36,132,"Burnside Ave",NA,"Jerome Ave","Burnside Ave (4) Bronx","Burnside Ave (4)","Bronx",NA,"4","4","GREEN",NA,NA,-73.9073721509772,40.8537979601779,"36"
"37",37,151,"Castle Hill Ave",NA,"Westchester Ave","Castle Hill Ave (6) Bronx","Castle Hill Ave (6)","Bronx",NA,"6","6","GREEN",NA,NA,-73.8516419975505,40.8341910014017,"37"
"38",38,141,"Cypress Ave",NA,"E 138th St","Cypress Ave (6) Bronx","Cypress Ave (6)","Bronx",NA,"6","6","GREEN",NA,NA,-73.9144650434727,40.8055482212435,"38"
"39",39,69,"Dyre Ave","Eastchester","233rd St","Dyre Ave / Eastchester (5) Bronx","Dyre Ave / Eastchester (5)","Bronx",NA,"5","5","GREEN",NA,NA,-73.8305961549646,40.8890972116368,"39"
"40",40,142,"E 143rd St","St Mary's St","Southern Blvd","E 143rd St / St Mary's St (6) Bronx","E 143rd St / St Mary's St (6)","Bronx",NA,"6","6","GREEN",NA,NA,-73.9078379989444,40.8081930011396,"40"
"41",41,143,"E 149th St",NA,"Southern Blvd","E 149th St (6) Bronx","E 149th St (6)","Bronx",NA,"6","6","GREEN",NA,NA,-73.9041470000668,40.8121150020537,"41"
"42",42,150,"E 177th St","Parkchester","Westchester Ave","E 177th St / Parkchester (6) Bronx","E 177th St / Parkchester (6)","Bronx",NA,"6","6","GREEN","express",NA,-73.8627131703872,40.832927230947,"42"
"45",45,147,"Elder Ave",NA,"Westchester Ave","Elder Ave (6) Bronx","Elder Ave (6)","Bronx",NA,"6","6","GREEN",NA,NA,-73.8791600010169,40.8285830008364,"45"
"47",47,134,"Fordham Rd",NA,"Jerome Ave","Fordham Rd (4) Bronx","Fordham Rd (4)","Bronx",NA,"4","4","GREEN",NA,NA,-73.9010910005147,40.8627330009073,"47"
"49",49,67,"Gun Hill Rd",NA,"Seymour Ave","Gun Hill Rd (5) Bronx","Gun Hill Rd (5)","Bronx",NA,"5","5","GREEN",NA,NA,-73.8458033278272,40.870182094667,"49"
"51",51,145,"Hunts Point Ave",NA,"Southern Blvd","Hunts Point Ave (6) Bronx","Hunts Point Ave (6)","Bronx",NA,"6","6","GREEN","express",NA,-73.8916419991532,40.8206140012237,"51"
"55",55,135,"Kingsbridge Rd",NA,"Jerome Ave","Kingsbridge Rd (4) Bronx","Kingsbridge Rd (4)","Bronx",NA,"4","4","GREEN",NA,NA,-73.897401176971,40.8674967814092,"55"
"56",56,144,"Longwood Ave",NA,"Southern Blvd","Longwood Ave (6) Bronx","Longwood Ave (6)","Bronx",NA,"6","6","GREEN",NA,NA,-73.8962100004743,40.81632100196,"56"
"57",57,154,"Middletown Rd",NA,"Westchester Ave","Middletown Rd (6) Bronx","Middletown Rd (6)","Bronx",NA,"6","6","GREEN",NA,NA,-73.8367663019392,40.8434727757252,"57"
"58",58,65,"Morris Park",NA,"Esplanade","Morris Park (5) Bronx","Morris Park (5)","Bronx",NA,"5","5","GREEN",NA,NA,-73.8603589994332,40.8544720012067,"58"
"59",59,148,"Sound View Ave","Morrison Ave","Westchester Ave","Sound View Ave / Morrison Ave (6) Bronx","Sound View Ave / Morrison Ave (6)","Bronx",NA,"6","6","GREEN",NA,NA,-73.8744749994454,40.8295270013266,"59"
"60",60,137,"Mosholu Pky",NA,"Jerome Ave","Mosholu Pky (4) Bronx","Mosholu Pky (4)","Bronx",NA,"4","4","GREEN",NA,NA,-73.8846350003833,40.879740000798,"60"
"61",61,130,"Mt Eden Ave",NA,"Jerome Ave","Mt Eden Ave (4) Bronx","Mt Eden Ave (4)","Bronx",NA,"4","4","GREEN",NA,NA,-73.9147460011611,40.8442920012635,"61"
"63",63,156,"Pelham Bay Park",NA,"Bruckner Exy","Pelham Bay Park (6) Bronx","Pelham Bay Park (6)","Bronx",NA,"6","6","GREEN",NA,NA,-73.8270949988928,40.852928001751,"63"
"64",64,66,"Pelham Pky",NA,"Williamsbridge Rd","Pelham Pky (5) Bronx","Pelham Pky (5)","Bronx",NA,"5","5","GREEN",NA,NA,-73.8560793259687,40.8581697846295,"64"
"68",68,149,"St Lawrence Ave",NA,"Westchester Ave","St Lawrence Ave (6) Bronx","St Lawrence Ave (6)","Bronx",NA,"6","6","GREEN",NA,NA,-73.8672804281559,40.8315984140132,"68"
"70",70,153,"Westchester Sq","E Tremont Ave","Westchester Ave","Westchester Sq / E Tremont Ave (6) Bronx","Westchester Sq / E Tremont Ave (6)","Bronx",NA,"6","6","GREEN",NA,NA,-73.8420114686907,40.8406096078233,"70"
"71",71,146,"Whitlock Ave",NA,"Westchester Ave","Whitlock Ave (6) Bronx","Whitlock Ave (6)","Bronx",NA,"6","6","GREEN",NA,NA,-73.8860900005009,40.8275660010254,"71"
"72",72,138,"Woodlawn",NA,"Jerome Ave","Woodlawn (4) Bronx","Woodlawn (4)","Bronx",NA,"4","4","GREEN",NA,NA,-73.8787700002768,40.8860190014522,"72"
"73",73,152,"Zerega Ave",NA,"Westchester Ave","Zerega Ave (6) Bronx","Zerega Ave (6)","Bronx",NA,"6","6","GREEN",NA,NA,-73.846694333434,40.8367705313445,"73"
"74",74,344,"15th St","Prospect Park","Prospect Park West","15th St / Prospect Park (F) Brooklyn","15th St / Prospect Park (F)","Brooklyn",NA,"F","F","ORANGE",NA,NA,-73.9794283452442,40.6607870529522,"74"
"76",76,430,"18th Ave",NA,"64th St","18th Ave (N) Brooklyn","18th Ave (N)","Brooklyn",NA,"N","N","YELLOW",NA,NA,-73.9893140502698,40.6200001630917,"76"
"77",77,348,"18th Ave",NA,"McDonald Ave","18th Ave (F) Brooklyn","18th Ave (F)","Brooklyn",NA,"F","F","ORANGE",NA,NA,-73.9771326059999,40.6307412275426,"77"
"78",78,431,"20th Ave",NA,"64th St","20th Ave (N) Brooklyn","20th Ave (N)","Brooklyn",NA,"N","N","YELLOW",NA,NA,-73.9849495803293,40.617358917033,"78"
"80",80,425,"25th Ave",NA,"86th St","25th Ave (D) Brooklyn","25th Ave (D)","Brooklyn",NA,"D","D","ORANGE",NA,NA,-73.9871770570027,40.5979110567804,"80"
"83",83,408,"45th St",NA,"4th Ave","45th St (R) Brooklyn","45th St (R)","Brooklyn",NA,"R","R","YELLOW",NA,NA,-74.0096664915987,40.6492609914081,"83"
"84",84,342,"4th Ave","9th St","9th St","4th Ave / 9th St (F) Brooklyn","4th Ave / 9th St (F)","Brooklyn",NA,"F","D,F,M,R","ORANGE",NA,NA,-73.9890556211537,40.6699289109744,"84"
"86",86,409,"53rd St",NA,"4th Ave","53rd St (R) Brooklyn","53rd St (R)","Brooklyn",NA,"R","R","YELLOW",NA,NA,-74.0143222247892,40.6447953754617,"86"
"91",91,412,"77th St",NA,"4th Ave","77th St (R) Brooklyn","77th St (R)","Brooklyn",NA,"R","R","YELLOW",NA,NA,-74.0256475848183,40.6293819154295,"91"
"94",94,343,"7th Ave",NA,"9th St","7th Ave (F) Brooklyn","7th Ave (F)","Brooklyn",NA,"F","F","ORANGE",NA,NA,-73.9815778839182,40.6668867140502,"94"
"95",95,435,"86th St","Gravesend","W 7th St","86th St / Gravesend (N) Brooklyn","86th St / Gravesend (N)","Brooklyn",NA,"N","N","YELLOW",NA,NA,-73.9782063959877,40.5925836044354,"95"
"96",96,413,"86th St",NA,"4th Ave","86th St (R) Brooklyn","86th St (R)","Brooklyn",NA,"R","R","YELLOW",NA,NA,-74.0283474652852,40.6227967199669,"96"
"97",97,427,"8th Ave",NA,"62nd St","8th Ave (N) Brooklyn","8th Ave (N)","Brooklyn",NA,"N","N","YELLOW",NA,NA,-74.0105968759259,40.6345044632188,"97"
"98",98,414,"95th St","Bay Ridge","4th Ave","95th St / Bay Ridge (R) Brooklyn","95th St / Bay Ridge (R)","Brooklyn",NA,"R","R","YELLOW",NA,NA,-74.0310813991616,40.6159763263944,"98"
"101",101,320,"Alabama Ave",NA,"Fulton St","Alabama Ave (J) Brooklyn","Alabama Ave (J)","Brooklyn",NA,"J","J","BROWN",NA,NA,-73.8999497857832,40.6768662465297,"101"
"103",103,457,"Atlantic Ave",NA,"Snediker Ave","Atlantic Ave (L) Brooklyn","Atlantic Ave (L)","Brooklyn",NA,"L","L","GREY",NA,NA,-73.9029229379177,40.6758026827388,"103"
"105",105,391,"Ave H",NA,"E 16th St","Ave H (Q) Brooklyn","Ave H (Q)","Brooklyn",NA,"Q","Q","YELLOW",NA,NA,-73.9617778760903,40.6300195922045,"105"
"106",106,349,"Ave I",NA,"McDonald Ave","Ave I (F) Brooklyn","Ave I (F)","Brooklyn",NA,"F","F","ORANGE",NA,NA,-73.9762488585189,40.625970814645,"106"
"107",107,392,"Ave J",NA,"E 16th St","Ave J (Q) Brooklyn","Ave J (Q)","Brooklyn",NA,"Q","Q","YELLOW",NA,NA,-73.9608477369306,40.6252347251882,"107"
"108",108,393,"Ave M",NA,"E 16th St","Ave M (Q) Brooklyn","Ave M (Q)","Brooklyn",NA,"Q","Q","YELLOW",NA,NA,-73.9594633459032,40.6180578320636,"108"
"109",109,351,"Ave N",NA,"McDonald Ave","Ave N (F) Brooklyn","Ave N (F)","Brooklyn",NA,"F","F","ORANGE",NA,NA,-73.9739669200449,40.6140365132644,"109"
"110",110,352,"Ave P",NA,"McDonald Ave","Ave P (F) Brooklyn","Ave P (F)","Brooklyn",NA,"F","F","ORANGE",NA,NA,-73.9729569990212,40.6088070014913,"110"
"111",111,395,"Ave U",NA,"E 16th St","Ave U (Q) Brooklyn","Ave U (Q)","Brooklyn",NA,"Q","Q","YELLOW",NA,NA,-73.9558328423507,40.5988994141306,"111"
"112",112,434,"Ave U",NA,"W 7th St","Ave U (N) Brooklyn","Ave U (N)","Brooklyn",NA,"N","N","YELLOW",NA,NA,-73.9789140643246,40.5964207008075,"112"
"113",113,354,"Ave U",NA,"McDonald Ave","Ave U (F) Brooklyn","Ave U (F)","Brooklyn",NA,"F","F","ORANGE",NA,NA,-73.9732854308558,40.5969679235046,"113"
"114",114,355,"Ave X",NA,"McDonald Ave","Ave X (F) Brooklyn","Ave X (F)","Brooklyn",NA,"F","F","ORANGE",NA,NA,-73.9741968153057,40.590107968389,"114"
"115",115,426,"Bay 50th St",NA,"Stillwell Ave","Bay 50th St (D) Brooklyn","Bay 50th St (D)","Brooklyn",NA,"D","D","ORANGE",NA,NA,-73.9837267557526,40.5885810128478,"115"
"117",117,432,"Bay Pky",NA,"W 7th St/Ave","Bay Pky (N) Brooklyn","Bay Pky (N)","Brooklyn",NA,"N","N","YELLOW",NA,NA,-73.9821236980731,40.6132199494551,"117"
"118",118,350,"Bay Pky",NA,"McDonald Ave","Bay Pky (F) Brooklyn","Bay Pky (F)","Brooklyn",NA,"F","F","ORANGE",NA,NA,-73.9752763606734,40.6209330797727,"118"
"119",119,411,"Bay Ridge Ave",NA,"4th Ave","Bay Ridge Ave (R) Brooklyn","Bay Ridge Ave (R)","Brooklyn",NA,"R","R","YELLOW",NA,NA,-74.0235138766879,40.6346187309103,"119"
"120",120,444,"Bedford Ave",NA,"N 7th St","Bedford Ave (L) Brooklyn","Bedford Ave (L)","Brooklyn",NA,"L","L","GREY",NA,NA,-73.956543574319,40.7170773712532,"120"
"121",121,282,"Bedford Ave","Nostrand Ave","Lafayette Ave","Bedford Ave / Nostrand Ave (G) Brooklyn","Bedford Ave / Nostrand Ave (G)","Brooklyn",NA,"G","G","LIME",NA,NA,-73.9535219998262,40.6896270014081,"121"
"124",124,388,"Beverly Rd",NA,"E 16th St","Beverly Rd (Q) Brooklyn","Beverly Rd (Q)","Brooklyn",NA,"Q","Q","YELLOW",NA,NA,-73.9645432411269,40.6443590735003,"124"
"128",128,436,"Botanic Garden",NA,"Eastern Pky","Botanic Garden (S) Brooklyn","Botanic Garden (S)","Brooklyn",NA,"S","S,2,3,4,5","GREY",NA,NA,-73.9590489814207,40.670866734209,"128"
"130",130,285,"Broadway",NA,"Union Ave","Broadway (G) Brooklyn","Broadway (G)","Brooklyn",NA,"G","G","LIME",NA,NA,-73.9502211315224,40.7054768297857,"130"
"133",133,455,"Bushwick Ave","Aberdeen St","Aberdeen St","Bushwick Ave / Aberdeen St (L) Brooklyn","Bushwick Ave / Aberdeen St (L)","Brooklyn",NA,"L","L","GREY",NA,NA,-73.905116999611,40.6828760021283,"133"
"135",135,332,"Central Ave",NA,"Myrtle Ave","Central Ave (M) Brooklyn","Central Ave (M)","Brooklyn",NA,"M","M","BROWN",NA,NA,-73.9251491487511,40.6980944998247,"135"
"137",137,346,"Church Ave",NA,"McDonald Ave","Church Ave (F) Brooklyn","Church Ave (F)","Brooklyn",NA,"F","F","ORANGE",NA,NA,-73.9794325888596,40.642809844478,"137"
"141",141,281,"Classon Ave",NA,"Lafayette Ave","Classon Ave (G) Brooklyn","Classon Ave (G)","Brooklyn",NA,"G","G","LIME",NA,NA,-73.9599900008757,40.6888890005692,"141"
"142",142,322,"Cleveland St",NA,"Fulton St","Cleveland St (J) Brooklyn","Cleveland St (J)","Brooklyn",NA,"J","J","BROWN",NA,NA,-73.8855532070833,40.6796634426161,"142"
"143",143,280,"Clinton Ave","Washington Ave","Lafayette Ave","Clinton Ave / Washington Ave (G) Brooklyn","Clinton Ave / Washington Ave (G)","Brooklyn",NA,"G","G","LIME",NA,NA,-73.9668323134841,40.6880883033768,"143"
"144",144,223,"Clinton Ave","Washington Ave","Fulton St","Clinton Ave / Washington Ave (C) Brooklyn","Clinton Ave / Washington Ave (C)","Brooklyn",NA,"C","C","BLUE",NA,NA,-73.9658493782655,40.6832454575914,"144"
"145",145,389,"Cortelyou Rd",NA,"E 16th St","Cortelyou Rd (Q) Brooklyn","Cortelyou Rd (Q)","Brooklyn",NA,"Q","Q","YELLOW",NA,NA,-73.9639873975812,40.641402655448,"145"
"148",148,325,"Cypress Hills",NA,"Jamaica Ave","Cypress Hills (J) Brooklyn","Cypress Hills (J)","Brooklyn",NA,"J","J","BROWN",NA,NA,-73.8738759996619,40.6892610013672,"148"
"149",149,451,"DeKalb Ave",NA,"Wyckoff Ave","DeKalb Ave (L) Brooklyn","DeKalb Ave (L)","Brooklyn",NA,"L","L","GREY",NA,NA,-73.9192171474094,40.7043181454787,"149"
"151",151,347,"Ditmas Ave",NA,"McDonald Ave","Ditmas Ave (F) Brooklyn","Ditmas Ave (F)","Brooklyn",NA,"F","F","ORANGE",NA,NA,-73.9780732987057,40.6355490906159,"151"
"152",152,461,"E 105th St",NA,"Turnbull Ave","E 105th St (L) Brooklyn","E 105th St (L)","Brooklyn",NA,"L","L","GREY",NA,NA,-73.8990320005914,40.6513310014258,"152"
"157",157,284,"Flushing Ave",NA,"Marcy Ave","Flushing Ave (G) Brooklyn","Flushing Ave (G)","Brooklyn",NA,"G","G","LIME",NA,NA,-73.9501211105259,40.6997752671759,"157"
"158",158,345,"Fort Hamilton Pky",NA,"Prospect Ave","Fort Hamilton Pky (F) Brooklyn","Fort Hamilton Pky (F)","Brooklyn",NA,"F","F","ORANGE",NA,NA,-73.9758669980816,40.6495250012427,"158"
"159",159,224,"Franklin Ave",NA,"Fulton St","Franklin Ave (C) Brooklyn","Franklin Ave (C)","Brooklyn",NA,"C","C,S","BLUE",NA,NA,-73.9556656074789,40.6811346496861,"159"
"160",160,438,"Franklin Ave",NA,"Fulton St","Franklin Ave (S) Brooklyn","Franklin Ave (S)","Brooklyn",NA,"S","C,S","GREY",NA,NA,-73.9556394840743,40.6810333607367,"160"
"162",162,428,"Ft Hamilton Pky",NA,"62nd St","Ft Hamilton Pky (N) Brooklyn","Ft Hamilton Pky (N)","Brooklyn",NA,"N","N","YELLOW",NA,NA,-74.0067397658305,40.6322661151372,"162"
"164",164,279,"Fulton St",NA,"Lafayette Ave","Fulton St (G) Brooklyn","Fulton St (G)","Brooklyn",NA,"G","G","LIME",NA,NA,-73.97621936799,40.6870274967036,"164"
"166",166,446,"Graham Ave",NA,"Metropolitan Ave","Graham Ave (L) Brooklyn","Graham Ave (L)","Brooklyn",NA,"L","L","GREY",NA,NA,-73.9443994162632,40.714530048512,"166"
"168",168,447,"Grand St",NA,"Bushwick Ave","Grand St (L) Brooklyn","Grand St (L)","Brooklyn",NA,"L","L","GREY",NA,NA,-73.9406878319911,40.7119519477,"168"
"169",169,235,"Grant Ave",NA,"Pitkin Ave","Grant Ave (A) Brooklyn","Grant Ave (A)","Brooklyn",NA,"A","A","BLUE",NA,NA,-73.8655473597661,40.6766919538589,"169"
"170",170,288,"Greenpoint Ave",NA,"Manhattan Ave","Greenpoint Ave (G) Brooklyn","Greenpoint Ave (G)","Brooklyn",NA,"G","G","LIME",NA,NA,-73.9542409990943,40.7301990010537,"170"
"171",171,453,"Halsey St",NA,"Wyckoff Ave","Halsey St (L) Brooklyn","Halsey St (L)","Brooklyn",NA,"L","L","GREY",NA,NA,-73.9050066928774,40.6961220723527,"171"
"172",172,317,"Halsey St",NA,"Broadway","Halsey St (J) Brooklyn","Halsey St (J)","Brooklyn",NA,"J","J","BROWN",NA,NA,-73.9153981458718,40.6857081528848,"172"
"178",178,450,"Jefferson St",NA,"Wyckoff Ave","Jefferson St (L) Brooklyn","Jefferson St (L)","Brooklyn",NA,"L","L","GREY",NA,NA,-73.9235763407693,40.7070261346799,"178"
"179",179,88,"Junius St",NA,"Livonia Ave","Junius St (3) Brooklyn","Junius St (3)","Brooklyn",NA,"3","3","RED-GREEN",NA,NA,-73.9014867363192,40.6636572331858,"179"
"181",181,433,"Kings Hwy",NA,"W 7th St","Kings Hwy (N) Brooklyn","Kings Hwy (N)","Brooklyn",NA,"N","N","YELLOW",NA,NA,-73.9805739331573,40.605191187044,"181"
"182",182,353,"Kings Hwy",NA,"McDonald Ave","Kings Hwy (F) Brooklyn","Kings Hwy (F)","Brooklyn",NA,"F","F","ORANGE",NA,NA,-73.9721802394393,40.6041850916078,"182"
"183",183,83,"Kingston Ave",NA,"Eastern Pky","Kingston Ave (3) Brooklyn","Kingston Ave (3)","Brooklyn",NA,"3","3","RED-GREEN",NA,NA,-73.942116999551,40.6693969997676,"183"
"184",184,226,"Kingston-Throop Aves",NA,"Fulton St","Kingston-Throop Aves (C) Brooklyn","Kingston-Throop Aves (C)","Brooklyn",NA,"C","C","BLUE",NA,NA,-73.9406059983828,40.6798990013347,"184"
"185",185,333,"Knickerbocker Ave",NA,"Myrtle Ave","Knickerbocker Ave (M) Brooklyn","Knickerbocker Ave (M)","Brooklyn",NA,"M","M","BROWN",NA,NA,-73.9183476002476,40.6988037168576,"185"
"186",186,315,"Kosciusko St",NA,"Broadway","Kosciusko St (J) Brooklyn","Kosciusko St (J)","Brooklyn",NA,"J","J","BROWN",NA,NA,-73.9285760994662,40.6932118112224,"186"
"187",187,222,"Lafayette Ave",NA,"Fulton St","Lafayette Ave (C) Brooklyn","Lafayette Ave (C)","Brooklyn",NA,"C","C","BLUE",NA,NA,-73.9763030000196,40.6869500012733,"187"
"189",189,231,"Liberty Ave",NA,"Pennsylvania Ave","Liberty Ave (C) Brooklyn","Liberty Ave (C)","Brooklyn",NA,"C","C","BLUE",NA,NA,-73.8965003694458,40.6743983272708,"189"
"190",190,459,"Livonia Ave",NA,"Van Sinderen Ave","Livonia Ave (L) Brooklyn","Livonia Ave (L)","Brooklyn",NA,"L","L","GREY",NA,NA,-73.9005050010106,40.6637779996774,"190"
"191",191,445,"Lorimer St","Metropolitan Ave","Metropolitan Ave","Lorimer St / Metropolitan Ave (L) Brooklyn","Lorimer St / Metropolitan Ave (L)","Brooklyn",NA,"L","G,L","GREY",NA,NA,-73.9493731184164,40.7140654811231,"191"
"194",194,286,"Metropolitan Ave","Lorimer St","Grand St","Metropolitan Ave / Lorimer St (G) Brooklyn","Metropolitan Ave / Lorimer St (G)","Brooklyn",NA,"G","G,L","LIME",NA,NA,-73.9514239995457,40.7127740012,"194"
"195",195,448,"Montrose Ave",NA,"Bushwick Ave","Montrose Ave (L) Brooklyn","Montrose Ave (L)","Brooklyn",NA,"L","L","GREY",NA,NA,-73.9398477474979,40.7076500807802,"195"
"196",196,449,"Morgan Ave",NA,"Harrison Pl","Morgan Ave (L) Brooklyn","Morgan Ave (L)","Brooklyn",NA,"L","L","GREY",NA,NA,-73.9318792852474,40.706339679654,"196"
"197",197,452,"Myrtle Ave","Wyckoff Ave","Wyckoff Ave","Myrtle Ave / Wyckoff Ave (L) Brooklyn","Myrtle Ave / Wyckoff Ave (L)","Brooklyn",NA,"L","L,M","GREY",NA,NA,-73.9111435971187,40.6995618769086,"197"
"199",199,283,"Myrtle Ave","Willoughby Ave","Marcy Ave","Myrtle Ave / Willoughby Ave (G) Brooklyn","Myrtle Ave / Willoughby Ave (G)","Brooklyn",NA,"G","G","LIME",NA,NA,-73.9490670002724,40.6946190014221,"199"
"200",200,287,"Nassau Ave",NA,"Manhattan Ave","Nassau Ave (G) Brooklyn","Nassau Ave (G)","Brooklyn",NA,"G","G","LIME",NA,NA,-73.950778141163,40.723773598616,"200"
"201",201,396,"Neck Rd",NA,"E 16th St","Neck Rd (Q) Brooklyn","Neck Rd (Q)","Brooklyn",NA,"Q","Q","YELLOW",NA,NA,-73.9551073018805,40.5949506739558,"201"
"202",202,356,"Neptune Ave",NA,NA,"Neptune Ave (F) Brooklyn","Neptune Ave (F)","Brooklyn",NA,"F","F","ORANGE",NA,NA,-73.9746379838461,40.5799810412434,"202"
"204",204,460,"New Lots Ave",NA,"Van Sinderen Ave","New Lots Ave (L) Brooklyn","New Lots Ave (L)","Brooklyn",NA,"L","L","GREY",NA,NA,-73.8993197267458,40.6590526522187,"204"
"205",205,91,"New Lots Ave",NA,"Livonia Ave","New Lots Ave (3) Brooklyn","New Lots Ave (3)","Brooklyn",NA,"3","3","RED-GREEN",NA,NA,-73.8825345718824,40.6664448825119,"205"
"206",206,429,"New Utrecht Ave","62nd St","62nd St","New Utrecht Ave / 62nd St (N) Brooklyn","New Utrecht Ave / 62nd St (N)","Brooklyn",NA,"N","D,M,N","YELLOW",NA,NA,-73.9970670019668,40.6258438177246,"206"
"211",211,82,"Nostrand Ave",NA,"Eastern Pky","Nostrand Ave (3) Brooklyn","Nostrand Ave (3)","Brooklyn",NA,"3","3","RED-GREEN",NA,NA,-73.9504889390331,40.6698485212408,"211"
"212",212,399,"Ocean Pkwy",NA,NA,"Ocean Pkwy (Q) Brooklyn","Ocean Pkwy (Q)","Brooklyn",NA,"Q","Q","YELLOW",NA,NA,-73.9684963141031,40.5763081919483,"212"
"214",214,437,"Park Pl",NA,"Classon Ave","Park Pl (S) Brooklyn","Park Pl (S)","Brooklyn",NA,"S","S","GREY",NA,NA,-73.9578045231907,40.6743993341442,"214"
"215",215,386,"Parkside Ave",NA,"Ocean Ave","Parkside Ave (Q) Brooklyn","Parkside Ave (Q)","Brooklyn",NA,"Q","Q","YELLOW",NA,NA,-73.9615703697366,40.6550022365176,"215"
"216",216,89,"Pennsylvania Ave",NA,"Livonia Ave","Pennsylvania Ave (3) Brooklyn","Pennsylvania Ave (3)","Brooklyn",NA,"3","3","RED-GREEN",NA,NA,-73.8941041328139,40.6647644339865,"216"
"220",220,228,"Ralph Ave",NA,"Fulton St","Ralph Ave (C) Brooklyn","Ralph Ave (C)","Brooklyn",NA,"C","C","BLUE",NA,NA,-73.9216531645651,40.6788647361507,"220"
"221",221,229,"Rockaway Ave",NA,"Fulton St","Rockaway Ave (C) Brooklyn","Rockaway Ave (C)","Brooklyn",NA,"C","C","BLUE",NA,NA,-73.9107919275396,40.6782696866914,"221"
"222",222,87,"Rockaway Ave",NA,"Livonia Ave","Rockaway Ave (3) Brooklyn","Rockaway Ave (3)","Brooklyn",NA,"3","3","RED-GREEN",NA,NA,-73.908866178908,40.6625637028797,"222"
"223",223,462,"Rockaway Pky","Canarsie","Glenwood Rd","Rockaway Pky / Canarsie (L) Brooklyn","Rockaway Pky / Canarsie (L)","Brooklyn",NA,"L","L","GREY",NA,NA,-73.9025914494519,40.6454142619913,"223"
"224",224,86,"Saratoga Ave",NA,"Livonia Ave","Saratoga Ave (3) Brooklyn","Saratoga Ave (3)","Brooklyn",NA,"3","3","RED-GREEN",NA,NA,-73.9155475191873,40.661556947309,"224"
"226",226,233,"Shepherd Ave",NA,"Pitkin Ave","Shepherd Ave (C) Brooklyn","Shepherd Ave (C)","Brooklyn",NA,"C","C","BLUE",NA,NA,-73.8807939991843,40.6741160001837,"226"
"229",229,458,"Sutter Ave",NA,"Van Sinderen Ave","Sutter Ave (L) Brooklyn","Sutter Ave (L)","Brooklyn",NA,"L","L","GREY",NA,NA,-73.9017350006931,40.6684180002858,"229"
"230",230,85,"Sutter Ave","Rutland Rd","E 98th St","Sutter Ave / Rutland Rd (3) Brooklyn","Sutter Ave / Rutland Rd (3)","Brooklyn",NA,"3","3","RED-GREEN",NA,NA,-73.9228277760958,40.6649072248909,"230"
"234",234,232,"Van Siclen Ave",NA,"Pitkin Ave","Van Siclen Ave (C) Brooklyn","Van Siclen Ave (C)","Brooklyn",NA,"C","C","BLUE",NA,NA,-73.8902839994592,40.6727240017446,"234"
"236",236,90,"Van Siclen Ave",NA,"Livonia Ave","Van Siclen Ave (3) Brooklyn","Van Siclen Ave (3)","Brooklyn",NA,"3","3","RED-GREEN",NA,NA,-73.8885419160523,40.6655593881874,"236"
"238",238,454,"Wilson Ave",NA,"Moffat St","Wilson Ave (L) Brooklyn","Wilson Ave (L)","Brooklyn",NA,"L","L","GREY",NA,NA,-73.9042929208304,40.6885282168032,"238"
"240",240,334,"Wyckoff Ave","Myrtle Ave","Myrtle Ave","Wyckoff Ave / Myrtle Ave (M) Brooklyn","Wyckoff Ave / Myrtle Ave (M)","Brooklyn",NA,"M","L,M","BROWN",NA,NA,-73.9111998306395,40.6995573832287,"240"
"241",241,303,"York St",NA,"Jay St","York St (F) Brooklyn","York St (F)","Brooklyn",NA,"F","F","ORANGE",NA,NA,-73.9867441210238,40.7015188543331,"241"
"242",242,121,"103rd St",NA,"Lexington Ave","103rd St (6) Manhattan","103rd St (6)","Manhattan",NA,"6","6","GREEN",NA,NA,-73.9476676427266,40.7903291199624,"242"
"244",244,22,"103rd St",NA,"Broadway","103rd St (1) Manhattan","103rd St (1)","Manhattan",NA,"1","1","RED",NA,NA,-73.9685835605716,40.7991214805627,"244"
"245",245,122,"110th St",NA,"Lexington Ave","110th St (6) Manhattan","110th St (6)","Manhattan",NA,"6","6","GREEN",NA,NA,-73.9443902896815,40.794815350841,"245"
"249",249,123,"116th St",NA,"Lexington Ave","116th St (6) Manhattan","116th St (6)","Manhattan",NA,"6","6","GREEN",NA,NA,-73.9416150002444,40.7986290003224,"249"
"251",251,24,"116th St","Columbia University","Broadway","116th St / Columbia University (1) Manhattan","116th St / Columbia University (1)","Manhattan",NA,"1","1","RED",NA,NA,-73.9639111552716,40.8079940216809,"251"
"255",255,25,"125th St",NA,"Broadway","125th St (1) Manhattan","125th St (1)","Manhattan",NA,"1","1","RED",NA,NA,-73.9582909853416,40.8156709508745,"255"
"258",258,26,"137th St","City College","Broadway","137th St / City College (1) Manhattan","137th St / City College (1)","Manhattan",NA,"1","1","RED",NA,NA,-73.9541244470715,40.8213966332831,"258"
"259",259,43,"145th St",NA,"Lenox Ave","145th St (3) Manhattan","145th St (3)","Manhattan",NA,"3","3","RED","express",NA,-73.936235020122,40.8204131516344,"259"
"261",261,27,"145th St",NA,"Broadway","145th St (1) Manhattan","145th St (1)","Manhattan",NA,"1","1","RED",NA,NA,-73.9504384407237,40.8264498955664,"261"
"262",262,44,"148th St","Lenox Term","7th Ave","148th St / Lenox Term (3) Manhattan","148th St / Lenox Term (3)","Manhattan",NA,"3","3","RED","express",NA,-73.9372360176491,40.8241081524111,"262"
"267",267,198,"155th St",NA,"St. Nicholas Ave","155th St (C) Manhattan","155th St (C)","Manhattan",NA,"C","C","BLUE",NA,NA,-73.9413907827683,40.8308788247197,"267"
"268",268,28,"157th St",NA,"Broadway","157th St (1) Manhattan","157th St (1)","Manhattan",NA,"1","1","RED",NA,NA,-73.9448747774345,40.8340621548572,"268"
"269",269,199,"163rd St","Amsterdam Ave","St. Nicholas Ave","163rd St / Amsterdam Ave (C) Manhattan","163rd St / Amsterdam Ave (C)","Manhattan",NA,"C","C","BLUE",NA,NA,-73.9400979992657,40.8369340010319,"269"
"271",271,29,"168th St","Washington Hts","Broadway","168th St / Washington Hts (1) Manhattan","168th St / Washington Hts (1)","Manhattan",NA,"1","A,C,1","RED",NA,NA,-73.9397548441526,40.8410742326615,"271"
"272",272,201,"175th St",NA,"Ft Washington Ave","175th St (A) Manhattan","175th St (A)","Manhattan",NA,"A","A","BLUE","express",NA,-73.9400504394409,40.8465382693705,"272"
"273",273,202,"181st St",NA,"Ft Washington Ave","181st St (A) Manhattan","181st St (A)","Manhattan",NA,"A","A","BLUE","express",NA,-73.938280539577,40.8509304582236,"273"
"274",274,30,"181st St",NA,"St. Nicholas Ave","181st St (1) Manhattan","181st St (1)","Manhattan",NA,"1","1","RED",NA,NA,-73.9337183752938,40.8493365387269,"274"
"275",275,10,"18th St",NA,"7th Ave","18th St (1) Manhattan","18th St (1)","Manhattan",NA,"1","1","RED",NA,NA,-73.9978930000735,40.7410290016557,"275"
"276",276,203,"190th St",NA,"Ft Washington Ave","190th St (A) Manhattan","190th St (A)","Manhattan",NA,"A","A","BLUE","express",NA,-73.9355834692238,40.8571284527769,"276"
"277",277,31,"191st St",NA,"St. Nicholas Ave","191st St (1) Manhattan","191st St (1)","Manhattan",NA,"1","1","RED",NA,NA,-73.9291819296902,40.8555457944974,"277"
"278",278,443,"1st Ave",NA,"14 St","1st Ave (L) Manhattan","1st Ave (L)","Manhattan",NA,"L","L","GREY",NA,NA,-73.9825386727408,40.7313540687081,"278"
"279",279,205,"207th St","Inwood","Broadway","207th St / Inwood (A) Manhattan","207th St / Inwood (A)","Manhattan",NA,"A","A","BLUE","express",NA,-73.9211394949742,40.8677109722101,"279"
"280",280,33,"207th St",NA,"10th Ave","207th St (1) Manhattan","207th St (1)","Manhattan",NA,"1","1","RED",NA,NA,-73.9189195994605,40.8644579910982,"280"
"281",281,34,"215th St",NA,"10th Ave","215th St (1) Manhattan","215th St (1)","Manhattan",NA,"1","1","RED",NA,NA,-73.9151923069736,40.8695258356309,"281"
"282",282,35,"225th St","Marble Hill","Broadway","225th St / Marble Hill (1) Manhattan","225th St / Marble Hill (1)","Manhattan",NA,"1","1","RED",NA,NA,-73.9097242395158,40.8746309660587,"282"
"283",283,111,"23rd St",NA,"Park Ave","23rd St (6) Manhattan","23rd St (6)","Manhattan",NA,"6","6","GREEN",NA,NA,-73.9863785077119,40.7401718199392,"283"
"287",287,11,"23rd St",NA,"7th Ave","23rd St (1) Manhattan","23rd St (1)","Manhattan",NA,"1","1","RED",NA,NA,-73.9956510007463,40.7440900013158,"287"
"288",288,112,"28th St",NA,"Park Ave","28th St (6) Manhattan","28th St (6)","Manhattan",NA,"6","6","GREEN",NA,NA,-73.9840772875644,40.7433167209165,"288"
"290",290,12,"28th St",NA,"7th Ave","28th St (1) Manhattan","28th St (1)","Manhattan",NA,"1","1","RED",NA,NA,-73.9933487085554,40.7472409212842,"290"
"292",292,113,"33rd St",NA,"Park Ave","33rd St (6) Manhattan","33rd St (6)","Manhattan",NA,"6","6","GREEN",NA,NA,-73.9818350446626,40.7464088600852,"292"
"296",296,442,"3rd Ave",NA,"14 St","3rd Ave (L) Manhattan","3rd Ave (L)","Manhattan",NA,"L","L","GREY",NA,NA,-73.9871794982052,40.7332889964129,"296"
"302",302,15,"50th St",NA,"Broadway","50th St (1) Manhattan","50th St (1)","Manhattan",NA,"1","1","RED",NA,NA,-73.984046747086,40.7614222736075,"302"
"303",303,115,"51st St",NA,"Lexington Ave","51st St (6) Manhattan","51st St (6)","Manhattan",NA,"6","E,V,6","GREEN",NA,NA,-73.9719189989557,40.7571230008319,"303"
"305",305,299,"57th St",NA,"6th Ave","57th St (F) Manhattan","57th St (F)","Manhattan",NA,"F","F","ORANGE",NA,NA,-73.9772016236655,40.7643094825711,"305"
"308",308,16,"59th St","Columbus Circle","Broadway","59th St / Columbus Circle (1) Manhattan","59th St / Columbus Circle (1)","Manhattan",NA,"1","A,B,C,D,1","RED","express",NA,-73.9817853293899,40.7679833177099,"308"
"311",311,158,"5th Ave",NA,"42nd St","5th Ave (7) Manhattan","5th Ave (7)","Manhattan",NA,"7","B,D,F,V,7","PURPLE","express",NA,-73.980915247002,40.7534340556809,"311"
"312",312,17,"66th St","Lincoln Center","Broadway","66th St / Lincoln Center (1) Manhattan","66th St / Lincoln Center (1)","Manhattan",NA,"1","1","RED",NA,NA,-73.9822212671726,40.7738652562259,"312"
"313",313,117,"68th St","Hunter College","Lexington Ave","68th St / Hunter College (6) Manhattan","68th St / Hunter College (6)","Manhattan",NA,"6","6","GREEN",NA,NA,-73.9640568168716,40.7678740853292,"313"
"316",316,118,"77th St",NA,"Lexington Ave","77th St (6) Manhattan","77th St (6)","Manhattan",NA,"6","6","GREEN",NA,NA,-73.9598539687198,40.773656330631,"316"
"317",317,19,"79th St",NA,"Broadway","79th St (1) Manhattan","79th St (1)","Manhattan",NA,"1","1","RED",NA,NA,-73.9799814178087,40.7838396197351,"317"
"322",322,20,"86th St",NA,"Broadway","86th St (1) Manhattan","86th St (1)","Manhattan",NA,"1","1","RED",NA,NA,-73.9764914567523,40.7883206401474,"322"
"325",325,120,"96th St",NA,"Lexington Ave","96th St (6) Manhattan","96th St (6)","Manhattan",NA,"6","6","GREEN",NA,NA,-73.9509278613271,40.7858504958593,"325"
"328",328,109,"Astor Pl",NA,"4th Ave","Astor Pl (6) Manhattan","Astor Pl (6)","Manhattan",NA,"6","6","GREEN",NA,NA,-73.9914073808496,40.7298475720151,"328"
"329",329,108,"Bleecker St","Broadway-Lafayette St","Lafayette Ave","Bleecker St / Broadway-Lafayette St (6) Manhattan","Bleecker St / Broadway-Lafayette St (6)","Manhattan",NA,"6","B,D,F,V,6","GREEN",NA,NA,-73.9946499999534,40.725926000958,"329"
"336",336,106,"Canal St",NA,"Lafayette Ave","Canal St (6) Manhattan","Canal St (6)","Manhattan",NA,"6","J,M,N,Q,R,W,Z,6","GREEN",NA,NA,-74.0005290009189,40.7184350014147,"336"
"340",340,6,"Canal St",NA,"Varick St","Canal St (1) Manhattan","Canal St (1)","Manhattan",NA,"1","1","RED",NA,NA,-74.0063489995216,40.7225810012215,"340"
"341",341,23,"Cathedral Pky","110th St","Broadway","Cathedral Pky / 110th St (1) Manhattan","Cathedral Pky / 110th St (1)","Manhattan",NA,"1","1","RED",NA,NA,-73.9667061792807,40.8041632428301,"341"
"345",345,8,"Christopher St","Sheridan Sq","7th Ave","Christopher St / Sheridan Sq (1) Manhattan","Christopher St / Sheridan Sq (1)","Manhattan",NA,"1","1","RED",NA,NA,-74.0027786042468,40.7336112173407,"345"
"348",348,204,"Dyckman St",NA,"Broadway","Dyckman St (A) Manhattan","Dyckman St (A)","Manhattan",NA,"A","A","BLUE","express",NA,-73.9273123522747,40.8655018749373,"348"
"349",349,32,"Dyckman St",NA,"Nagle Ave","Dyckman St (1) Manhattan","Dyckman St (1)","Manhattan",NA,"1","1","RED",NA,NA,-73.9246790961892,40.8614809930983,"349"
"350",350,302,"East Broadway",NA,"Canal St","East Broadway (F) Manhattan","East Broadway (F)","Manhattan",NA,"F","F","ORANGE",NA,NA,-73.9902103316628,40.7142379138617,"350"
"351",351,5,"Franklin St",NA,"Varick St","Franklin St (1) Manhattan","Franklin St (1)","Manhattan",NA,"1","1","RED",NA,NA,-74.0069272357493,40.7191498890299,"351"
"356",356,159,"Grand Central",NA,"42nd St","Grand Central (7) Manhattan","Grand Central (7)","Manhattan",NA,"7","S,4,5,6,7","PURPLE","express",NA,-73.9760409996416,40.7514310007061,"356"
"357",357,100,"Grand Central","42nd St","Park Ave","Grand Central / 42nd St (S) Manhattan","Grand Central / 42nd St (S)","Manhattan",NA,"S","S,4,5,6,7","GREY","express",NA,-73.9777824690682,40.7522191942327,"357"
"359",359,7,"Houston St",NA,"Varick St","Houston St (1) Manhattan","Houston St (1)","Manhattan",NA,"1","1","RED",NA,NA,-74.0053120407212,40.7286303099441,"359"
"361",361,441,"Broadway Jct","Eastern Pky","Eastern Pky","Broadway Jct / Eastern Pky (L) Brooklyn","Broadway Jct / Eastern Pky (L)","Brooklyn",NA,"L","A,C,J,L,Z","GREY","express",NA,-73.9032310007463,40.6787620020277,"361"
"362",362,466,"Lexington Ave","63rd St","63rd St","Lexington Ave / 63rd St (F) Manhattan","Lexington Ave / 63rd St (F)","Manhattan",NA,"F","F,N,R,W,4,5,6","ORANGE",NA,NA,-73.9663578011574,40.7646842857931,"362"
"367",367,467,"Roosevelt Island",NA,NA,"Roosevelt Island (F) Manhattan","Roosevelt Island (F)","Manhattan",NA,"F","F","ORANGE",NA,NA,-73.9534080945673,40.7592407040485,"367"
"369",369,107,"Spring St",NA,"Lafayette Ave","Spring St (6) Manhattan","Spring St (6)","Manhattan",NA,"6","6","GREEN",NA,NA,-73.9971329997555,40.7222910011016,"369"
"376",376,174,"103rd St","Corona Plaza","Roosevelt Ave","103rd St / Corona Plaza (7) Queens","103rd St / Corona Plaza (7)","Queens",NA,"7","7","PURPLE",NA,NA,-73.8627320130178,40.749864592111,"376"
"377",377,239,"104th St",NA,"Liberty Ave","104th St (A) Queens","104th St (A)","Queens",NA,"A","A","BLUE",NA,NA,-73.836983544795,40.6819924407092,"377"
"379",379,240,"111th St",NA,"Liberty Ave","111th St (A) Queens","111th St (A)","Queens",NA,"A","A","BLUE",NA,NA,-73.8311043148525,40.6847196965784,"379"
"380",380,330,"111th St",NA,"Jamaica Ave","111th St (J) Queens","111th St (J)","Queens",NA,"J","J","BROWN",NA,NA,-73.8371731380902,40.6969184269953,"380"
"381",381,175,"111th St",NA,"Roosevelt Ave","111th St (7) Queens","111th St (7)","Queens",NA,"7","7","PURPLE",NA,NA,-73.855830980291,40.7515659108868,"381"
"383",383,491,"Cortlandt St",NA,"West Broadway","Cortlandt St (1) Manhattan","Cortlandt St (1)","Manhattan",NA,"1","1","CLOSED",NA,"yes",-74.0124489870128,40.7108421120015,"383"
"384",384,277,"169th St",NA,"Hillside Ave","169th St (F) Queens","169th St (F)","Queens",NA,"F","F","ORANGE",NA,NA,-73.793018766218,40.7106706451709,"384"
"385",385,278,"179th St","Jamaica","Hillside Ave","179th St / Jamaica (F) Queens","179th St / Jamaica (F)","Queens",NA,"F","F","ORANGE",NA,NA,-73.7844582046471,40.7124842303848,"385"
"386",386,468,"21st St",NA,"41st Ave","21st St (F) Queens","21st St (F)","Queens",NA,"F","F","ORANGE",NA,NA,-73.9424096559806,40.7540075919922,"386"
"387",387,289,"21st St",NA,"Jackson Ave","21st St (G) Queens","21st St (G)","Queens",NA,"G","G","LIME",NA,NA,-73.9486240012504,40.7446320008227,"387"
"390",390,164,"33rd St",NA,"Queens Blvd","33rd St (7) Queens","33rd St (7)","Queens",NA,"7","7","PURPLE",NA,NA,-73.9316824410301,40.7446339406321,"390"
"394",394,165,"40th St",NA,"Queens Blvd","40th St (7) Queens","40th St (7)","Queens",NA,"7","7","PURPLE",NA,NA,-73.9242650143992,40.7437827867661,"394"
"395",395,162,"45th Rd","Court House Sq",NA,"45th Rd / Court House Sq (7) Queens","45th Rd / Court House Sq (7)","Queens",NA,"7","E,G,V,7","PURPLE",NA,NA,-73.945493999123,40.7462360010659,"395"
"397",397,166,"46th St",NA,"Queens Blvd","46th St (7) Queens","46th St (7)","Queens",NA,"7","7","PURPLE",NA,NA,-73.9186967364806,40.7431474212936,"397"
"398",398,167,"52nd St",NA,"Roosevelt Ave","52nd St (7) Queens","52nd St (7)","Queens",NA,"7","7","PURPLE",NA,NA,-73.9124890004933,40.7441640008719,"398"
"399",399,168,"61st St","Woodside","Roosevelt Ave","61st St / Woodside (7) Queens","61st St / Woodside (7)","Queens",NA,"7","7","PURPLE","express",NA,-73.9033889991841,40.745586298268,"399"
"403",403,169,"69th St",NA,"Roosevelt Ave","69th St (7) Queens","69th St (7)","Queens",NA,"7","7","PURPLE",NA,NA,-73.8963164131434,40.7463298097851,"403"
"405",405,170,"74th St-Broadway","Jackson Hts-Roosevelt Ave","Roosevelt Ave","74th St-Broadway (7) Queens","74th St-Broadway (7)","Queens",NA,"7","E,F,G,R,V,7","PURPLE",NA,NA,-73.8914382731124,40.7468505697143,"405"
"408",408,236,"80th St",NA,"Liberty Ave","80th St (A) Queens","80th St (A)","Queens",NA,"A","A","BLUE",NA,NA,-73.8577955091291,40.6794587559405,"408"
"409",409,171,"82nd St","Jackson Hts","Roosevelt Ave","82nd St / Jackson Hts (7) Queens","82nd St / Jackson Hts (7)","Queens",NA,"7","7","PURPLE",NA,NA,-73.8839278072164,40.7476264975487,"409"
"410",410,327,"85th St","Forest Pky","Jamaica Ave","85th St / Forest Pky (J) Queens","85th St / Forest Pky (J)","Queens",NA,"J","J","BROWN",NA,NA,-73.8600869997418,40.6924270003842,"410"
"411",411,237,"88th St",NA,"Liberty Ave","88th St (A) Queens","88th St (A)","Queens",NA,"A","A","BLUE",NA,NA,-73.8506533791364,40.6798949771219,"411"
"412",412,172,"90th St","Elmhurst Ave","Roosevelt Ave","90th St / Elmhurst Ave (7) Queens","90th St / Elmhurst Ave (7)","Queens",NA,"7","7","PURPLE",NA,NA,-73.8763550144466,40.7484326093642,"412"
"413",413,242,"Aqueduct","North Conduit Ave","North Conduit Ave","Aqueduct / North Conduit Ave (A) Queens","Aqueduct / North Conduit Ave (A)","Queens",NA,"A","A","BLUE",NA,NA,-73.8333474514168,40.6667886683304,"413"
"416",416,249,"Beach 25th St",NA,"Rockaway Freeway","Beach 25th St (A) Queens","Beach 25th St (A)","Queens",NA,"A","A","BLUE",NA,NA,-73.7615416160762,40.5998567451932,"416"
"417",417,248,"Beach 36th St",NA,"Rockaway Freeway","Beach 36th St (A) Queens","Beach 36th St (A)","Queens",NA,"A","A","BLUE",NA,NA,-73.7685364688972,40.595174929642,"417"
"418",418,247,"Beach 44th St",NA,"Rockaway Freeway","Beach 44th St (A) Queens","Beach 44th St (A)","Queens",NA,"A","A","BLUE",NA,NA,-73.7753163286344,40.5930115571386,"418"
"419",419,246,"Beach 60th St",NA,"Rockaway Freeway","Beach 60th St (A) Queens","Beach 60th St (A)","Queens",NA,"A","A","BLUE",NA,NA,-73.7896714402748,40.5923403268167,"419"
"420",420,245,"Beach 67th St",NA,"Rockaway Freeway","Beach 67th St (A) Queens","Beach 67th St (A)","Queens",NA,"A","A","BLUE",NA,NA,-73.7960223048701,40.5910364986803,"420"
"425",425,290,"Court Sq","Long Island City","45th Rd","Court Sq / Long Island City (G) Queens","Court Sq / Long Island City (G)","Queens",NA,"G","E,G,V,7","LIME",NA,NA,-73.9439430004726,40.746516001404,"425"
"428",428,250,"Far Rockaway","Mott Ave","Mott Ave","Far Rockaway / Mott Ave (A) Queens","Far Rockaway / Mott Ave (A)","Queens",NA,"A","A","BLUE",NA,NA,-73.7540325012733,40.6047976391058,"428"
"429",429,336,"Forest Ave",NA,"67th St","Forest Ave (M) Queens","Forest Ave (M)","Queens",NA,"M","M","BROWN",NA,NA,-73.9019243961459,40.7046897685891,"429"
"430",430,337,"Fresh Pond Rd",NA,"67th St","Fresh Pond Rd (M) Queens","Fresh Pond Rd (M)","Queens",NA,"M","M","BROWN",NA,NA,-73.8966934203242,40.706003701484,"430"
"432",432,243,"Howard Beach","JFK Airport","159th Ave","Howard Beach / JFK Airport (A) Queens","Howard Beach / JFK Airport (A)","Queens",NA,"A","A","BLUE",NA,NA,-73.8303342863906,40.6605310376474,"432"
"433",433,161,"Hunters Point Ave",NA,"49th Ave/21st St","Hunters Point Ave (7) Queens","Hunters Point Ave (7)","Queens",NA,"7","7","PURPLE",NA,NA,-73.9493783085606,40.742112129122,"433"
"435",435,463,"Van Wyck","Jamaica","Queens Blvd","Van Wyck / Jamaica (E) Queens","Van Wyck / Jamaica (E)","Queens",NA,"E","E","BLUE","express",NA,-73.8168566813135,40.7024399537921,"435"
"436",436,173,"Junction Blvd",NA,"Roosevelt Ave","Junction Blvd (7) Queens","Junction Blvd (7)","Queens",NA,"7","7","PURPLE","express",NA,-73.8694220273208,40.7491579672528,"436"
"437",437,241,"Lefferts Blvd","Ozone Park","Liberty Ave","Lefferts Blvd / Ozone Park (A) Queens","Lefferts Blvd / Ozone Park (A)","Queens",NA,"A","A","BLUE",NA,NA,-73.8241863790204,40.6862287779117,"437"
"438",438,177,"Main St","Flushing","Roosevelt Ave","Main St / Flushing (7) Queens","Main St / Flushing (7)","Queens",NA,"7","7","PURPLE","express",NA,-73.8301381468655,40.7595695205456,"438"
"439",439,338,"Metropolitan Ave","Middle Village","67th St","Metropolitan Ave / Middle Village (M) Queens","Metropolitan Ave / Middle Village (M)","Queens",NA,"M","M","BROWN",NA,NA,-73.8891759199306,40.7122933022803,"439"
"441",441,276,"Parsons Blvd",NA,"Hillside Ave","Parsons Blvd (F) Queens","Parsons Blvd (F)","Queens",NA,"F","F","ORANGE",NA,NA,-73.8027863266641,40.7077106565976,"441"
"444",444,238,"Rockaway Blvd",NA,"Liberty Ave","Rockaway Blvd (A) Queens","Rockaway Blvd (A)","Queens",NA,"A","A","BLUE",NA,NA,-73.8436979130631,40.6804778492035,"444"
"447",447,335,"Seneca Ave",NA,"Palmetto St","Seneca Ave (M) Queens","Seneca Ave (M)","Queens",NA,"M","M","BROWN",NA,NA,-73.9076920367078,40.702812599296,"447"
"450",450,275,"Sutphin Blvd",NA,"Hillside Ave","Sutphin Blvd (F) Queens","Sutphin Blvd (F)","Queens",NA,"F","F","ORANGE",NA,NA,-73.8096929438519,40.7057495172341,"450"
"453",453,160,"Vernon Blvd","Jackson Ave","Jackson Ave","Vernon Blvd / Jackson Ave (7) Queens","Vernon Blvd / Jackson Ave (7)","Queens",NA,"7","7","PURPLE",NA,NA,-73.9538919220001,40.7426737809299,"453"
"454",454,176,"Willets Point Blvd","Shea Stadium","Roosevelt Ave","Willets Point Blvd / Shea Stadium (7) Queens","Willets Point Blvd / Shea Stadium (7)","Queens",NA,"7","7","PURPLE","express",NA,-73.8432085591657,40.7553375648287,"454"
"457",457,483,"Annadale",NA,NA,"Annadale, Staten Island","Annadale","Staten Island",NA,NA,NA,"SI-BLUE",NA,NA,-74.1777909089856,40.5407483423651,"457"
"458",458,489,"Atlantic",NA,NA,"Atlantic, Staten Island","Atlantic","Staten Island",NA,NA,NA,"SI-BLUE",NA,NA,-74.2456814137371,40.5155005885622,"458"
"459",459,480,"Bay Terrace",NA,NA,"Bay Terrace, Staten Island","Bay Terrace","Staten Island",NA,NA,NA,"SI-BLUE",NA,NA,-74.1368590331868,40.5565481398522,"459"
"460",460,472,"Clifton",NA,NA,"Clifton, Staten Island","Clifton","Staten Island",NA,NA,NA,"SI-BLUE",NA,NA,-74.0717735863758,40.6220391169262,"460"
"461",461,475,"Dongan Hills",NA,NA,"Dongan Hills, Staten Island","Dongan Hills","Staten Island",NA,NA,NA,"SI-BLUE",NA,NA,-74.0957821207109,40.5890555810767,"461"
"462",462,482,"Eltingville",NA,NA,"Eltingville, Staten Island","Eltingville","Staten Island",NA,NA,NA,"SI-BLUE",NA,NA,-74.1649626297763,40.5444862820014,"462"
"463",463,477,"Grant City",NA,NA,"Grant City, Staten Island","Grant City","Staten Island",NA,NA,NA,"SI-BLUE",NA,NA,-74.1089404873502,40.5793488816965,"463"
"464",464,473,"Grasmere",NA,NA,"Grasmere, Staten Island","Grasmere","Staten Island",NA,NA,NA,"SI-BLUE",NA,NA,-74.0838538114859,40.6033413808238,"464"
"465",465,481,"Great Kills",NA,NA,"Great Kills, Staten Island","Great Kills","Staten Island",NA,NA,NA,"SI-BLUE",NA,NA,-74.1508494061581,40.5515612648393,"465"
"466",466,484,"Huguenot",NA,NA,"Huguenot, Staten Island","Huguenot","Staten Island",NA,NA,NA,"SI-BLUE",NA,NA,-74.1923182516022,40.5335503680906,"466"
"467",467,476,"Jefferson Av",NA,NA,"Jefferson Av, Staten Island","Jefferson Av","Staten Island",NA,NA,NA,"SI-BLUE",NA,NA,-74.1026113510482,40.5839327553337,"467"
"468",468,488,"Nassau",NA,NA,"Nassau, Staten Island","Nassau","Staten Island",NA,NA,NA,"SI-BLUE",NA,NA,-74.2385823323477,40.5180595304325,"468"
"469",469,478,"New Dorp",NA,NA,"New Dorp, Staten Island","New Dorp","Staten Island",NA,NA,NA,"SI-BLUE",NA,NA,-74.1166145196593,40.5738149211624,"469"
"470",470,479,"Oakwood Heights",NA,NA,"Oakwood Heights, Staten Island","Oakwood Heights","Staten Island",NA,NA,NA,"SI-BLUE",NA,NA,-74.1263747951783,40.5648749779358,"470"
"471",471,474,"Old Town",NA,NA,"Old Town, Staten Island","Old Town","Staten Island",NA,NA,NA,"SI-BLUE",NA,NA,-74.0878368916855,40.5960545917904,"471"
"472",472,486,"Pleasant Plains",NA,NA,"Pleasant Plains, Staten Island","Pleasant Plains","Staten Island",NA,NA,NA,"SI-BLUE",NA,NA,-74.2169668885337,40.522919481365,"472"
"473",473,485,"Prince's Bay",NA,NA,"Prince's Bay, Staten Island","Prince's Bay","Staten Island",NA,NA,NA,"SI-BLUE",NA,NA,-74.2004203752684,40.525511544665,"473"
"474",474,487,"Richmond Valley",NA,NA,"Richmond Valley, Staten Island","Richmond Valley","Staten Island",NA,NA,NA,"SI-BLUE",NA,NA,-74.2289860456957,40.5197915633112,"474"
"475",475,469,"St George",NA,NA,"St George, Staten Island","St George","Staten Island",NA,NA,NA,"SI-BLUE",NA,NA,-74.0742611150226,40.643365740449,"475"
"476",476,471,"Stapleton",NA,NA,"Stapleton, Staten Island","Stapleton","Staten Island",NA,NA,NA,"SI-BLUE",NA,NA,-74.0752477449114,40.6277079532085,"476"
"477",477,470,"Tompkinsville",NA,NA,"Tompkinsville, Staten Island","Tompkinsville","Staten Island",NA,NA,NA,"SI-BLUE",NA,NA,-74.0747234172051,40.6372304205686,"477"
"478",478,490,"Tottenville",NA,NA,"Tottenville, Staten Island","Tottenville","Staten Island",NA,NA,NA,"SI-BLUE",NA,NA,-74.2529136767024,40.5124155665045,"478"
"480",480,492,"World Trade Center","Chambers St","Church St","World Trade Center / Chambers St (E) Manhattan","World Trade Center / Chambers St (E)","Manhattan",NA,"E","A,C,E,2,3","BLUE",NA,NA,-74.0096360002177,40.712708001495,"480"
"482",482,904,"JFK Terminal 1",NA,NA,"JFK Terminal 1, Queens","JFK Terminal 1","Queens",NA,NA,NA,"AIR-BLUE",NA,NA,-73.7894582358111,40.6429766875904,"482"
"483",483,905,"JFK Terminal 2-3",NA,NA,"JFK Terminal 2-3, Queens","JFK Terminal 2-3","Queens",NA,NA,NA,"AIR-BLUE",NA,NA,-73.7874793002334,40.6417846139722,"483"
"484",484,906,"JFK Terminal 4",NA,NA,"JFK Terminal 4, Queens","JFK Terminal 4","Queens",NA,NA,NA,"AIR-BLUE",NA,NA,-73.7820131296516,40.6435075149824,"484"
"485",485,907,"JFK Terminal 5-6",NA,NA,"JFK Terminal 5-6, Queens","JFK Terminal 5-6","Queens",NA,NA,NA,"AIR-BLUE",NA,NA,-73.7788828314122,40.6464973814876,"485"
"486",486,908,"JFK Terminal 7",NA,NA,"JFK Terminal 7, Queens","JFK Terminal 7","Queens",NA,NA,NA,"AIR-BLUE",NA,NA,-73.7831667751971,40.6485852964149,"486"
"487",487,909,"JFK Terminal 8",NA,NA,"JFK Terminal 8, Queens","JFK Terminal 8","Queens",NA,NA,NA,"AIR-BLUE",NA,NA,-73.7884679001109,40.6477781214906,"487"
"488",488,903,"Federal Circle","Rental Car",NA,"Federal Circle / Rental Car, Queens","Federal Circle / Rental Car","Queens",NA,NA,NA,"AIR-BLUE",NA,NA,-73.8063499891752,40.6599033229731,"488"
"489",489,902,"Long Term Parking",NA,NA,"Long Term Parking, Queens","Long Term Parking","Queens",NA,NA,NA,"AIR-BLUE",NA,NA,-73.8222708186622,40.6633739780158,"489"
"490",490,901,"Howard Beach",NA,"159th Ave","Howard Beach, Queens","Howard Beach","Queens",NA,NA,"A","AIR-BLUE",NA,NA,-73.8304627860799,40.661762238991,"490"
"491",491,900,"Jamaica","Sutphin Blvd","Sutphin Blvd","Jamaica / Sutphin Blvd, Queens","Jamaica / Sutphin Blvd","Queens",NA,NA,"E,J,Z","AIR-BLUE",NA,NA,-73.8081514426658,40.7003709303647,"491"
"492",1,376,"Cortlandt St",NA,"Church St","Cortlandt St (R,W) Manhattan","Cortlandt St (R,W)","Manhattan",NA,"R","R,W","YELLOW",NA,NA,-74.0112154620408,40.7103842574568,"d1ebfc211576b0448d585d1274b16574"
"493",1,376,"Cortlandt St",NA,"Church St","Cortlandt St (R,W) Manhattan","Cortlandt St (R,W)","Manhattan",NA,"W","R,W","YELLOW",NA,NA,-74.0112154620408,40.7103842574568,"6108c039610cd850faa0df15059fb554"
"494",4,125,"138th St","Grand Concourse","Grand Concourse","138th St / Grand Concourse (4,5) Bronx","138th St / Grand Concourse (4,5)","Bronx",NA,"4","4,5","GREEN",NA,NA,-73.9299176698062,40.8130768147539,"6292b4272995497d959814181d472846"
"495",4,125,"138th St","Grand Concourse","Grand Concourse","138th St / Grand Concourse (4,5) Bronx","138th St / Grand Concourse (4,5)","Bronx",NA,"5","4,5","GREEN",NA,NA,-73.9299176698062,40.8130768147539,"3b28d5199d021be8829e513b5a0b3d26"
"610",6,45,"149th St","Grand Concourse","Grand Concourse","149th St / Grand Concourse (2,5) Bronx","149th St / Grand Concourse (2,5)","Bronx",NA,"2","2,4,5","RED-GREEN","express",NA,-73.9272709308977,40.8185533981537,"12fd8947d03ebfc0070bf5e23c400d84"
"611",6,45,"149th St","Grand Concourse","Grand Concourse","149th St / Grand Concourse (2,5) Bronx","149th St / Grand Concourse (2,5)","Bronx",NA,"5","2,4,5","RED-GREEN","express",NA,-73.9272709308977,40.8185533981537,"e1d7f4d68ed83d4d641d35e9dff4868e"
"710",7,127,"161st St","Yankee Stadium","River Ave","161st St / Yankee Stadium (B,D,4) Bronx","161st St / Yankee Stadium (B,D,4)","Bronx",NA,"B","B,D,4","GREEN-ORANGE",NA,NA,-73.9258470681961,40.8279634320058,"a1ef6556c04045f685a3a92d8152d3f5"
"711",7,127,"161st St","Yankee Stadium","River Ave","161st St / Yankee Stadium (B,D,4) Bronx","161st St / Yankee Stadium (B,D,4)","Bronx",NA,"D","B,D,4","GREEN-ORANGE",NA,NA,-73.9258470681961,40.8279634320058,"7bc2b63d48e75b436d595cee68672a0c"
"712",7,127,"161st St","Yankee Stadium","River Ave","161st St / Yankee Stadium (B,D,4) Bronx","161st St / Yankee Stadium (B,D,4)","Bronx",NA,"4","B,D,4","GREEN-ORANGE",NA,NA,-73.9258470681961,40.8279634320058,"f0ac66a31f795c73cc05df4c3ef60361"
"810",8,208,"167th St",NA,"Grand Concourse","167th St (B,D) Bronx","167th St (B,D)","Bronx",NA,"B","B,D","ORANGE",NA,NA,-73.9176802395588,40.8345134640184,"2e739f1517c043d38d958e997a7400ba"
"811",8,208,"167th St",NA,"Grand Concourse","167th St (B,D) Bronx","167th St (B,D)","Bronx",NA,"D","B,D","ORANGE",NA,NA,-73.9176802395588,40.8345134640184,"ae5a820ecf5319e31cc0d6f2fab8ac49"
"1010",10,209,"170th St",NA,"Grand Concourse","170th St (B,D) Bronx","170th St (B,D)","Bronx",NA,"B","B,D","ORANGE",NA,NA,-73.9136864013069,40.838840362565,"eea0a9df83f2d83cfd329789488abd17"
"1011",10,209,"170th St",NA,"Grand Concourse","170th St (B,D) Bronx","170th St (B,D)","Bronx",NA,"D","B,D","ORANGE",NA,NA,-73.9136864013069,40.838840362565,"465fce79a25e8da69b068bd69cd4e4d9"
"1210",12,52,"174th St",NA,"Southern Blvd","174th St (2,5) Bronx","174th St (2,5)","Bronx",NA,"2","2,5","RED-GREEN",NA,NA,-73.8876820000161,40.8373490010571,"8814e678275195e5cf955f5d86e21913"
"1211",12,52,"174th St",NA,"Southern Blvd","174th St (2,5) Bronx","174th St (2,5)","Bronx",NA,"5","2,5","RED-GREEN",NA,NA,-73.8876820000161,40.8373490010571,"8e8a71f59c7a40a5c2de35021d1bd470"
"1310",13,210,"174th St","175th St","Grand Concourse","174th St / 175th St (B,D) Bronx","174th St / 175th St (B,D)","Bronx",NA,"B","B,D","ORANGE",NA,NA,-73.9101740007649,40.8459140014645,"55e4c74e2fd8e0477746a4fc4259ff05"
"1311",13,210,"174th St","175th St","Grand Concourse","174th St / 175th St (B,D) Bronx","174th St / 175th St (B,D)","Bronx",NA,"D","B,D","ORANGE",NA,NA,-73.9101740007649,40.8459140014645,"fee0578fcd3cb22a3055fd182249e5b0"
"1510",15,212,"182nd St","183rd St","Grand Concourse","182nd St / 183rd St (B,D) Bronx","182nd St / 183rd St (B,D)","Bronx",NA,"B","B,D","ORANGE",NA,NA,-73.9002709995118,40.8568160008995,"578b0997fdeb83b4b4f8eb9398961be0"
"1511",15,212,"182nd St","183rd St","Grand Concourse","182nd St / 183rd St (B,D) Bronx","182nd St / 183rd St (B,D)","Bronx",NA,"D","B,D","ORANGE",NA,NA,-73.9002709995118,40.8568160008995,"a2331fa6d09ab0e3786db8b3c5fdcb81"
"1810",18,60,"219th St",NA,"White Plains Rd","219th St (2,5) Bronx","219th St (2,5)","Bronx",NA,"2","2,5","RED-GREEN",NA,NA,-73.8627996620091,40.8835792121441,"d16b0a4864d53254945d244e9451ce7d"
"1811",18,60,"219th St",NA,"White Plains Rd","219th St (2,5) Bronx","219th St (2,5)","Bronx",NA,"5","2,5","RED-GREEN",NA,NA,-73.8627996620091,40.8835792121441,"21b4728f4c28277667d8c3b52a4ccd8a"
"1910",19,61,"225th St",NA,"White Plains Rd","225th St (2,5) Bronx","225th St (2,5)","Bronx",NA,"2","2,5","RED-GREEN",NA,NA,-73.8604248993307,40.8878100972121,"34e59f1b346851800a846ec741ceeea6"
"1911",19,61,"225th St",NA,"White Plains Rd","225th St (2,5) Bronx","225th St (2,5)","Bronx",NA,"5","2,5","RED-GREEN",NA,NA,-73.8604248993307,40.8878100972121,"46df648bc59a6a359c7265d527f8e2a5"
"2110",21,62,"233rd St",NA,"White Plains Rd","233rd St (2,5) Bronx","233rd St (2,5)","Bronx",NA,"2","2,5","RED-GREEN",NA,NA,-73.8573490290909,40.8933933264913,"5bc66bb8d2c8b6e09f75ec59b85accf0"
"2111",21,62,"233rd St",NA,"White Plains Rd","233rd St (2,5) Bronx","233rd St (2,5)","Bronx",NA,"5","2,5","RED-GREEN",NA,NA,-73.8573490290909,40.8933933264913,"2fcce74fb2a778aaa8c1c8e04050c624"
"2510",25,296,"W 4th St",NA,"6th Ave","W 4th St (B,D,F,V) Manhattan","W 4th St (B,D,F,V)","Manhattan",NA,"B","A,B,C,D,E,F,V","ORANGE","express",NA,-74.0009020009322,40.7316820010151,"d2745c712c4a2dc0e8fac4a22f56af9a"
"2511",25,296,"W 4th St",NA,"6th Ave","W 4th St (B,D,F,V) Manhattan","W 4th St (B,D,F,V)","Manhattan",NA,"D","A,B,C,D,E,F,V","ORANGE","express",NA,-74.0009020009322,40.7316820010151,"50f6ef4fe32474267231d761ae55016f"
"2512",25,296,"W 4th St",NA,"6th Ave","W 4th St (B,D,F,V) Manhattan","W 4th St (B,D,F,V)","Manhattan",NA,"F","A,B,C,D,E,F,V","ORANGE","express",NA,-74.0009020009322,40.7316820010151,"a78519c4ba83b29986d4601a99aec255"
"2513",25,296,"W 4th St",NA,"6th Ave","W 4th St (B,D,F,V) Manhattan","W 4th St (B,D,F,V)","Manhattan",NA,"V","A,B,C,D,E,F,V","ORANGE","express",NA,-74.0009020009322,40.7316820010151,"98d531cbdb6151f49f1e045c1d4d84d6"
"2710",27,46,"3rd Ave","149th St","149th St","3rd Ave / 149th St (2,5) Bronx","3rd Ave / 149th St (2,5)","Bronx",NA,"2","2,5","RED-GREEN","express",NA,-73.9176421259004,40.8160612033102,"1db6afd0afcb25dafdec6d526d248ed0"
"2711",27,46,"3rd Ave","149th St","149th St","3rd Ave / 149th St (2,5) Bronx","3rd Ave / 149th St (2,5)","Bronx",NA,"5","2,5","RED-GREEN","express",NA,-73.9176421259004,40.8160612033102,"d77d5840f2cb485392a2678606b8c439"
"2810",28,57,"Allerton Ave",NA,"White Plains Rd","Allerton Ave (2,5) Bronx","Allerton Ave (2,5)","Bronx",NA,"2","2,5","RED-GREEN",NA,NA,-73.8673197182301,40.8654339300786,"c34f3d6acfb42e3111026620f714375f"
"2811",28,57,"Allerton Ave",NA,"White Plains Rd","Allerton Ave (2,5) Bronx","Allerton Ave (2,5)","Bronx",NA,"5","2,5","RED-GREEN",NA,NA,-73.8673197182301,40.8654339300786,"148f7a1684d5320f0dc8987a7bb43b55"
"3010",30,215,"Bedford Park Blvd",NA,"Grand Concourse","Bedford Park Blvd (B,D) Bronx","Bedford Park Blvd (B,D)","Bronx",NA,"B","B,D","ORANGE",NA,NA,-73.8878730004545,40.8721090010104,"2db4def6f020e96ca1db55a7edb920f4"
"3011",30,215,"Bedford Park Blvd",NA,"Grand Concourse","Bedford Park Blvd (B,D) Bronx","Bedford Park Blvd (B,D)","Bronx",NA,"D","B,D","ORANGE",NA,NA,-73.8878730004545,40.8721090010104,"328e7586203c9254e142c6013898ef22"
"3210",32,55,"Bronx Park East",NA,"White Plains Rd","Bronx Park East (2,5) Bronx","Bronx Park East (2,5)","Bronx",NA,"2","2,5","RED-GREEN",NA,NA,-73.8683564969559,40.8489910210693,"fef86ee8477e309271c03d94d9d293b5"
"3211",32,55,"Bronx Park East",NA,"White Plains Rd","Bronx Park East (2,5) Bronx","Bronx Park East (2,5)","Bronx",NA,"5","2,5","RED-GREEN",NA,NA,-73.8683564969559,40.8489910210693,"e4a30ee23b4060dddd9b1da29b445332"
"3510",35,58,"Burke Ave",NA,"White Plains Rd","Burke Ave (2,5) Bronx","Burke Ave (2,5)","Bronx",NA,"2","2,5","RED-GREEN",NA,NA,-73.8671730013857,40.8714350072222,"e7166ef628d777b459963fc16694773c"
"3511",35,58,"Burke Ave",NA,"White Plains Rd","Burke Ave (2,5) Bronx","Burke Ave (2,5)","Bronx",NA,"5","2,5","RED-GREEN",NA,NA,-73.8671730013857,40.8714350072222,"d204ffb814ff724cab6184c8b6f416e9"
"4310",43,54,"E 180th St",NA,"Morris Park Ave","E 180th St (2,5) Bronx","E 180th St (2,5)","Bronx",NA,"2","2,5","RED-GREEN","express",NA,-73.8741538879562,40.8413716522075,"3ae286d5d9d0d50f1f4e649252b03a71"
"4311",43,54,"E 180th St",NA,"Morris Park Ave","E 180th St (2,5) Bronx","E 180th St (2,5)","Bronx",NA,"5","2,5","RED-GREEN","express",NA,-73.8741538879562,40.8413716522075,"5c7bf93adb16e1c82e10b47799235984"
"4410",44,53,"E Tremont Ave","West Farms Sq","Boston Rd","E Tremont Ave / West Farms Sq (2,5) Bronx","E Tremont Ave / West Farms Sq (2,5)","Bronx",NA,"2","2,5","RED-GREEN",NA,NA,-73.8804269571172,40.8400902337291,"42b9f9bf7cc0e1de5c2c4a256dcf611f"
"4411",44,53,"E Tremont Ave","West Farms Sq","Boston Rd","E Tremont Ave / West Farms Sq (2,5) Bronx","E Tremont Ave / West Farms Sq (2,5)","Bronx",NA,"5","2,5","RED-GREEN",NA,NA,-73.8804269571172,40.8400902337291,"1c5fca42aaa1fee8ae3b65560f87c07f"
"4610",46,213,"Fordham Rd",NA,"Grand Concourse","Fordham Rd (B,D) Bronx","Fordham Rd (B,D)","Bronx",NA,"B","B,D","ORANGE","express",NA,-73.8971017979186,40.862416003421,"add54c1dd007c3d885bf18713f170140"
"4611",46,213,"Fordham Rd",NA,"Grand Concourse","Fordham Rd (B,D) Bronx","Fordham Rd (B,D)","Bronx",NA,"D","B,D","ORANGE","express",NA,-73.8971017979186,40.862416003421,"5639109668fd1bf7b911387725d8006b"
"4810",48,51,"Freeman St",NA,"Southern Blvd","Freeman St (2,5) Bronx","Freeman St (2,5)","Bronx",NA,"2","2,5","RED-GREEN",NA,NA,-73.891831914025,40.8301696659369,"1ee50bab0be612703572e6d734d306e0"
"4811",48,51,"Freeman St",NA,"Southern Blvd","Freeman St (2,5) Bronx","Freeman St (2,5)","Bronx",NA,"5","2,5","RED-GREEN",NA,NA,-73.891831914025,40.8301696659369,"d33c6704d00e79db2dd62353883a9c7f"
"501",50,59,"Gun Hill Rd",NA,"White Plains Rd","Gun Hill Rd (2,5) Bronx","Gun Hill Rd (2,5)","Bronx",NA,"2","2,5","RED-GREEN",NA,NA,-73.8665184439977,40.8774108055473,"c5a263ab075e511ee618dd5990350d36"
"502",50,59,"Gun Hill Rd",NA,"White Plains Rd","Gun Hill Rd (2,5) Bronx","Gun Hill Rd (2,5)","Bronx",NA,"5","2,5","RED-GREEN",NA,NA,-73.8665184439977,40.8774108055473,"0807431e361e1bd2cb06ae7dabe28da3"
"521",52,49,"Intervale Ave",NA,"Westchester Ave","Intervale Ave (2,5) Bronx","Intervale Ave (2,5)","Bronx",NA,"2","2,5","RED-GREEN",NA,NA,-73.896892779673,40.8220955744118,"d191f60833b8923c952f5435778dbf5b"
"522",52,49,"Intervale Ave",NA,"Westchester Ave","Intervale Ave (2,5) Bronx","Intervale Ave (2,5)","Bronx",NA,"5","2,5","RED-GREEN",NA,NA,-73.896892779673,40.8220955744118,"a70a36a7cebe3ae15ef212c1062cc473"
"531",53,47,"Jackson Ave",NA,"Westchester Ave","Jackson Ave (2,5) Bronx","Jackson Ave (2,5)","Bronx",NA,"2","2,5","RED-GREEN",NA,NA,-73.908252751634,40.8162420137351,"ee06105f0c2f5e1adf3979d26a4037ea"
"532",53,47,"Jackson Ave",NA,"Westchester Ave","Jackson Ave (2,5) Bronx","Jackson Ave (2,5)","Bronx",NA,"5","2,5","RED-GREEN",NA,NA,-73.908252751634,40.8162420137351,"3ba49855104cdd479ad8f644d42b6b95"
"541",54,214,"Kingsbridge Rd",NA,"Grand Concourse","Kingsbridge Rd (B,D) Bronx","Kingsbridge Rd (B,D)","Bronx",NA,"B","B,D","ORANGE",NA,NA,-73.8942930121922,40.866175277228,"6fe53cf1e6a244c712e63aa7485c8060"
"542",54,214,"Kingsbridge Rd",NA,"Grand Concourse","Kingsbridge Rd (B,D) Bronx","Kingsbridge Rd (B,D)","Bronx",NA,"D","B,D","ORANGE",NA,NA,-73.8942930121922,40.866175277228,"4377112db8177a6300075e52f379184d"
"621",62,63,"Nereid Ave","238th St","White Plains Rd","Nereid Ave / 238th St (2,5) Bronx","Nereid Ave / 238th St (2,5)","Bronx",NA,"2","2,5","RED-GREEN",NA,NA,-73.8543225408412,40.8984621366437,"d048309ac31074554ba56e5a1189cc22"
"622",62,63,"Nereid Ave","238th St","White Plains Rd","Nereid Ave / 238th St (2,5) Bronx","Nereid Ave / 238th St (2,5)","Bronx",NA,"5","2,5","RED-GREEN",NA,NA,-73.8543225408412,40.8984621366437,"36a80e36f8d66339fb1b5e160d40a7bf"
"651",65,56,"Pelham Pky",NA,"White Plains Rd","Pelham Pky (2,5) Bronx","Pelham Pky (2,5)","Bronx",NA,"2","2,5","RED-GREEN",NA,NA,-73.8676073136145,40.857235233817,"3e7aa4a0bb41ed335ebbe17f812943fb"
"652",65,56,"Pelham Pky",NA,"White Plains Rd","Pelham Pky (2,5) Bronx","Pelham Pky (2,5)","Bronx",NA,"5","2,5","RED-GREEN",NA,NA,-73.8676073136145,40.857235233817,"8bd760208925d6e0e409ec5c40c73afd"
"661",66,48,"Prospect Ave",NA,"Westchester Ave","Prospect Ave (2,5) Bronx","Prospect Ave (2,5)","Bronx",NA,"2","2,5","RED-GREEN",NA,NA,-73.9016285595305,40.8196777277961,"bbd0d4616cba2bbb60ea1096b46a4315"
"662",66,48,"Prospect Ave",NA,"Westchester Ave","Prospect Ave (2,5) Bronx","Prospect Ave (2,5)","Bronx",NA,"5","2,5","RED-GREEN",NA,NA,-73.9016285595305,40.8196777277961,"31197b00efa2ef21f51fc72a60b4ddb7"
"671",67,50,"Simpson St",NA,"Westchester Ave","Simpson St (2,5) Bronx","Simpson St (2,5)","Bronx",NA,"2","2,5","RED-GREEN",NA,NA,-73.8929554463106,40.8241307780039,"d78d27a86b3f9bd3c46b32b2572d00a9"
"672",67,50,"Simpson St",NA,"Westchester Ave","Simpson St (2,5) Bronx","Simpson St (2,5)","Bronx",NA,"5","2,5","RED-GREEN",NA,NA,-73.8929554463106,40.8241307780039,"5579f7c729a17454b71931d5e523d4fb"
"691",69,211,"Tremont Ave",NA,"Grand Concourse","Tremont Ave (B,D) Bronx","Tremont Ave (B,D)","Bronx",NA,"B","B,D","ORANGE","express",NA,-73.9059303907008,40.8494899245187,"b2ac446aedaa3dbd3607bdaac16d1b30"
"692",69,211,"Tremont Ave",NA,"Grand Concourse","Tremont Ave (B,D) Bronx","Tremont Ave (B,D)","Bronx",NA,"D","B,D","ORANGE","express",NA,-73.9059303907008,40.8494899245187,"5e87ef885552bfbba67b0e65e08de952"
"751",75,422,"18th Ave",NA,"New Utrecht Ave","18th Ave (D,M) Brooklyn","18th Ave (D,M)","Brooklyn",NA,"D","D,M","BROWN-ORANGE",NA,NA,-74.0017287561241,40.6079687107108,"08219a1df382ff9198ea12cb27b45bf9"
"752",75,422,"18th Ave",NA,"New Utrecht Ave","18th Ave (D,M) Brooklyn","18th Ave (D,M)","Brooklyn",NA,"M","D,M","BROWN-ORANGE",NA,NA,-74.0017287561241,40.6079687107108,"21271c8be5c89422d3b552e4f6cac843"
"791",79,423,"20th Ave",NA,"86th St","20th Ave (D,M) Brooklyn","20th Ave (D,M)","Brooklyn",NA,"D","D,M","BROWN-ORANGE",NA,NA,-73.9982510014794,40.6046310002271,"7be8e7d6a8c074eb0d5b4e3516e44fd9"
"792",79,423,"20th Ave",NA,"86th St","20th Ave (D,M) Brooklyn","20th Ave (D,M)","Brooklyn",NA,"M","D,M","BROWN-ORANGE",NA,NA,-73.9982510014794,40.6046310002271,"6a23411d95b4e64a1f6a3cc0e6d9ee38"
"812",81,406,"25th St",NA,"4th Ave","25th St (M,R) Brooklyn","25th St (M,R)","Brooklyn",NA,"M","M,R","BROWN-YELLOW",NA,NA,-73.9980208673238,40.6604676787805,"587abf26c8cc6b3f5e09a4a3f02bfe3c"
"813",81,406,"25th St",NA,"4th Ave","25th St (M,R) Brooklyn","25th St (M,R)","Brooklyn",NA,"R","M,R","BROWN-YELLOW",NA,NA,-73.9980208673238,40.6604676787805,"b98bc0b1a66eeda64d45df2d1e7650bc"
"821",82,407,"36th St",NA,"4th Ave","36th St (D,M,N,R) Brooklyn","36th St (D,M,N,R)","Brooklyn",NA,"D","D,M,N,R","BROWN-ORANGE-YELLOW","express",NA,-74.0044317612039,40.6543102902724,"4f05bc9ab932b46640e78031581cf443"
"822",82,407,"36th St",NA,"4th Ave","36th St (D,M,N,R) Brooklyn","36th St (D,M,N,R)","Brooklyn",NA,"M","D,M,N,R","BROWN-ORANGE-YELLOW","express",NA,-74.0044317612039,40.6543102902724,"edf43db96dcf3d54b7e71a3b194f9424"
"823",82,407,"36th St",NA,"4th Ave","36th St (D,M,N,R) Brooklyn","36th St (D,M,N,R)","Brooklyn",NA,"N","D,M,N,R","BROWN-ORANGE-YELLOW","express",NA,-74.0044317612039,40.6543102902724,"a3366d56e68007db641a1eaf007a354b"
"824",82,407,"36th St",NA,"4th Ave","36th St (D,M,N,R) Brooklyn","36th St (D,M,N,R)","Brooklyn",NA,"R","D,M,N,R","BROWN-ORANGE-YELLOW","express",NA,-74.0044317612039,40.6543102902724,"3f7f0ec02c906e896093b2465279fa88"
"851",85,417,"50th St",NA,"New Utrecht Ave","50th St (D,M) Brooklyn","50th St (D,M)","Brooklyn",NA,"D","D,M","BROWN-ORANGE",NA,NA,-73.9948308670082,40.6357623853813,"6d9f25d4866d63fb41cfb38ab25e1cd1"
"852",85,417,"50th St",NA,"New Utrecht Ave","50th St (D,M) Brooklyn","50th St (D,M)","Brooklyn",NA,"M","D,M","BROWN-ORANGE",NA,NA,-73.9948308670082,40.6357623853813,"b475b5f9a104dfc674b902df329b82e3"
"871",87,418,"55th St",NA,"New Utrecht Ave","55th St (D,M) Brooklyn","55th St (D,M)","Brooklyn",NA,"D","D,M","BROWN-ORANGE",NA,NA,-73.995441352559,40.6315596524646,"619b261ef78f084e330d3dcc91f3b649"
"872",87,418,"55th St",NA,"New Utrecht Ave","55th St (D,M) Brooklyn","55th St (D,M)","Brooklyn",NA,"M","D,M","BROWN-ORANGE",NA,NA,-73.995441352559,40.6315596524646,"455866bfcc60e726fb47fb28eb80ae2b"
"881",88,410,"59th St",NA,"4th Ave","59th St (N,R) Brooklyn","59th St (N,R)","Brooklyn",NA,"N","N,R","YELLOW","express",NA,-74.0178196133393,40.6414137071094,"502140209c589adc747947a6a240720b"
"882",88,410,"59th St",NA,"4th Ave","59th St (N,R) Brooklyn","59th St (N,R)","Brooklyn",NA,"R","N,R","YELLOW","express",NA,-74.0178196133393,40.6414137071094,"01a3dae754d1c5e5320db968d3950a65"
"891",89,419,"62nd St","New Utrecht Ave","New Utrecht Ave","62nd St / New Utrecht Ave (M,D) Brooklyn","62nd St / New Utrecht Ave (M,D)","Brooklyn",NA,"M","D,M,N","BROWN-ORANGE",NA,NA,-73.9969882207905,40.6260692485941,"5bd7e86da6803a08bca57a6346fd9c8f"
"892",89,419,"62nd St","New Utrecht Ave","New Utrecht Ave","62nd St / New Utrecht Ave (M,D) Brooklyn","62nd St / New Utrecht Ave (M,D)","Brooklyn",NA,"D","D,M,N","BROWN-ORANGE",NA,NA,-73.9969882207905,40.6260692485941,"127aed2e31f5e0610941600ca6c21e05"
"901",90,420,"71st St",NA,"New Utrecht Ave","71st St (D,M) Brooklyn","71st St (D,M)","Brooklyn",NA,"D","D,M","BROWN-ORANGE",NA,NA,-73.9990295959256,40.6189661931805,"314c1d47db13d22a10eab88f616906d9"
"902",90,420,"71st St",NA,"New Utrecht Ave","71st St (D,M) Brooklyn","71st St (D,M)","Brooklyn",NA,"M","D,M","BROWN-ORANGE",NA,NA,-73.9990295959256,40.6189661931805,"063adc7f00d43a2b66cd74643be1a63d"
"921",92,421,"79th St",NA,"New Utrecht Ave","79th St (D,M) Brooklyn","79th St (D,M)","Brooklyn",NA,"D","D,M","BROWN-ORANGE",NA,NA,-74.000825298347,40.612632294824,"68d0590cd89582cad2e475cd1209cf40"
"922",92,421,"79th St",NA,"New Utrecht Ave","79th St (D,M) Brooklyn","79th St (D,M)","Brooklyn",NA,"M","D,M","BROWN-ORANGE",NA,NA,-74.000825298347,40.612632294824,"58f6229d3c6d85e31e1b08184d9f0887"
"931",93,384,"7th Ave",NA,"Flatbush Ave","7th Ave (B,Q) Brooklyn","7th Ave (B,Q)","Brooklyn",NA,"B","B,Q","ORANGE-YELLOW","express",NA,-73.9730763966848,40.6779588791005,"c92f4289e194d5fb7e4888c30f6791b5"
"932",93,384,"7th Ave",NA,"Flatbush Ave","7th Ave (B,Q) Brooklyn","7th Ave (B,Q)","Brooklyn",NA,"Q","B,Q","ORANGE-YELLOW","express",NA,-73.9730763966848,40.6779588791005,"db22a15669c5e84eef23492490d0d022"
"991",99,415,"9th Ave",NA,"39th St","9th Ave (D,M) Brooklyn","9th Ave (D,M)","Brooklyn",NA,"D","D,M","BROWN-ORANGE",NA,NA,-73.9945670947489,40.6464512672396,"512fb4cb8947470ba4c09e4d7dc21bea"
"992",99,415,"9th Ave",NA,"39th St","9th Ave (D,M) Brooklyn","9th Ave (D,M)","Brooklyn",NA,"M","D,M","BROWN-ORANGE",NA,NA,-73.9945670947489,40.6464512672396,"31c80109f5043897a132f21e2f9ce94b"
"1001",100,404,"9th St","4th Ave","4th Ave","9th St / 4th Ave (M,R) Brooklyn","9th St / 4th Ave (M,R)","Brooklyn",NA,"M","F,M,R","BROWN-YELLOW",NA,NA,-73.9887167173366,40.6703427466141,"690188847fa0972db3a20341cbf9f242"
"1002",100,404,"9th St","4th Ave","4th Ave","9th St / 4th Ave (M,R) Brooklyn","9th St / 4th Ave (M,R)","Brooklyn",NA,"R","F,M,R","BROWN-YELLOW",NA,NA,-73.9887167173366,40.6703427466141,"862ca682fa0e8c2205dc1badb076d786"
"1021",102,383,"Atlantic Ave","Brooklyn Academy of Music","Flatbush Ave","Atlantic Ave / Brooklyn Academy of Music (B,Q) Brooklyn","Atlantic Ave / Brooklyn Academy of Music (B,Q)","Brooklyn",NA,"B","B,D,M,N,Q,R,2,3,4,5","ORANGE-YELLOW","express",NA,-73.9767720078698,40.6837964839262,"ddf57e31d45ae30357d04a00997b4bae"
"1022",102,383,"Atlantic Ave","Brooklyn Academy of Music","Flatbush Ave","Atlantic Ave / Brooklyn Academy of Music (B,Q) Brooklyn","Atlantic Ave / Brooklyn Academy of Music (B,Q)","Brooklyn",NA,"Q","B,D,M,N,Q,R,2,3,4,5","ORANGE-YELLOW","express",NA,-73.9767720078698,40.6837964839262,"0627bdb5937937b7366c23299881068a"
"1041",104,77,"Atlantic Ave","Brooklyn Academy of Music","Flatbush Ave","Atlantic Ave / Brooklyn Academy of Music (2,3,4,5) Brooklyn","Atlantic Ave / Brooklyn Academy of Music (2,3,4,5)","Brooklyn",NA,"2","B,D,M,N,Q,R,2,3,4,5","GREEN-RED","express",NA,-73.9774312720387,40.6840551306533,"ca33cb653d004e7c01c0553b351fb7e6"
"1042",104,77,"Atlantic Ave","Brooklyn Academy of Music","Flatbush Ave","Atlantic Ave / Brooklyn Academy of Music (2,3,4,5) Brooklyn","Atlantic Ave / Brooklyn Academy of Music (2,3,4,5)","Brooklyn",NA,"3","B,D,M,N,Q,R,2,3,4,5","GREEN-RED","express",NA,-73.9774312720387,40.6840551306533,"30794d722379a79e79f0814646df7448"
"1043",104,77,"Atlantic Ave","Brooklyn Academy of Music","Flatbush Ave","Atlantic Ave / Brooklyn Academy of Music (2,3,4,5) Brooklyn","Atlantic Ave / Brooklyn Academy of Music (2,3,4,5)","Brooklyn",NA,"4","B,D,M,N,Q,R,2,3,4,5","GREEN-RED","express",NA,-73.9774312720387,40.6840551306533,"3bb36b2c02b2828afdcadf417675ad91"
"1044",104,77,"Atlantic Ave","Brooklyn Academy of Music","Flatbush Ave","Atlantic Ave / Brooklyn Academy of Music (2,3,4,5) Brooklyn","Atlantic Ave / Brooklyn Academy of Music (2,3,4,5)","Brooklyn",NA,"5","B,D,M,N,Q,R,2,3,4,5","GREEN-RED","express",NA,-73.9774312720387,40.6840551306533,"d6c6888b7ff1ef591ddac0d9ad8c66a7"
"1161",116,424,"Bay Pky",NA,"86th St","Bay Pky (D,M) Brooklyn","Bay Pky (D,M)","Brooklyn",NA,"D","D,M","BROWN-ORANGE",NA,NA,-73.9938519985997,40.6019590007765,"23c726f1cbabd53a835ff36ce784c576"
"1162",116,424,"Bay Pky",NA,"86th St","Bay Pky (D,M) Brooklyn","Bay Pky (D,M)","Brooklyn",NA,"M","D,M","BROWN-ORANGE",NA,NA,-73.9938519985997,40.6019590007765,"96aeee9396c82b510ea942354aeecf97"
"1221",122,339,"Bergen St",NA,"Smith St","Bergen St (F,G) Brooklyn","Bergen St (F,G)","Brooklyn",NA,"F","F,G","ORANGE-LIME",NA,NA,-73.9904525105666,40.6867370989202,"5cf25225647b1df4e6de822bc441ff8f"
"1222",122,339,"Bergen St",NA,"Smith St","Bergen St (F,G) Brooklyn","Bergen St (F,G)","Brooklyn",NA,"G","F,G","ORANGE-LIME",NA,NA,-73.9904525105666,40.6867370989202,"55bc45ff27460b15dfa6de4edeb9c2ab"
"1231",123,78,"Bergen St",NA,"Flatbush Ave","Bergen St (2,3) Brooklyn","Bergen St (2,3)","Brooklyn",NA,"2","2,3","RED-GREEN",NA,NA,-73.9750699987357,40.6808390003062,"c04f476a73a70b49402c4daddf214aa4"
"1232",123,78,"Bergen St",NA,"Flatbush Ave","Bergen St (2,3) Brooklyn","Bergen St (2,3)","Brooklyn",NA,"3","2,3","RED-GREEN",NA,NA,-73.9750699987357,40.6808390003062,"d37bfc091956a2b79a9c1fc5df5887b4"
"1251",125,96,"Beverly Rd",NA,"Nostrand Ave","Beverly Rd (2,5) Brooklyn","Beverly Rd (2,5)","Brooklyn",NA,"2","2,5","RED-GREEN",NA,NA,-73.949002001601,40.645116001238,"10336d2a1c3c882b2002d0911685c0ba"
"1252",125,96,"Beverly Rd",NA,"Nostrand Ave","Beverly Rd (2,5) Brooklyn","Beverly Rd (2,5)","Brooklyn",NA,"5","2,5","RED-GREEN",NA,NA,-73.949002001601,40.645116001238,"f7ae55a17b9dc654dc0215b809b4c85a"
"1261",126,101,"Borough Hall","Court St","Joralemon St","Borough Hall / Court St (4,5) Brooklyn","Borough Hall / Court St (4,5)","Brooklyn",NA,"4","M,R,2,3,4,5","GREEN","express",NA,-73.9909817487633,40.6925257460233,"2e9c66956fb66b9df1ecb67d5dd01e51"
"1262",126,101,"Borough Hall","Court St","Joralemon St","Borough Hall / Court St (4,5) Brooklyn","Borough Hall / Court St (4,5)","Brooklyn",NA,"5","M,R,2,3,4,5","GREEN","express",NA,-73.9909817487633,40.6925257460233,"ce9b3b37e9c37c15fd2511e7b34ef3f2"
"1271",127,74,"Borough Hall","Court St","Court St","Borough Hall / Court St (2,3) Brooklyn","Borough Hall / Court St (2,3)","Brooklyn",NA,"2","M,R,2,3,4,5","RED","express",NA,-73.990159999908,40.6936840002704,"da4923501a959b704c3f06a3fe6c02b3"
"1272",127,74,"Borough Hall","Court St","Court St","Borough Hall / Court St (2,3) Brooklyn","Borough Hall / Court St (2,3)","Brooklyn",NA,"3","M,R,2,3,4,5","RED","express",NA,-73.990159999908,40.6936840002704,"e66a014ae63fdc6c2c34e6aedf5cd162"
"1291",129,398,"Brighton Beach",NA,"Brighton 6 St","Brighton Beach (B,Q) Brooklyn","Brighton Beach (B,Q)","Brooklyn",NA,"B","B,Q","ORANGE-YELLOW","express",NA,-73.9614497454903,40.5776323642205,"a829cc9552473ff81708daf306eb8348"
"1292",129,398,"Brighton Beach",NA,"Brighton 6 St","Brighton Beach (B,Q) Brooklyn","Brighton Beach (B,Q)","Brooklyn",NA,"Q","B,Q","ORANGE-YELLOW","express",NA,-73.9614497454903,40.5776323642205,"b169cd9e006d0e280f2860161f112f1a"
"1312",131,456,"Broadway Jct","Eastern Pky","Eastern Pky","Broadway Jct / Eastern Pky (J,Z) Brooklyn","Broadway Jct / Eastern Pky (J,Z)","Brooklyn",NA,"J","A,C,J,L,Z","BROWN","express",NA,-73.9054530013298,40.6800700010697,"42b9a0b05bde975beff1f15bf28f4f66"
"1313",131,456,"Broadway Jct","Eastern Pky","Eastern Pky","Broadway Jct / Eastern Pky (J,Z) Brooklyn","Broadway Jct / Eastern Pky (J,Z)","Brooklyn",NA,"Z","A,C,J,L,Z","BROWN","express",NA,-73.9054530013298,40.6800700010697,"934ca93bf384bc529d90288266b58673"
"1321",132,230,"Broadway Jct","E New York","Fulton St","Broadway Jct / E New York (A,C) Brooklyn","Broadway Jct / E New York (A,C)","Brooklyn",NA,"A","A,C,J,L,Z","BLUE","express",NA,-73.9015580831006,40.6773948465073,"598b91f1ab20d52c49ba20658bbd92ae"
"1322",132,230,"Broadway Jct","E New York","Fulton St","Broadway Jct / E New York (A,C) Brooklyn","Broadway Jct / E New York (A,C)","Brooklyn",NA,"C","A,C,J,L,Z","BLUE","express",NA,-73.9015580831006,40.6773948465073,"af678bffcf2372c57d36b766f807ce4f"
"1341",134,340,"Carroll St",NA,"Smith St","Carroll St (F,G) Brooklyn","Carroll St (F,G)","Brooklyn",NA,"F","F,G","ORANGE-LIME",NA,NA,-73.9949010007123,40.6802210019519,"6fad63d89a8f3ce4d451ab7910364ab3"
"1342",134,340,"Carroll St",NA,"Smith St","Carroll St (F,G) Brooklyn","Carroll St (F,G)","Brooklyn",NA,"G","F,G","ORANGE-LIME",NA,NA,-73.9949010007123,40.6802210019519,"560ae8bcb2f581b2a54a019e58e17077"
"1361",136,318,"Chauncey St",NA,"Broadway","Chauncey St (J,Z) Brooklyn","Chauncey St (J,Z)","Brooklyn",NA,"J","J,Z","BROWN",NA,NA,-73.9101167962405,40.6826617609953,"c22cabe49f321560140a3a7e528748d5"
"1362",136,318,"Chauncey St",NA,"Broadway","Chauncey St (J,Z) Brooklyn","Chauncey St (J,Z)","Brooklyn",NA,"Z","J,Z","BROWN",NA,NA,-73.9101167962405,40.6826617609953,"1c3ce56e2475f545680e4c8001bc6c99"
"1381",138,387,"Church Ave",NA,"E 18th St","Church Ave (B,Q) Brooklyn","Church Ave (B,Q)","Brooklyn",NA,"B","B,Q","ORANGE-YELLOW","express",NA,-73.9633579898519,40.6493354148612,"6999b0cdcd2d6789fa6ec925207df225"
"1382",138,387,"Church Ave",NA,"E 18th St","Church Ave (B,Q) Brooklyn","Church Ave (B,Q)","Brooklyn",NA,"Q","B,Q","ORANGE-YELLOW","express",NA,-73.9633579898519,40.6493354148612,"a20762ee24066aaf34e1883133f087b5"
"1391",139,95,"Church Ave",NA,"Nostrand Ave","Church Ave (2,5) Brooklyn","Church Ave (2,5)","Brooklyn",NA,"2","2,5","RED-GREEN",NA,NA,-73.9495826775589,40.6507926679964,"ecdaea5f291ceaf49ed0c236d95a1227"
"1392",139,95,"Church Ave",NA,"Nostrand Ave","Church Ave (2,5) Brooklyn","Church Ave (2,5)","Brooklyn",NA,"5","2,5","RED-GREEN",NA,NA,-73.9495826775589,40.6507926679964,"e715ec144cddc350389741d146dd6f2b"
"1401",140,73,"Clark St",NA,"Henry St","Clark St (2,3) Brooklyn","Clark St (2,3)","Brooklyn",NA,"2","2,3","RED","express",NA,-73.9929999341781,40.6974351556778,"5955aaa15dcabf1a591f5dfb5ef9c478"
"1402",140,73,"Clark St",NA,"Henry St","Clark St (2,3) Brooklyn","Clark St (2,3)","Brooklyn",NA,"3","2,3","RED","express",NA,-73.9929999341781,40.6974351556778,"f56f27a5bd4a746308979f68e1d2b1df"
"1461",146,379,"Court St","Borough Hall","Montague St","Court St / Borough Hall (M,R) Brooklyn","Court St / Borough Hall (M,R)","Brooklyn",NA,"M","M,R,2,3,4,5","BROWN-YELLOW",NA,NA,-73.9904540007511,40.6937370000313,"1fbcc12ae52f8d902182a48797b0f98e"
"1462",146,379,"Court St","Borough Hall","Montague St","Court St / Borough Hall (M,R) Brooklyn","Court St / Borough Hall (M,R)","Brooklyn",NA,"R","M,R,2,3,4,5","BROWN-YELLOW",NA,NA,-73.9904540007511,40.6937370000313,"0de8b3f0b55bcf3e4c68231d61849cf0"
"1471",147,324,"Crescent St",NA,"Fulton St","Crescent St (J,Z) Brooklyn","Crescent St (J,Z)","Brooklyn",NA,"J","J,Z","BROWN","express",NA,-73.8723974719941,40.6837322796502,"a5efb5c4fcb3a125543b8214ce79f6cc"
"1472",147,324,"Crescent St",NA,"Fulton St","Crescent St (J,Z) Brooklyn","Crescent St (J,Z)","Brooklyn",NA,"Z","J,Z","BROWN","express",NA,-73.8723974719941,40.6837322796502,"a3824bc25f55985f1109049781aa966f"
"1501",150,382,"DeKalb Ave",NA,"Flatbush Ave","DeKalb Ave (B,M,Q,R) Brooklyn","DeKalb Ave (B,M,Q,R)","Brooklyn",NA,"B","B,M,Q,R","MULTI","express",NA,-73.9814761283236,40.6899273817709,"1e596782393e53b6e9685b06faade541"
"1502",150,382,"DeKalb Ave",NA,"Flatbush Ave","DeKalb Ave (B,M,Q,R) Brooklyn","DeKalb Ave (B,M,Q,R)","Brooklyn",NA,"M","B,M,Q,R","MULTI","express",NA,-73.9814761283236,40.6899273817709,"d30b0716772e16545af515908ce2b882"
"1503",150,382,"DeKalb Ave",NA,"Flatbush Ave","DeKalb Ave (B,M,Q,R) Brooklyn","DeKalb Ave (B,M,Q,R)","Brooklyn",NA,"Q","B,M,Q,R","MULTI","express",NA,-73.9814761283236,40.6899273817709,"a91b17f48a91614b35b4cf933496b781"
"1504",150,382,"DeKalb Ave",NA,"Flatbush Ave","DeKalb Ave (B,M,Q,R) Brooklyn","DeKalb Ave (B,M,Q,R)","Brooklyn",NA,"R","B,M,Q,R","MULTI","express",NA,-73.9814761283236,40.6899273817709,"447f3f8bd3de689def7fbb23dabf650f"
"1531",153,80,"Eastern Pky","Brooklyn Museum","Washington Ave","Eastern Pky / Brooklyn Museum (2,3) Brooklyn","Eastern Pky / Brooklyn Museum (2,3)","Brooklyn",NA,"2","2,3","RED-GREEN",NA,NA,-73.9626924756188,40.6716478194558,"d169c7ba206c08c1e4a8ab2b6c4765fa"
"1532",153,80,"Eastern Pky","Brooklyn Museum","Washington Ave","Eastern Pky / Brooklyn Museum (2,3) Brooklyn","Eastern Pky / Brooklyn Museum (2,3)","Brooklyn",NA,"3","2,3","RED-GREEN",NA,NA,-73.9626924756188,40.6716478194558,"9c324992722557af949abf3b775076b0"
"1541",154,234,"Euclid Ave",NA,"Pitkin Ave","Euclid Ave (A,C) Brooklyn","Euclid Ave (A,C)","Brooklyn",NA,"A","A,C","BLUE","express",NA,-73.8719033195181,40.6753991133001,"88ffbd7e9c9d96775891981ce52727f1"
"1542",154,234,"Euclid Ave",NA,"Pitkin Ave","Euclid Ave (A,C) Brooklyn","Euclid Ave (A,C)","Brooklyn",NA,"C","A,C","BLUE","express",NA,-73.8719033195181,40.6753991133001,"7315177c7587bb4278068e636e2b8065"
"1551",155,98,"Flatbush Ave","Brooklyn College","Nostrand Ave","Flatbush Ave / Brooklyn College (2,5) Brooklyn","Flatbush Ave / Brooklyn College (2,5)","Brooklyn",NA,"2","2,5","RED-GREEN",NA,NA,-73.9476420003496,40.6328360008074,"13d927684cc474eac8fdc6c8fdf5e54d"
"1552",155,98,"Flatbush Ave","Brooklyn College","Nostrand Ave","Flatbush Ave / Brooklyn College (2,5) Brooklyn","Flatbush Ave / Brooklyn College (2,5)","Brooklyn",NA,"5","2,5","RED-GREEN",NA,NA,-73.9476420003496,40.6328360008074,"98b6ea13f8ecc9cdc82ecb84b3f5947b"
"1561",156,313,"Flushing Ave",NA,"Broadway","Flushing Ave (J,M) Brooklyn","Flushing Ave (J,M)","Brooklyn",NA,"J","J,M","BROWN",NA,NA,-73.941950755832,40.7007221274128,"c1af83d2c7512b8d369fa7ae3ba33443"
"1562",156,313,"Flushing Ave",NA,"Broadway","Flushing Ave (J,M) Brooklyn","Flushing Ave (J,M)","Brooklyn",NA,"M","J,M","BROWN",NA,NA,-73.941950755832,40.7007221274128,"8b2a59c12d01e6eaad1468b740c12e5c"
"1611",161,81,"Franklin Ave",NA,"Eastern Pky","Franklin Ave (2,3,4,5) Brooklyn","Franklin Ave (2,3,4,5)","Brooklyn",NA,"2","S,2,3,4,5","GREEN-RED","express",NA,-73.9579317710712,40.6706322397003,"0959b78b93e5d22adc17f4a7dc432f11"
"1612",161,81,"Franklin Ave",NA,"Eastern Pky","Franklin Ave (2,3,4,5) Brooklyn","Franklin Ave (2,3,4,5)","Brooklyn",NA,"3","S,2,3,4,5","GREEN-RED","express",NA,-73.9579317710712,40.6706322397003,"2de3a71ad8c7fe465e215e122680a708"
"1613",161,81,"Franklin Ave",NA,"Eastern Pky","Franklin Ave (2,3,4,5) Brooklyn","Franklin Ave (2,3,4,5)","Brooklyn",NA,"4","S,2,3,4,5","GREEN-RED","express",NA,-73.9579317710712,40.6706322397003,"64dd3291759e9059d564353cb7624c03"
"1614",161,81,"Franklin Ave",NA,"Eastern Pky","Franklin Ave (2,3,4,5) Brooklyn","Franklin Ave (2,3,4,5)","Brooklyn",NA,"5","S,2,3,4,5","GREEN-RED","express",NA,-73.9579317710712,40.6706322397003,"404fdc7d6d666567d6d589755fc2162b"
"1631",163,416,"Ft Hamilton Pky",NA,"New Utrecht Ave","Ft Hamilton Pky (D,M) Brooklyn","Ft Hamilton Pky (D,M)","Brooklyn",NA,"D","D,M","BROWN-ORANGE",NA,NA,-73.9943064211992,40.640609851384,"2d457e7f869cbbafaf7ff9839a3a22fa"
"1632",163,416,"Ft Hamilton Pky",NA,"New Utrecht Ave","Ft Hamilton Pky (D,M) Brooklyn","Ft Hamilton Pky (D,M)","Brooklyn",NA,"M","D,M","BROWN-ORANGE",NA,NA,-73.9943064211992,40.640609851384,"be5364c8c948f191c6f54345e1270869"
"1651",165,316,"Gates St",NA,"Broadway","Gates St (J,Z) Brooklyn","Gates St (J,Z)","Brooklyn",NA,"J","J,Z","BROWN",NA,NA,-73.922044715422,40.6895191504322,"e2874e1c7412798ac52042b8e7d7efd1"
"1652",165,316,"Gates St",NA,"Broadway","Gates St (J,Z) Brooklyn","Gates St (J,Z)","Brooklyn",NA,"Z","J,Z","BROWN",NA,NA,-73.922044715422,40.6895191504322,"13aa7ecea1a832cc73b5b56f62f32e7c"
"1671",167,79,"Grand Army Plz",NA,"Flatbush Ave","Grand Army Plz (2,3) Brooklyn","Grand Army Plz (2,3)","Brooklyn",NA,"2","2,3","RED-GREEN",NA,NA,-73.9704638781288,40.6746349820263,"bbf44fe23722e620d5be1302e6c4fead"
"1672",167,79,"Grand Army Plz",NA,"Flatbush Ave","Grand Army Plz (2,3) Brooklyn","Grand Army Plz (2,3)","Brooklyn",NA,"3","2,3","RED-GREEN",NA,NA,-73.9704638781288,40.6746349820263,"a410e7431a33f8909fd837c79a6ef8af"
"1731",173,311,"Hewes St",NA,"Broadway","Hewes St (J,M) Brooklyn","Hewes St (J,M)","Brooklyn",NA,"J","J,M","BROWN",NA,NA,-73.952965482555,40.7067063750297,"c713f60666688ab93f0fe305e66009ec"
"1732",173,311,"Hewes St",NA,"Broadway","Hewes St (J,M) Brooklyn","Hewes St (J,M)","Brooklyn",NA,"M","J,M","BROWN",NA,NA,-73.952965482555,40.7067063750297,"612ffb7089b9c0ef589c5911080fb292"
"1741",174,219,"High St",NA,"Cadman Plaza East","High St (A,C) Brooklyn","High St (A,C)","Brooklyn",NA,"A","A,C","BLUE","express",NA,-73.9898546563844,40.6991352694818,"781e0c3fd2a6dcca7b044d4f929b9075"
"1742",174,219,"High St",NA,"Cadman Plaza East","High St (A,C) Brooklyn","High St (A,C)","Brooklyn",NA,"C","A,C","BLUE","express",NA,-73.9898546563844,40.6991352694818,"b75ee0ba9af7b83b4fc20f61593ec0e7"
"1751",175,75,"Hoyt St",NA,"Fulton Mall","Hoyt St (2,3) Brooklyn","Hoyt St (2,3)","Brooklyn",NA,"2","2,3","RED",NA,NA,-73.9851059202689,40.6905552635638,"7176316de03f754cf0c9995b985312b6"
"1752",175,75,"Hoyt St",NA,"Fulton Mall","Hoyt St (2,3) Brooklyn","Hoyt St (2,3)","Brooklyn",NA,"3","2,3","RED",NA,NA,-73.9851059202689,40.6905552635638,"a42c13104fad0affac99bb7e783063e5"
"1761",176,221,"Hoyt St","Schermerhorn St","Schermerhorn St","Hoyt St / Schermerhorn St (A,C,G) Brooklyn","Hoyt St / Schermerhorn St (A,C,G)","Brooklyn",NA,"A","A,C,G","BLUE-LIME","express",NA,-73.9861541060433,40.6890196759188,"58be267b08dc8b39071f2fa64d72dde3"
"1762",176,221,"Hoyt St","Schermerhorn St","Schermerhorn St","Hoyt St / Schermerhorn St (A,C,G) Brooklyn","Hoyt St / Schermerhorn St (A,C,G)","Brooklyn",NA,"C","A,C,G","BLUE-LIME","express",NA,-73.9861541060433,40.6890196759188,"bcc1bac01ecf7a0e3849467f54dd20d9"
"1763",176,221,"Hoyt St","Schermerhorn St","Schermerhorn St","Hoyt St / Schermerhorn St (A,C,G) Brooklyn","Hoyt St / Schermerhorn St (A,C,G)","Brooklyn",NA,"G","A,C,G","BLUE-LIME","express",NA,-73.9861541060433,40.6890196759188,"412031a4ca6792bedb45a20a313320cf"
"1771",177,220,"Jay St","Borough Hall","Fulton Mall","Jay St / Borough Hall (A,C,F) Brooklyn","Jay St / Borough Hall (A,C,F)","Brooklyn",NA,"A","A,C,F","BLUE-ORANGE","express",NA,-73.987361899901,40.6914641970513,"6e9659bbb145cadce5a6d304ef6d1f2a"
"1772",177,220,"Jay St","Borough Hall","Fulton Mall","Jay St / Borough Hall (A,C,F) Brooklyn","Jay St / Borough Hall (A,C,F)","Brooklyn",NA,"C","A,C,F","BLUE-ORANGE","express",NA,-73.987361899901,40.6914641970513,"dd8d7eb227a1a3565e178cefd6ef4923"
"1773",177,220,"Jay St","Borough Hall","Fulton Mall","Jay St / Borough Hall (A,C,F) Brooklyn","Jay St / Borough Hall (A,C,F)","Brooklyn",NA,"F","A,C,F","BLUE-ORANGE","express",NA,-73.987361899901,40.6914641970513,"810083097b58247274fd6eac6591977a"
"1801",180,394,"Kings Hwy",NA,"E 16th St","Kings Hwy (B,Q) Brooklyn","Kings Hwy (B,Q)","Brooklyn",NA,"B","B,Q","ORANGE-YELLOW","express",NA,-73.9577544844944,40.608968784215,"e9c45cdba7abf2ec2d75ba938b0fb1fc"
"1802",180,394,"Kings Hwy",NA,"E 16th St","Kings Hwy (B,Q) Brooklyn","Kings Hwy (B,Q)","Brooklyn",NA,"Q","B,Q","ORANGE-YELLOW","express",NA,-73.9577544844944,40.608968784215,"8f3639ba1295fab0abd3197acfa29697"
"1881",188,380,"Lawrence St","MetroTech","Willoughby St","Lawrence St / MetroTech (M,R) Brooklyn","Lawrence St / MetroTech (M,R)","Brooklyn",NA,"M","M,R","BROWN-YELLOW",NA,NA,-73.9862654813979,40.6921941051992,"84917ec1fd5cacb314e76f059b2319e0"
"1882",188,380,"Lawrence St","MetroTech","Willoughby St","Lawrence St / MetroTech (M,R) Brooklyn","Lawrence St / MetroTech (M,R)","Brooklyn",NA,"R","M,R","BROWN-YELLOW",NA,NA,-73.9862654813979,40.6921941051992,"ba12991ab9284cee58f837681a248e39"
"1921",192,312,"Lorimer St",NA,"Broadway","Lorimer St (J,M) Brooklyn","Lorimer St (J,M)","Brooklyn",NA,"J","J,M","BROWN",NA,NA,-73.9478636970584,40.7041293493121,"4799ba8419cb4b12bfb1bf218271d6eb"
"1922",192,312,"Lorimer St",NA,"Broadway","Lorimer St (J,M) Brooklyn","Lorimer St (J,M)","Brooklyn",NA,"M","J,M","BROWN",NA,NA,-73.9478636970584,40.7041293493121,"88b2ffb30b3feccc09044e62ee62f748"
"1931",193,310,"Marcy Ave",NA,"Broadway","Marcy Ave (J,M,Z) Brooklyn","Marcy Ave (J,M,Z)","Brooklyn",NA,"J","J,M,Z","BROWN","express",NA,-73.9579200878019,40.7084085463714,"02ce3e01e785014c3b95defcddc69522"
"1932",193,310,"Marcy Ave",NA,"Broadway","Marcy Ave (J,M,Z) Brooklyn","Marcy Ave (J,M,Z)","Brooklyn",NA,"M","J,M,Z","BROWN","express",NA,-73.9579200878019,40.7084085463714,"f11be615bff60551d06cfcca393ac8e7"
"1933",193,310,"Marcy Ave",NA,"Broadway","Marcy Ave (J,M,Z) Brooklyn","Marcy Ave (J,M,Z)","Brooklyn",NA,"Z","J,M,Z","BROWN","express",NA,-73.9579200878019,40.7084085463714,"496f59b3679b4cb58d778a6894a164dc"
"1981",198,314,"Myrtle Ave",NA,"Broadway","Myrtle Ave (J,M,Z) Brooklyn","Myrtle Ave (J,M,Z)","Brooklyn",NA,"J","J,M,Z","BROWN","express",NA,-73.9352641303954,40.6969793495905,"f1dfc936ce32a279dffb5703ba6b6114"
"1982",198,314,"Myrtle Ave",NA,"Broadway","Myrtle Ave (J,M,Z) Brooklyn","Myrtle Ave (J,M,Z)","Brooklyn",NA,"M","J,M,Z","BROWN","express",NA,-73.9352641303954,40.6969793495905,"74460cf60feaba0645b35794043002f0"
"1983",198,314,"Myrtle Ave",NA,"Broadway","Myrtle Ave (J,M,Z) Brooklyn","Myrtle Ave (J,M,Z)","Brooklyn",NA,"Z","J,M,Z","BROWN","express",NA,-73.9352641303954,40.6969793495905,"a6614c18fb712f92d7e131a30760893d"
"2031",203,76,"Nevins St",NA,"Flatbush Ave","Nevins St (2,3,4,5) Brooklyn","Nevins St (2,3,4,5)","Brooklyn",NA,"2","2,3,4,5","GREEN-RED","express",NA,-73.9808510007393,40.6887240010437,"3755d5ad2ca15fb87af4adf9c0dbaf8e"
"2032",203,76,"Nevins St",NA,"Flatbush Ave","Nevins St (2,3,4,5) Brooklyn","Nevins St (2,3,4,5)","Brooklyn",NA,"3","2,3,4,5","GREEN-RED","express",NA,-73.9808510007393,40.6887240010437,"46a215c19f43027cec001f91592d091b"
"2033",203,76,"Nevins St",NA,"Flatbush Ave","Nevins St (2,3,4,5) Brooklyn","Nevins St (2,3,4,5)","Brooklyn",NA,"4","2,3,4,5","GREEN-RED","express",NA,-73.9808510007393,40.6887240010437,"9b09f9c807a46a299dd5dc1c7268d413"
"2034",203,76,"Nevins St",NA,"Flatbush Ave","Nevins St (2,3,4,5) Brooklyn","Nevins St (2,3,4,5)","Brooklyn",NA,"5","2,3,4,5","GREEN-RED","express",NA,-73.9808510007393,40.6887240010437,"fdd53d9ec35a20961f224d0981f94fab"
"2071",207,390,"Newkirk Ave",NA,"E 16th St","Newkirk Ave (B,Q) Brooklyn","Newkirk Ave (B,Q)","Brooklyn",NA,"B","B,Q","ORANGE-YELLOW","express",NA,-73.9628982663262,40.63572984409,"a7fcb2c93e5bd7ab30879a980f058d7f"
"2072",207,390,"Newkirk Ave",NA,"E 16th St","Newkirk Ave (B,Q) Brooklyn","Newkirk Ave (B,Q)","Brooklyn",NA,"Q","B,Q","ORANGE-YELLOW","express",NA,-73.9628982663262,40.63572984409,"3e77883b151f937ad6b9a7193b656d20"
"2081",208,97,"Newkirk Ave",NA,"Nostrand Ave","Newkirk Ave (2,5) Brooklyn","Newkirk Ave (2,5)","Brooklyn",NA,"2","2,5","RED-GREEN",NA,NA,-73.948413999331,40.6399830013942,"d2e388ee5b696151ddbe991658becd8d"
"2082",208,97,"Newkirk Ave",NA,"Nostrand Ave","Newkirk Ave (2,5) Brooklyn","Newkirk Ave (2,5)","Brooklyn",NA,"5","2,5","RED-GREEN",NA,NA,-73.948413999331,40.6399830013942,"ffabae7e1577396a0a317286dfacd2b4"
"2091",209,323,"Norwood Ave",NA,"Fulton St","Norwood Ave (J,Z) Brooklyn","Norwood Ave (J,Z)","Brooklyn",NA,"J","J,Z","BROWN",NA,NA,-73.8791211312591,40.6816634677286,"59350a290124279c1ad1679360c31b95"
"2092",209,323,"Norwood Ave",NA,"Fulton St","Norwood Ave (J,Z) Brooklyn","Norwood Ave (J,Z)","Brooklyn",NA,"Z","J,Z","BROWN",NA,NA,-73.8791211312591,40.6816634677286,"767e44b95c3dc2015af97dbf9064d5d4"
"2101",210,225,"Nostrand Ave",NA,"Fulton St","Nostrand Ave (A,C) Brooklyn","Nostrand Ave (A,C)","Brooklyn",NA,"A","A,C","BLUE","express",NA,-73.9495580520205,40.6803912053856,"d0ec3f5ffd54859b9200c35cbe7afa6e"
"2102",210,225,"Nostrand Ave",NA,"Fulton St","Nostrand Ave (A,C) Brooklyn","Nostrand Ave (A,C)","Brooklyn",NA,"C","A,C","BLUE","express",NA,-73.9495580520205,40.6803912053856,"dda27c9c294124f53e7e1d88e3da34cf"
"2131",213,402,"Pacific St","Brooklyn Academy of Music","4th Ave","Pacific St / Brooklyn Academy of Music (D,M,N,R) Brooklyn","Pacific St / Brooklyn Academy of Music (D,M,N,R)","Brooklyn",NA,"D","B,D,M,N,Q,R,2,3,4,5","BROWN-ORANGE-YELLOW","express",NA,-73.9787480011725,40.6837610019867,"3254c85449f77310e74dea07f5c0dc76"
"2132",213,402,"Pacific St","Brooklyn Academy of Music","4th Ave","Pacific St / Brooklyn Academy of Music (D,M,N,R) Brooklyn","Pacific St / Brooklyn Academy of Music (D,M,N,R)","Brooklyn",NA,"M","B,D,M,N,Q,R,2,3,4,5","BROWN-ORANGE-YELLOW","express",NA,-73.9787480011725,40.6837610019867,"193d71d760d9ac964b9ba87d8fff4fda"
"2133",213,402,"Pacific St","Brooklyn Academy of Music","4th Ave","Pacific St / Brooklyn Academy of Music (D,M,N,R) Brooklyn","Pacific St / Brooklyn Academy of Music (D,M,N,R)","Brooklyn",NA,"N","B,D,M,N,Q,R,2,3,4,5","BROWN-ORANGE-YELLOW","express",NA,-73.9787480011725,40.6837610019867,"1987fa080a11169700ec931443f5b4e3"
"2134",213,402,"Pacific St","Brooklyn Academy of Music","4th Ave","Pacific St / Brooklyn Academy of Music (D,M,N,R) Brooklyn","Pacific St / Brooklyn Academy of Music (D,M,N,R)","Brooklyn",NA,"R","B,D,M,N,Q,R,2,3,4,5","BROWN-ORANGE-YELLOW","express",NA,-73.9787480011725,40.6837610019867,"216b55ed15732956c48de7b1a5b7f8cb"
"2171",217,92,"President St",NA,"Nostrand Ave","President St (2,5) Brooklyn","President St (2,5)","Brooklyn",NA,"2","2,5","RED-GREEN",NA,NA,-73.950656799068,40.6680570599152,"210c7ad9fe5858ec3361565b927b2018"
"2172",217,92,"President St",NA,"Nostrand Ave","President St (2,5) Brooklyn","President St (2,5)","Brooklyn",NA,"5","2,5","RED-GREEN",NA,NA,-73.950656799068,40.6680570599152,"366967bd1f1f6c963637acefed301716"
"2181",218,405,"Prospect Ave",NA,"4th Ave","Prospect Ave (M,R) Brooklyn","Prospect Ave (M,R)","Brooklyn",NA,"M","M,R","BROWN-YELLOW",NA,NA,-73.9928817666788,40.665393580082,"d74f3458521573d48428fe4d6b4a7508"
"2182",218,405,"Prospect Ave",NA,"4th Ave","Prospect Ave (M,R) Brooklyn","Prospect Ave (M,R)","Brooklyn",NA,"R","M,R","BROWN-YELLOW",NA,NA,-73.9928817666788,40.665393580082,"c5e29e1d7800b7f5195e1bb635938fea"
"2191",219,385,"Prospect Park",NA,"Empire Blvd","Prospect Park (B,Q,S) Brooklyn","Prospect Park (B,Q,S)","Brooklyn",NA,"B","B,Q,S","MULTI","express",NA,-73.9624640010369,40.6631840012492,"afaea8ca9c4891fbdf96abf634e06769"
"2192",219,385,"Prospect Park",NA,"Empire Blvd","Prospect Park (B,Q,S) Brooklyn","Prospect Park (B,Q,S)","Brooklyn",NA,"Q","B,Q,S","MULTI","express",NA,-73.9624640010369,40.6631840012492,"71f3585200524f71d75b98c5571c77a6"
"2193",219,385,"Prospect Park",NA,"Empire Blvd","Prospect Park (B,Q,S) Brooklyn","Prospect Park (B,Q,S)","Brooklyn",NA,"S","B,Q,S","MULTI","express",NA,-73.9624640010369,40.6631840012492,"3907f5b5bcc73834851ff960cad51dfa"
"2251",225,397,"Sheepshead Bay",NA,"E 16th St","Sheepshead Bay (B,Q) Brooklyn","Sheepshead Bay (B,Q)","Brooklyn",NA,"B","B,Q","ORANGE-YELLOW","express",NA,-73.9541368010412,40.5873465631021,"f7bce7cd39e5b2c956d2302472eb7f8e"
"2252",225,397,"Sheepshead Bay",NA,"E 16th St","Sheepshead Bay (B,Q) Brooklyn","Sheepshead Bay (B,Q)","Brooklyn",NA,"Q","B,Q","ORANGE-YELLOW","express",NA,-73.9541368010412,40.5873465631021,"d72549d0289e1fc01703d086d089b6a9"
"2271",227,341,"Smith St","9th St","9th St","Smith St / 9th St (F,G) Brooklyn","Smith St / 9th St (F,G)","Brooklyn",NA,"F","F,G","ORANGE-LIME",NA,NA,-73.9968487574407,40.674279297181,"a41a75e7c67bc63583aa37f2bcc943eb"
"2272",227,341,"Smith St","9th St","9th St","Smith St / 9th St (F,G) Brooklyn","Smith St / 9th St (F,G)","Brooklyn",NA,"G","F,G","ORANGE-LIME",NA,NA,-73.9968487574407,40.674279297181,"734c7d52aaca26d82d85eb4f033a6d28"
"2281",228,93,"Sterling St",NA,"Nostrand Ave","Sterling St (2,5) Brooklyn","Sterling St (2,5)","Brooklyn",NA,"2","2,5","RED-GREEN",NA,NA,-73.9508846967526,40.6631098627744,"39291fc58024601a3742af26d8ddc031"
"2282",228,93,"Sterling St",NA,"Nostrand Ave","Sterling St (2,5) Brooklyn","Sterling St (2,5)","Brooklyn",NA,"5","2,5","RED-GREEN",NA,NA,-73.9508846967526,40.6631098627744,"9661db14fa924c721b56814768834612"
"2311",231,403,"Union St",NA,"4th Ave","Union St (M,R) Brooklyn","Union St (M,R)","Brooklyn",NA,"M","M,R","BROWN-YELLOW",NA,NA,-73.9830380474751,40.6774070052137,"c779a8e61e78965c2371bcd03d7de106"
"2312",231,403,"Union St",NA,"4th Ave","Union St (M,R) Brooklyn","Union St (M,R)","Brooklyn",NA,"R","M,R","BROWN-YELLOW",NA,NA,-73.9830380474751,40.6774070052137,"7deac639c2ff21688361b830d175c09d"
"2321",232,227,"Utica Ave",NA,"Fulton St","Utica Ave (A,C) Brooklyn","Utica Ave (A,C)","Brooklyn",NA,"A","A,C","BLUE","express",NA,-73.9290260001731,40.6792800014672,"c132189af0ae0afc1cc8eee0e15cd003"
"2322",232,227,"Utica Ave",NA,"Fulton St","Utica Ave (A,C) Brooklyn","Utica Ave (A,C)","Brooklyn",NA,"C","A,C","BLUE","express",NA,-73.9290260001731,40.6792800014672,"1c7eee760e4bbf84916253a9672cce78"
"2331",233,84,"Utica Ave","Crown Heights","Eastern Pky","Utica Ave / Crown Heights (3,4) Brooklyn","Utica Ave / Crown Heights (3,4)","Brooklyn",NA,"3","3,4","GREEN-RED","express",NA,-73.9311902553759,40.668793861524,"970180679a4b7b364065e0d767090292"
"2332",233,84,"Utica Ave","Crown Heights","Eastern Pky","Utica Ave / Crown Heights (3,4) Brooklyn","Utica Ave / Crown Heights (3,4)","Brooklyn",NA,"4","3,4","GREEN-RED","express",NA,-73.9311902553759,40.668793861524,"8fac125c291b14b7476fc3ea9a9abc93"
"2351",235,321,"Van Siclen Ave",NA,"Fulton St","Van Siclen Ave (J,Z) Brooklyn","Van Siclen Ave (J,Z)","Brooklyn",NA,"J","J,Z","BROWN",NA,NA,-73.8916679991534,40.6780300012634,"9f1bcbeaaaa515f139bfce3483b44469"
"2352",235,321,"Van Siclen Ave",NA,"Fulton St","Van Siclen Ave (J,Z) Brooklyn","Van Siclen Ave (J,Z)","Brooklyn",NA,"Z","J,Z","BROWN",NA,NA,-73.8916679991534,40.6780300012634,"b342d90654e222ecf59f52fc2becbd66"
"2371",237,400,"W 8th St","NY Aquarium","Surf Ave","W 8th St / NY Aquarium (F,Q) Brooklyn","W 8th St / NY Aquarium (F,Q)","Brooklyn",NA,"F","F,Q","ORANGE-YELLOW",NA,NA,-73.9760020006506,40.5761190011066,"4c987ae5682153711d11be861b0e29ca"
"2372",237,400,"W 8th St","NY Aquarium","Surf Ave","W 8th St / NY Aquarium (F,Q) Brooklyn","W 8th St / NY Aquarium (F,Q)","Brooklyn",NA,"Q","F,Q","ORANGE-YELLOW",NA,NA,-73.9760020006506,40.5761190011066,"86ade9e3e53c00f007de95be96e980f2"
"2391",239,94,"Winthrop St",NA,"Nostrand Ave","Winthrop St (2,5) Brooklyn","Winthrop St (2,5)","Brooklyn",NA,"2","2,5","RED-GREEN",NA,NA,-73.950236606198,40.6570769667463,"8057822a18a315ca24a1fc6af9917f18"
"2392",239,94,"Winthrop St",NA,"Nostrand Ave","Winthrop St (2,5) Brooklyn","Winthrop St (2,5)","Brooklyn",NA,"5","2,5","RED-GREEN",NA,NA,-73.950236606198,40.6570769667463,"e875529d6454d400b6ace112abd7cc6d"
"2431",243,192,"103rd St",NA,"Central Park West","103rd St (A,B,C) Manhattan","103rd St (A,B,C)","Manhattan",NA,"A","A,B,C","BLUE-ORANGE",NA,NA,-73.9614287429081,40.7961074852529,"8b9cccd0f16f0f9041fe7201c4e5c7dc"
"2432",243,192,"103rd St",NA,"Central Park West","103rd St (A,B,C) Manhattan","103rd St (A,B,C)","Manhattan",NA,"B","A,B,C","BLUE-ORANGE",NA,NA,-73.9614287429081,40.7961074852529,"4ca057b64cd29fac9b8a83082c99bea5"
"2433",243,192,"103rd St",NA,"Central Park West","103rd St (A,B,C) Manhattan","103rd St (A,B,C)","Manhattan",NA,"C","A,B,C","BLUE-ORANGE",NA,NA,-73.9614287429081,40.7961074852529,"aa315c359c5ac6387d103045bdd35fba"
"2461",246,193,"110th St","Cathedral Pky","Central Park West","110th St / Cathedral Pky (B,C) Manhattan","110th St / Cathedral Pky (B,C)","Manhattan",NA,"B","B,C","BLUE-ORANGE",NA,NA,-73.958189593896,40.8005748755591,"6247a40c459f81bb5f3b46ee644f5aca"
"2462",246,193,"110th St","Cathedral Pky","Central Park West","110th St / Cathedral Pky (B,C) Manhattan","110th St / Cathedral Pky (B,C)","Manhattan",NA,"C","B,C","BLUE-ORANGE",NA,NA,-73.958189593896,40.8005748755591,"6aef29b71205dacaf2adc22a283f8ce6"
"2471",247,39,"110th St","Central Park North","Lenox Ave","110th St / Central Park North (2,3) Manhattan","110th St / Central Park North (2,3)","Manhattan",NA,"2","2,3","RED","express",NA,-73.9527019994162,40.7983560011811,"bc69e10f5f5701038e9b275524386f41"
"2472",247,39,"110th St","Central Park North","Lenox Ave","110th St / Central Park North (2,3) Manhattan","110th St / Central Park North (2,3)","Manhattan",NA,"3","2,3","RED","express",NA,-73.9527019994162,40.7983560011811,"5aedd3fb7010a9386d899e29bd69f428"
"2481",248,40,"116th St",NA,"Lenox Ave","116th St (2,3) Manhattan","116th St (2,3)","Manhattan",NA,"2","2,3","RED","express",NA,-73.9496731725419,40.8020292165187,"fd28f0985e95c3f1a15b4b9c655d1a2b"
"2482",248,40,"116th St",NA,"Lenox Ave","116th St (2,3) Manhattan","116th St (2,3)","Manhattan",NA,"3","2,3","RED","express",NA,-73.9496731725419,40.8020292165187,"0c68b1ed16ee2c0ea8a1d3bee769b3fa"
"2501",250,194,"116th St",NA,"8th Ave","116th St (B,C) Manhattan","116th St (B,C)","Manhattan",NA,"B","B,C","BLUE-ORANGE",NA,NA,-73.9553592982711,40.8044409660622,"4317b65d6edbc080e83285d10057412a"
"2502",250,194,"116th St",NA,"8th Ave","116th St (B,C) Manhattan","116th St (B,C)","Manhattan",NA,"C","B,C","BLUE-ORANGE",NA,NA,-73.9553592982711,40.8044409660622,"b58d0ed002537f0b33757f7dc707f129"
"2521",252,41,"125th St",NA,"Lenox Ave","125th St (2,3) Manhattan","125th St (2,3)","Manhattan",NA,"2","2,3","RED","express",NA,-73.9454629629627,40.8077974663701,"b1186c6e3009d8cfccb36f9c3807c4bf"
"2522",252,41,"125th St",NA,"Lenox Ave","125th St (2,3) Manhattan","125th St (2,3)","Manhattan",NA,"3","2,3","RED","express",NA,-73.9454629629627,40.8077974663701,"4c3d108703683c3d3b8d835b3422b681"
"2531",253,124,"125th St",NA,"Lexington Ave","125th St (4,5,6) Manhattan","125th St (4,5,6)","Manhattan",NA,"4","4,5,6","GREEN","express",NA,-73.9374426050865,40.8043327231442,"7ae72b3f0450ee6d5d88c360c9852e64"
"2532",253,124,"125th St",NA,"Lexington Ave","125th St (4,5,6) Manhattan","125th St (4,5,6)","Manhattan",NA,"5","4,5,6","GREEN","express",NA,-73.9374426050865,40.8043327231442,"06538c3e3f780cd71273e80baf4eefeb"
"2533",253,124,"125th St",NA,"Lexington Ave","125th St (4,5,6) Manhattan","125th St (4,5,6)","Manhattan",NA,"6","4,5,6","GREEN","express",NA,-73.9374426050865,40.8043327231442,"d24cd768bdeba2a4d4696382a3ba0302"
"2541",254,195,"125th St",NA,"St. Nicholas Ave","125th St (A,B,C,D) Manhattan","125th St (A,B,C,D)","Manhattan",NA,"A","A,B,C,D","BLUE-ORANGE","express",NA,-73.9525732862241,40.8107813418896,"a496ae04a1058bda41efd97c96b82c64"
"2542",254,195,"125th St",NA,"St. Nicholas Ave","125th St (A,B,C,D) Manhattan","125th St (A,B,C,D)","Manhattan",NA,"B","A,B,C,D","BLUE-ORANGE","express",NA,-73.9525732862241,40.8107813418896,"bb6faaa309334650d26ded49e8119a40"
"2543",254,195,"125th St",NA,"St. Nicholas Ave","125th St (A,B,C,D) Manhattan","125th St (A,B,C,D)","Manhattan",NA,"C","A,B,C,D","BLUE-ORANGE","express",NA,-73.9525732862241,40.8107813418896,"ae31b144ec08954408200ba4a22855bb"
"2544",254,195,"125th St",NA,"St. Nicholas Ave","125th St (A,B,C,D) Manhattan","125th St (A,B,C,D)","Manhattan",NA,"D","A,B,C,D","BLUE-ORANGE","express",NA,-73.9525732862241,40.8107813418896,"727bfeec3ff77b3b041c890ffca087ba"
"2561",256,196,"135th St",NA,"St. Nicholas Ave","135th St (B,C) Manhattan","135th St (B,C)","Manhattan",NA,"B","B,C","BLUE-ORANGE",NA,NA,-73.9479974753569,40.8171235398054,"87d43242774d461103cc44e43fd3cea2"
"2562",256,196,"135th St",NA,"St. Nicholas Ave","135th St (B,C) Manhattan","135th St (B,C)","Manhattan",NA,"C","B,C","BLUE-ORANGE",NA,NA,-73.9479974753569,40.8171235398054,"397158ad797b48e8dd1525c04e155e69"
"2571",257,42,"135th St",NA,"Lenox Ave","135th St (2,3) Manhattan","135th St (2,3)","Manhattan",NA,"2","2,3","RED","express",NA,-73.9408359999446,40.8141380009252,"e8a16570c24593d1edcb0280f8d6e774"
"2572",257,42,"135th St",NA,"Lenox Ave","135th St (2,3) Manhattan","135th St (2,3)","Manhattan",NA,"3","2,3","RED","express",NA,-73.9408359999446,40.8141380009252,"44f7be7076b953a4c1955765d6da0768"
"2601",260,197,"145th St",NA,"St. Nicholas Ave","145th St (A,B,C,D) Manhattan","145th St (A,B,C,D)","Manhattan",NA,"A","A,B,C,D","BLUE-ORANGE","express",NA,-73.9447099084356,40.8240622679492,"c54ccd7b794395c67309b489bc3b313c"
"2602",260,197,"145th St",NA,"St. Nicholas Ave","145th St (A,B,C,D) Manhattan","145th St (A,B,C,D)","Manhattan",NA,"B","A,B,C,D","BLUE-ORANGE","express",NA,-73.9447099084356,40.8240622679492,"481e3699bb9dfaaed0545a96e6021baa"
"2603",260,197,"145th St",NA,"St. Nicholas Ave","145th St (A,B,C,D) Manhattan","145th St (A,B,C,D)","Manhattan",NA,"C","A,B,C,D","BLUE-ORANGE","express",NA,-73.9447099084356,40.8240622679492,"ab61da6bdc171b55439031f5fce125ba"
"2604",260,197,"145th St",NA,"St. Nicholas Ave","145th St (A,B,C,D) Manhattan","145th St (A,B,C,D)","Manhattan",NA,"D","A,B,C,D","BLUE-ORANGE","express",NA,-73.9447099084356,40.8240622679492,"a20264c84e879d0ff69b811ab4abc84d"
"2631",263,110,"14th St","Union Sq","4th Ave","14th St / Union Sq (4,5,6) Manhattan","14th St / Union Sq (4,5,6)","Manhattan",NA,"4","L,N,Q,R,W,4,5,6","GREEN","express",NA,-73.9898908256683,40.7344889766027,"a1d01ff549da3ef7766724f98b719cdd"
"2632",263,110,"14th St","Union Sq","4th Ave","14th St / Union Sq (4,5,6) Manhattan","14th St / Union Sq (4,5,6)","Manhattan",NA,"5","L,N,Q,R,W,4,5,6","GREEN","express",NA,-73.9898908256683,40.7344889766027,"53da42ea506473103731db97cafd7287"
"2633",263,110,"14th St","Union Sq","4th Ave","14th St / Union Sq (4,5,6) Manhattan","14th St / Union Sq (4,5,6)","Manhattan",NA,"6","L,N,Q,R,W,4,5,6","GREEN","express",NA,-73.9898908256683,40.7344889766027,"a52425396a1dcece5e7fda2d410c2e57"
"2641",264,294,"6th Ave","14th St","14th St","6th Ave / 14th St (F,L,V) Manhattan","6th Ave / 14th St (F,L,V)","Manhattan",NA,"F","F,L,V,1,2,3,9","GREY-ORANGE",NA,NA,-73.9967923659264,40.7373303653771,"80ddf5698460fbd7be91d0c497b7a19e"
"2642",264,294,"6th Ave","14th St","14th St","6th Ave / 14th St (F,L,V) Manhattan","6th Ave / 14th St (F,L,V)","Manhattan",NA,"L","F,L,V,1,2,3,9","GREY-ORANGE",NA,NA,-73.9967923659264,40.7373303653771,"ba3e65a9ffe57e388f2778397a5fdd51"
"2643",264,294,"6th Ave","14th St","14th St","6th Ave / 14th St (F,L,V) Manhattan","6th Ave / 14th St (F,L,V)","Manhattan",NA,"V","F,L,V,1,2,3,9","GREY-ORANGE",NA,NA,-73.9967923659264,40.7373303653771,"159d830bf1fbdeb65a0babc184f3ebd0"
"2651",265,9,"14th St",NA,"7th Ave","14th St (1,2,3) Manhattan","14th St (1,2,3)","Manhattan",NA,"1","F,L,V,1,2,3","RED","express",NA,-73.9996689071902,40.7385488252629,"63c7c7ca9d68b237601fe967528c905d"
"2652",265,9,"14th St",NA,"7th Ave","14th St (1,2,3) Manhattan","14th St (1,2,3)","Manhattan",NA,"2","F,L,V,1,2,3","RED","express",NA,-73.9996689071902,40.7385488252629,"018f28f49f9fab898813510eee2665e1"
"2653",265,9,"14th St",NA,"7th Ave","14th St (1,2,3) Manhattan","14th St (1,2,3)","Manhattan",NA,"3","F,L,V,1,2,3","RED","express",NA,-73.9996689071902,40.7385488252629,"35e882e499e4e21c14746a7b165f5e57"
"2661",266,206,"155th St",NA,"8th Ave","155th St (B,D) Manhattan","155th St (B,D)","Manhattan",NA,"B","B,D","ORANGE",NA,NA,-73.9390284527687,40.8299546895942,"f26c597390aaa806bb82bedc947f4cb3"
"2662",266,206,"155th St",NA,"8th Ave","155th St (B,D) Manhattan","155th St (B,D)","Manhattan",NA,"D","B,D","ORANGE",NA,NA,-73.9390284527687,40.8299546895942,"c91e39048a0ea2cb22c0a5ad8e5f288c"
"2701",270,200,"168th St","Washington Hts","Broadway","168th St / Washington Hts (A,C) Manhattan","168th St / Washington Hts (A,C)","Manhattan",NA,"A","A,C,1,9","BLUE","express",NA,-73.9394997527904,40.8409795371099,"9891f8d84d22556b7a4fe833f52e9ac1"
"2702",270,200,"168th St","Washington Hts","Broadway","168th St / Washington Hts (A,C) Manhattan","168th St / Washington Hts (A,C)","Manhattan",NA,"C","A,C,1,9","BLUE","express",NA,-73.9394997527904,40.8409795371099,"73ab99498bf546c470e8c3994d60d711"
"2841",284,183,"23rd St",NA,"8th Ave","23rd St (C,E) Manhattan","23rd St (C,E)","Manhattan",NA,"C","C,E","BLUE",NA,NA,-73.9984796254025,40.7453033219949,"07ac119c88a24ff6d180236ea7ed00a5"
"2842",284,183,"23rd St",NA,"8th Ave","23rd St (C,E) Manhattan","23rd St (C,E)","Manhattan",NA,"E","C,E","BLUE",NA,NA,-73.9984796254025,40.7453033219949,"a930a53f31729e9b312abcbc4bfb06af"
"2851",285,295,"23rd St",NA,"6th Ave","23rd St (F,V) Manhattan","23rd St (F,V)","Manhattan",NA,"F","F,V","ORANGE",NA,NA,-73.9927519994166,40.742889001401,"bd013302a98e749ddc17a94a67a6c08f"
"2852",285,295,"23rd St",NA,"6th Ave","23rd St (F,V) Manhattan","23rd St (F,V)","Manhattan",NA,"V","F,V","ORANGE",NA,NA,-73.9927519994166,40.742889001401,"2d0abafcd93e43b78128e55b737c3afb"
"2861",286,370,"23rd St",NA,"Broadway","23rd St (N,R,W) Manhattan","23rd St (N,R,W)","Manhattan",NA,"N","N,R,W","YELLOW",NA,NA,-73.9892472233828,40.7413875812436,"f35271a16d9bf84f32c3ece8ff6f6410"
"2862",286,370,"23rd St",NA,"Broadway","23rd St (N,R,W) Manhattan","23rd St (N,R,W)","Manhattan",NA,"R","N,R,W","YELLOW",NA,NA,-73.9892472233828,40.7413875812436,"9ced172fa4b94de0d62fe8843c306273"
"2863",286,370,"23rd St",NA,"Broadway","23rd St (N,R,W) Manhattan","23rd St (N,R,W)","Manhattan",NA,"W","N,R,W","YELLOW",NA,NA,-73.9892472233828,40.7413875812436,"a119e10dfdbe8382f6400bb6d76fcc52"
"2891",289,369,"28th St",NA,"Broadway","28th St (N,R,W) Manhattan","28th St (N,R,W)","Manhattan",NA,"N","N,R,W","YELLOW",NA,NA,-73.9887258956299,40.7452925067115,"02d55067073c0ba60d5491e36ebf6044"
"2892",289,369,"28th St",NA,"Broadway","28th St (N,R,W) Manhattan","28th St (N,R,W)","Manhattan",NA,"R","N,R,W","YELLOW",NA,NA,-73.9887258956299,40.7452925067115,"fddc7e34a0cbcb430e6a5a9498f92609"
"2893",289,369,"28th St",NA,"Broadway","28th St (N,R,W) Manhattan","28th St (N,R,W)","Manhattan",NA,"W","N,R,W","YELLOW",NA,NA,-73.9887258956299,40.7452925067115,"18ee884a9f33f9f9072e9ec5e38cb320"
"2911",291,300,"2nd Ave","Lower East Side","Houston St","2nd Ave / Lower East Side (F,V) Manhattan","2nd Ave / Lower East Side (F,V)","Manhattan",NA,"F","F,V","ORANGE",NA,NA,-73.9910834257539,40.7236681331978,"9b155ee135846bbe56dbe2120570f030"
"2912",291,300,"2nd Ave","Lower East Side","Houston St","2nd Ave / Lower East Side (F,V) Manhattan","2nd Ave / Lower East Side (F,V)","Manhattan",NA,"V","F,V","ORANGE",NA,NA,-73.9910834257539,40.7236681331978,"0dbbc3d06944a097a9dd389746372e2d"
"2931",293,184,"34th St","Penn Station","8th Ave","34th St / Penn Station (A,C,E) Manhattan","34th St / Penn Station (A,C,E)","Manhattan",NA,"A","A,C,E","BLUE","express",NA,-73.9934679997342,40.7522060010351,"2cdb0b51bef154be43c4ec992ab8d1d4"
"2932",293,184,"34th St","Penn Station","8th Ave","34th St / Penn Station (A,C,E) Manhattan","34th St / Penn Station (A,C,E)","Manhattan",NA,"C","A,C,E","BLUE","express",NA,-73.9934679997342,40.7522060010351,"89c822cb4f4b5285020d5584a42cb0fd"
"2933",293,184,"34th St","Penn Station","8th Ave","34th St / Penn Station (A,C,E) Manhattan","34th St / Penn Station (A,C,E)","Manhattan",NA,"E","A,C,E","BLUE","express",NA,-73.9934679997342,40.7522060010351,"23bf6892350a8118eb8c5ae3316ce68b"
"2941",294,368,"34th St","Herald Sq","Ave of Americas","34th St / Herald Sq (B,D,F,N,Q,R,V,W) Manhattan","34th St / Herald Sq (B,D,F,N,Q,R,V,W)","Manhattan",NA,"B","B,D,F,N,Q,R,V,W","ORANGE-YELLOW","express",NA,-73.9879860386405,40.7493837366603,"0c4ea8a37f3a67954740dc28cd52594f"
"2942",294,368,"34th St","Herald Sq","Ave of Americas","34th St / Herald Sq (B,D,F,N,Q,R,V,W) Manhattan","34th St / Herald Sq (B,D,F,N,Q,R,V,W)","Manhattan",NA,"D","B,D,F,N,Q,R,V,W","ORANGE-YELLOW","express",NA,-73.9879860386405,40.7493837366603,"aa4045a5bb09ec73cff758bd6a17c27b"
"2943",294,368,"34th St","Herald Sq","Ave of Americas","34th St / Herald Sq (B,D,F,N,Q,R,V,W) Manhattan","34th St / Herald Sq (B,D,F,N,Q,R,V,W)","Manhattan",NA,"F","B,D,F,N,Q,R,V,W","ORANGE-YELLOW","express",NA,-73.9879860386405,40.7493837366603,"77c935747a3fd9cd572da9c6ae1f8cd1"
"2944",294,368,"34th St","Herald Sq","Ave of Americas","34th St / Herald Sq (B,D,F,N,Q,R,V,W) Manhattan","34th St / Herald Sq (B,D,F,N,Q,R,V,W)","Manhattan",NA,"N","B,D,F,N,Q,R,V,W","ORANGE-YELLOW","express",NA,-73.9879860386405,40.7493837366603,"b94bb4c48e0004c3f234923706c52e2f"
"2945",294,368,"34th St","Herald Sq","Ave of Americas","34th St / Herald Sq (B,D,F,N,Q,R,V,W) Manhattan","34th St / Herald Sq (B,D,F,N,Q,R,V,W)","Manhattan",NA,"Q","B,D,F,N,Q,R,V,W","ORANGE-YELLOW","express",NA,-73.9879860386405,40.7493837366603,"5e5e62a10c782ec6aa0cf3db48f4f2c4"
"2946",294,368,"34th St","Herald Sq","Ave of Americas","34th St / Herald Sq (B,D,F,N,Q,R,V,W) Manhattan","34th St / Herald Sq (B,D,F,N,Q,R,V,W)","Manhattan",NA,"R","B,D,F,N,Q,R,V,W","ORANGE-YELLOW","express",NA,-73.9879860386405,40.7493837366603,"c7390eeb86a1b8e3518b4edec145bef3"
"2947",294,368,"34th St","Herald Sq","Ave of Americas","34th St / Herald Sq (B,D,F,N,Q,R,V,W) Manhattan","34th St / Herald Sq (B,D,F,N,Q,R,V,W)","Manhattan",NA,"V","B,D,F,N,Q,R,V,W","ORANGE-YELLOW","express",NA,-73.9879860386405,40.7493837366603,"aaaf6f21b462ae69102df771ed43d802"
"2948",294,368,"34th St","Herald Sq","Ave of Americas","34th St / Herald Sq (B,D,F,N,Q,R,V,W) Manhattan","34th St / Herald Sq (B,D,F,N,Q,R,V,W)","Manhattan",NA,"W","B,D,F,N,Q,R,V,W","ORANGE-YELLOW","express",NA,-73.9879860386405,40.7493837366603,"917c9b6a58ab0df977cb0a943364095c"
"2951",295,13,"34th St","Penn Station","7th Ave","34th St (1,2,3) Manhattan","34th St / Penn Station (1,2,3)","Manhattan",NA,"1","1,2,3","RED","express",NA,-73.9906047786744,40.7510008097621,"ac8cdf94ca11626fbfce2cd2507d05d0"
"2952",295,13,"34th St","Penn Station","7th Ave","34th St (1,2,3) Manhattan","34th St / Penn Station (1,2,3)","Manhattan",NA,"2","1,2,3","RED","express",NA,-73.9906047786744,40.7510008097621,"a0099e7489d6d4fd92bc6dbe55829034"
"2953",295,13,"34th St","Penn Station","7th Ave","34th St (1,2,3) Manhattan","34th St / Penn Station (1,2,3)","Manhattan",NA,"3","1,2,3","RED","express",NA,-73.9906047786744,40.7510008097621,"90acb347224a241035316d9ee478680d"
"2971",297,297,"42nd St","Bryant Park","Ave of Americas","42nd St / Bryant Park (B,D,F,V) Manhattan","42nd St / Bryant Park (B,D,F,V)","Manhattan",NA,"B","B,D,F,V,7","ORANGE","express",NA,-73.9841159037159,40.7548367991639,"258b236608de32a090e72537777d9ac6"
"2972",297,297,"42nd St","Bryant Park","Ave of Americas","42nd St / Bryant Park (B,D,F,V) Manhattan","42nd St / Bryant Park (B,D,F,V)","Manhattan",NA,"D","B,D,F,V,7","ORANGE","express",NA,-73.9841159037159,40.7548367991639,"df2b47ba7a4d18b8cfc1f9bb0f524384"
"2973",297,297,"42nd St","Bryant Park","Ave of Americas","42nd St / Bryant Park (B,D,F,V) Manhattan","42nd St / Bryant Park (B,D,F,V)","Manhattan",NA,"F","B,D,F,V,7","ORANGE","express",NA,-73.9841159037159,40.7548367991639,"cb769b579d6f32d735aa8b7900c16af4"
"2974",297,297,"42nd St","Bryant Park","Ave of Americas","42nd St / Bryant Park (B,D,F,V) Manhattan","42nd St / Bryant Park (B,D,F,V)","Manhattan",NA,"V","B,D,F,V,7","ORANGE","express",NA,-73.9841159037159,40.7548367991639,"eb3de750db7eec3c3010b991f678d07c"
"2981",298,185,"42nd St","Port Authority Bus Term.","8th Ave","42nd St / Port Authority Bus Term. (A,C,E) Manhattan","42nd St / Port Authority Bus Term. (A,C,E)","Manhattan",NA,"A","A,C,E,N,Q,R,S,W,1,2,3,7","BLUE","express",NA,-73.989780000473,40.7572290010292,"012d4075c86d49e84c1b046ee44cc5d4"
"2982",298,185,"42nd St","Port Authority Bus Term.","8th Ave","42nd St / Port Authority Bus Term. (A,C,E) Manhattan","42nd St / Port Authority Bus Term. (A,C,E)","Manhattan",NA,"C","A,C,E,N,Q,R,S,W,1,2,3,7","BLUE","express",NA,-73.989780000473,40.7572290010292,"1fc87639d82d073bbebdc0822db393cb"
"2983",298,185,"42nd St","Port Authority Bus Term.","8th Ave","42nd St / Port Authority Bus Term. (A,C,E) Manhattan","42nd St / Port Authority Bus Term. (A,C,E)","Manhattan",NA,"E","A,C,E,N,Q,R,S,W,1,2,3,7","BLUE","express",NA,-73.989780000473,40.7572290010292,"5eca98fc46123998663331886ca6425f"
"2991",299,298,"47th-50th Sts","Rockefeller Center","Ave of Americas","47th-50th Sts / Rockefeller Center (B,D,F,V) Manhattan","47th-50th Sts / Rockefeller Center (B,D,F,V)","Manhattan",NA,"B","B,D,F,V","ORANGE","express",NA,-73.9813310007409,40.7586410011253,"69b6e5fc16b4663a32c3e68144b2d158"
"2992",299,298,"47th-50th Sts","Rockefeller Center","Ave of Americas","47th-50th Sts / Rockefeller Center (B,D,F,V) Manhattan","47th-50th Sts / Rockefeller Center (B,D,F,V)","Manhattan",NA,"D","B,D,F,V","ORANGE","express",NA,-73.9813310007409,40.7586410011253,"2adeb78c13b7d823f8ff36b4f51f9e66"
"2993",299,298,"47th-50th Sts","Rockefeller Center","Ave of Americas","47th-50th Sts / Rockefeller Center (B,D,F,V) Manhattan","47th-50th Sts / Rockefeller Center (B,D,F,V)","Manhattan",NA,"F","B,D,F,V","ORANGE","express",NA,-73.9813310007409,40.7586410011253,"a2e97f261fe0c6bd697b2ad7525a37a8"
"2994",299,298,"47th-50th Sts","Rockefeller Center","Ave of Americas","47th-50th Sts / Rockefeller Center (B,D,F,V) Manhattan","47th-50th Sts / Rockefeller Center (B,D,F,V)","Manhattan",NA,"V","B,D,F,V","ORANGE","express",NA,-73.9813310007409,40.7586410011253,"cfcc493183c9138bf1c1d5916148c2b3"
"3001",300,366,"49th St",NA,"7th Ave","49th St (N,R,W) Manhattan","49th St (N,R,W)","Manhattan",NA,"N","N,R,W","YELLOW",NA,NA,-73.9837367071627,40.7604480949238,"191e990c1861887cbde8c5aba973ed81"
"3002",300,366,"49th St",NA,"7th Ave","49th St (N,R,W) Manhattan","49th St (N,R,W)","Manhattan",NA,"R","N,R,W","YELLOW",NA,NA,-73.9837367071627,40.7604480949238,"020c9d7d1e03814df395354dcbe4b761"
"3003",300,366,"49th St",NA,"7th Ave","49th St (N,R,W) Manhattan","49th St (N,R,W)","Manhattan",NA,"W","N,R,W","YELLOW",NA,NA,-73.9837367071627,40.7604480949238,"12f86d0a8003742831659eaee9430e05"
"3012",301,186,"50th St",NA,"8th Ave","50th St (C,E) Manhattan","50th St (C,E)","Manhattan",NA,"C","C,E","BLUE",NA,NA,-73.986094313412,40.7623049883156,"a56d51a2e534b1a453424748e87e2103"
"3013",301,186,"50th St",NA,"8th Ave","50th St (C,E) Manhattan","50th St (C,E)","Manhattan",NA,"E","C,E","BLUE",NA,NA,-73.986094313412,40.7623049883156,"23824a2d1729e72cefa716bed8bafbce"
"3041",304,365,"57th St",NA,"7th Ave","57th St (N,Q,R,W) Manhattan","57th St (N,Q,R,W)","Manhattan",NA,"N","N,R,Q,W","YELLOW","express",NA,-73.9800405189307,40.7655140426612,"78c9b0f5f5e8b2fe0d3873a99f0375a3"
"3042",304,365,"57th St",NA,"7th Ave","57th St (N,Q,R,W) Manhattan","57th St (N,Q,R,W)","Manhattan",NA,"Q","N,R,Q,W","YELLOW","express",NA,-73.9800405189307,40.7655140426612,"94620d40233e816f37319c3fa913413f"
"3043",304,365,"57th St",NA,"7th Ave","57th St (N,Q,R,W) Manhattan","57th St (N,Q,R,W)","Manhattan",NA,"R","N,R,Q,W","YELLOW","express",NA,-73.9800405189307,40.7655140426612,"c15b2b2b5c501236bf572b2e2f043da6"
"3044",304,365,"57th St",NA,"7th Ave","57th St (N,Q,R,W) Manhattan","57th St (N,Q,R,W)","Manhattan",NA,"W","N,R,Q,W","YELLOW","express",NA,-73.9800405189307,40.7655140426612,"334ea90e9623dbb77f2a2d4026e0793d"
"3061",306,116,"59th St","Lexington Ave","Lexington Ave","59th St / Lexington Ave (4,5,6) Manhattan","59th St / Lexington Ave (4,5,6)","Manhattan",NA,"4","F,N,R,W,4,5,6","GREEN","express",NA,-73.9681672801465,40.762245974797,"9c3337f806be4e4c264ece6508c54e63"
"3062",306,116,"59th St","Lexington Ave","Lexington Ave","59th St / Lexington Ave (4,5,6) Manhattan","59th St / Lexington Ave (4,5,6)","Manhattan",NA,"5","F,N,R,W,4,5,6","GREEN","express",NA,-73.9681672801465,40.762245974797,"0d850765ca2f7f932d2bffde0e95dbbc"
"3063",306,116,"59th St","Lexington Ave","Lexington Ave","59th St / Lexington Ave (4,5,6) Manhattan","59th St / Lexington Ave (4,5,6)","Manhattan",NA,"6","F,N,R,W,4,5,6","GREEN","express",NA,-73.9681672801465,40.762245974797,"0649836c0ee082364faafc62e61d3fae"
"3071",307,187,"59th St","Columbus Circle","8th Ave","59th St / Columbus Circle (A,B,C,D) Manhattan","59th St / Columbus Circle (A,B,C,D)","Manhattan",NA,"A","A,B,C,D,1","BLUE-ORANGE","express",NA,-73.9819157395929,40.7680380103219,"0da1360850c7c8cd6348d491c673d425"
"3072",307,187,"59th St","Columbus Circle","8th Ave","59th St / Columbus Circle (A,B,C,D) Manhattan","59th St / Columbus Circle (A,B,C,D)","Manhattan",NA,"B","A,B,C,D,1","BLUE-ORANGE","express",NA,-73.9819157395929,40.7680380103219,"7307dac549f3b52268627bba977f6c72"
"3073",307,187,"59th St","Columbus Circle","8th Ave","59th St / Columbus Circle (A,B,C,D) Manhattan","59th St / Columbus Circle (A,B,C,D)","Manhattan",NA,"C","A,B,C,D,1","BLUE-ORANGE","express",NA,-73.9819157395929,40.7680380103219,"f33eef362729a4739011739e53dd5d18"
"3074",307,187,"59th St","Columbus Circle","8th Ave","59th St / Columbus Circle (A,B,C,D) Manhattan","59th St / Columbus Circle (A,B,C,D)","Manhattan",NA,"D","A,B,C,D,1","BLUE-ORANGE","express",NA,-73.9819157395929,40.7680380103219,"007d9a94458f4805a747edb18a620bab"
"3091",309,256,"5th Ave","53rd St","53rd St","5th Ave / 53rd St (E,V) Manhattan","5th Ave / 53rd St (E,V)","Manhattan",NA,"E","E,V","BLUE-ORANGE","express",NA,-73.9758113541664,40.7604200820152,"e14a20550a61ab4a46bf6e2aa8fbf154"
"3092",309,256,"5th Ave","53rd St","53rd St","5th Ave / 53rd St (E,V) Manhattan","5th Ave / 53rd St (E,V)","Manhattan",NA,"V","E,V","BLUE-ORANGE","express",NA,-73.9758113541664,40.7604200820152,"4a7e35a1ba4a06277feb87b90ba75ce3"
"3101",310,364,"5th Ave",NA,"59th St","5th Ave (N,R,W) Manhattan","5th Ave (N,R,W)","Manhattan",NA,"N","N,R,W","YELLOW",NA,NA,-73.9725834570167,40.7648490179847,"f7399218aa0e604a4d6e70ce44d01219"
"3102",310,364,"5th Ave",NA,"59th St","5th Ave (N,R,W) Manhattan","5th Ave (N,R,W)","Manhattan",NA,"R","N,R,W","YELLOW",NA,NA,-73.9725834570167,40.7648490179847,"4120ea82c696d04792bb6e9b241dd81b"
"3103",310,364,"5th Ave",NA,"59th St","5th Ave (N,R,W) Manhattan","5th Ave (N,R,W)","Manhattan",NA,"W","N,R,W","YELLOW",NA,NA,-73.9725834570167,40.7648490179847,"ac3a3778f14893ddfb496193b705e8ed"
"3141",314,188,"72nd St",NA,"Central Park West","72nd St (B,C) Manhattan","72nd St (B,C)","Manhattan",NA,"B","B,C","BLUE-ORANGE",NA,NA,-73.9759647795637,40.7761954929467,"4fe8ec866c639dd2241be68b2025b347"
"3142",314,188,"72nd St",NA,"Central Park West","72nd St (B,C) Manhattan","72nd St (B,C)","Manhattan",NA,"C","B,C","BLUE-ORANGE",NA,NA,-73.9759647795637,40.7761954929467,"0dabb7e93e803de4da49b25a42e43b8c"
"3151",315,18,"72nd St",NA,"Broadway","72nd St (1,2,3) Manhattan","72nd St (1,2,3)","Manhattan",NA,"1","1,2,3","RED","express",NA,-73.9819184364852,40.7787536067611,"50703783aeb98ae253261490a8c40405"
"3152",315,18,"72nd St",NA,"Broadway","72nd St (1,2,3) Manhattan","72nd St (1,2,3)","Manhattan",NA,"2","1,2,3","RED","express",NA,-73.9819184364852,40.7787536067611,"dce9fc5815d74d2fc04c6cf3fe4d103c"
"3153",315,18,"72nd St",NA,"Broadway","72nd St (1,2,3) Manhattan","72nd St (1,2,3)","Manhattan",NA,"3","1,2,3","RED","express",NA,-73.9819184364852,40.7787536067611,"05b26338ca4f8f3cf97bc6685eb0c268"
"3181",318,255,"7th Ave",NA,"53rd St","7th Ave (B,D,E) Manhattan","7th Ave (B,D,E)","Manhattan",NA,"B","B,D,E","BLUE-ORANGE","express",NA,-73.9818691697069,40.7629956438766,"911e62535b21c07e94f9a0ee6af4628a"
"3182",318,255,"7th Ave",NA,"53rd St","7th Ave (B,D,E) Manhattan","7th Ave (B,D,E)","Manhattan",NA,"D","B,D,E","BLUE-ORANGE","express",NA,-73.9818691697069,40.7629956438766,"6d6a4ea9277b612113097a4068fbcb88"
"3183",318,255,"7th Ave",NA,"53rd St","7th Ave (B,D,E) Manhattan","7th Ave (B,D,E)","Manhattan",NA,"E","B,D,E","BLUE-ORANGE","express",NA,-73.9818691697069,40.7629956438766,"3fed99d961e019a3e220ae9f247526fa"
"3191",319,189,"81st St","Museum of Natural Hist.","Central Park West","81st St / Museum of Natural Hist. (B,C) Manhattan","81st St / Museum of Natural Hist. (B,C)","Manhattan",NA,"B","B,C","BLUE-ORANGE",NA,NA,-73.9717337361925,40.7820064126029,"bc830a4dcfcdd75487fd58ff53b56039"
"3192",319,189,"81st St","Museum of Natural Hist.","Central Park West","81st St / Museum of Natural Hist. (B,C) Manhattan","81st St / Museum of Natural Hist. (B,C)","Manhattan",NA,"C","B,C","BLUE-ORANGE",NA,NA,-73.9717337361925,40.7820064126029,"070b9554f487bd444ce567e72d4976d3"
"3201",320,119,"86th St",NA,"Lexington Ave","86th St (4,5,6) Manhattan","86th St (4,5,6)","Manhattan",NA,"4","4,5,6","GREEN","express",NA,-73.9555889991208,40.7794920013889,"2acf1933f2cef83c50819acb805ca1e9"
"3202",320,119,"86th St",NA,"Lexington Ave","86th St (4,5,6) Manhattan","86th St (4,5,6)","Manhattan",NA,"5","4,5,6","GREEN","express",NA,-73.9555889991208,40.7794920013889,"7a86c8007ed9b190e2cce14db1fdd579"
"3203",320,119,"86th St",NA,"Lexington Ave","86th St (4,5,6) Manhattan","86th St (4,5,6)","Manhattan",NA,"6","4,5,6","GREEN","express",NA,-73.9555889991208,40.7794920013889,"faea6a7c50cd6339f522160a8f076d5d"
"3212",321,190,"86th St",NA,"Central Park West","86th St (B,C) Manhattan","86th St (B,C)","Manhattan",NA,"B","B,C","BLUE-ORANGE",NA,NA,-73.9693127216862,40.7853106605073,"4009289749d1340587d3693c2d1dd18c"
"3213",321,190,"86th St",NA,"Central Park West","86th St (B,C) Manhattan","86th St (B,C)","Manhattan",NA,"C","B,C","BLUE-ORANGE",NA,NA,-73.9693127216862,40.7853106605073,"ce41b18e0fff2894c9ba1aac74f93192"
"3231",323,439,"8th Ave","14th St","14 St","8th Ave / 14th St (A,C,E,L) Manhattan","8th Ave / 14th St (A,C,E,L)","Manhattan",NA,"A","A,C,E,L","BLUE-GREY","express",NA,-74.0024881829985,40.7397989294431,"28c42fed464c483de8e7af40a336aaba"
"3232",323,439,"8th Ave","14th St","14 St","8th Ave / 14th St (A,C,E,L) Manhattan","8th Ave / 14th St (A,C,E,L)","Manhattan",NA,"C","A,C,E,L","BLUE-GREY","express",NA,-74.0024881829985,40.7397989294431,"9f3738c297c10086a65d9d309d430043"
"3233",323,439,"8th Ave","14th St","14 St","8th Ave / 14th St (A,C,E,L) Manhattan","8th Ave / 14th St (A,C,E,L)","Manhattan",NA,"E","A,C,E,L","BLUE-GREY","express",NA,-74.0024881829985,40.7397989294431,"19541a4dede6d6961ceffa5042fcc10a"
"3234",323,439,"8th Ave","14th St","14 St","8th Ave / 14th St (A,C,E,L) Manhattan","8th Ave / 14th St (A,C,E,L)","Manhattan",NA,"L","A,C,E,L","BLUE-GREY","express",NA,-74.0024881829985,40.7397989294431,"3d6ee3bbedd871450690de6af0b82868"
"3241",324,372,"8th St","New York University","Broadway","8th St / New York University (N,R,W) Manhattan","8th St / New York University (N,R,W)","Manhattan",NA,"N","N,R,W","YELLOW",NA,NA,-73.9924197719643,40.7305746208496,"87158888ee16d8e5d98e375ca6c4e05b"
"3242",324,372,"8th St","New York University","Broadway","8th St / New York University (N,R,W) Manhattan","8th St / New York University (N,R,W)","Manhattan",NA,"R","N,R,W","YELLOW",NA,NA,-73.9924197719643,40.7305746208496,"64ca8ad91dd6f5ea360ac471a92bae5d"
"3243",324,372,"8th St","New York University","Broadway","8th St / New York University (N,R,W) Manhattan","8th St / New York University (N,R,W)","Manhattan",NA,"W","N,R,W","YELLOW",NA,NA,-73.9924197719643,40.7305746208496,"ba284965dfc7c21dd0af69e8623f2f55"
"3261",326,191,"96th St",NA,"Central Park West","96th St (B,C) Manhattan","96th St (B,C)","Manhattan",NA,"B","B,C","BLUE-ORANGE",NA,NA,-73.964681998548,40.7916740009111,"079229921cd0474fe052b82aeaf91152"
"3262",326,191,"96th St",NA,"Central Park West","96th St (B,C) Manhattan","96th St (B,C)","Manhattan",NA,"C","B,C","BLUE-ORANGE",NA,NA,-73.964681998548,40.7916740009111,"e6b0cca927c50f316aa5696385d28088"
"3271",327,21,"96th St",NA,"Broadway","96th St (1,2,3) Manhattan","96th St (1,2,3)","Manhattan",NA,"1","1,2,3","RED","express",NA,-73.9718079852052,40.7946577707848,"50300c4524042f659997e5d6eeadca5f"
"3272",327,21,"96th St",NA,"Broadway","96th St (1,2,3) Manhattan","96th St (1,2,3)","Manhattan",NA,"2","1,2,3","RED","express",NA,-73.9718079852052,40.7946577707848,"19876d0c865dea7c996d92f8ffb8c197"
"3273",327,21,"96th St",NA,"Broadway","96th St (1,2,3) Manhattan","96th St (1,2,3)","Manhattan",NA,"3","1,2,3","RED","express",NA,-73.9718079852052,40.7946577707848,"a050359118d607136d7c3da79d117e21"
"3301",330,308,"Bowery",NA,"Delancey St","Bowery (J,M,Z) Manhattan","Bowery (J,M,Z)","Manhattan",NA,"J","J,M,Z","BROWN",NA,NA,-73.9940289655998,40.7203209283726,"2f81fd5b6f9f094e351a4d0e8b536bd8"
"3302",330,308,"Bowery",NA,"Delancey St","Bowery (J,M,Z) Manhattan","Bowery (J,M,Z)","Manhattan",NA,"M","J,M,Z","BROWN",NA,NA,-73.9940289655998,40.7203209283726,"a573fcb8fdbc1fdcaf8802414ed46051"
"3303",330,308,"Bowery",NA,"Delancey St","Bowery (J,M,Z) Manhattan","Bowery (J,M,Z)","Manhattan",NA,"Z","J,M,Z","BROWN",NA,NA,-73.9940289655998,40.7203209283726,"1a73bd9ea2d8bd6a235cf17b1dc0e4b2"
"3311",331,102,"Bowling Green",NA,"Broadway","Bowling Green (4,5) Manhattan","Bowling Green (4,5)","Manhattan",NA,"4","4,5","GREEN","express",NA,-74.0140079995516,40.7049140010191,"e60298466e9d49379314f0917ab2110d"
"3312",331,102,"Bowling Green",NA,"Broadway","Bowling Green (4,5) Manhattan","Bowling Green (4,5)","Manhattan",NA,"5","4,5","GREEN","express",NA,-74.0140079995516,40.7049140010191,"b890da0bb280980a2ee0d78bd4d4c881"
"3321",332,304,"Broad St",NA,"Wall St","Broad St (J,M,Z) Manhattan","Broad St (J,M,Z)","Manhattan",NA,"J","J,M,Z","BROWN","express",NA,-74.0106714688736,40.7071048165172,"d58bf4bc064522f3f47b5fa1c675c72f"
"3322",332,304,"Broad St",NA,"Wall St","Broad St (J,M,Z) Manhattan","Broad St (J,M,Z)","Manhattan",NA,"M","J,M,Z","BROWN","express",NA,-74.0106714688736,40.7071048165172,"24d1fe2c4d815f65b3b92d2ed62482ab"
"3323",332,304,"Broad St",NA,"Wall St","Broad St (J,M,Z) Manhattan","Broad St (J,M,Z)","Manhattan",NA,"Z","J,M,Z","BROWN","express",NA,-74.0106714688736,40.7071048165172,"f84bc1ff0be116bd76f32f397a7a460e"
"3331",333,292,"Broadway-Lafayette St","Bleecker St","Houston St","Broadway-Lafayette St / Bleecker St (B,D,F,V) Manhattan","Broadway-Lafayette St / Bleecker St (B,D,F,V)","Manhattan",NA,"B","B,D,F,V,4,5,6","ORANGE","express",NA,-73.9956498473487,40.7251648749495,"08db5e7687c4f5fbb04c27f7c08dee29"
"3332",333,292,"Broadway-Lafayette St","Bleecker St","Houston St","Broadway-Lafayette St / Bleecker St (B,D,F,V) Manhattan","Broadway-Lafayette St / Bleecker St (B,D,F,V)","Manhattan",NA,"D","B,D,F,V,4,5,6","ORANGE","express",NA,-73.9956498473487,40.7251648749495,"e88ec233012a9907197f0a6e2832d258"
"3333",333,292,"Broadway-Lafayette St","Bleecker St","Houston St","Broadway-Lafayette St / Bleecker St (B,D,F,V) Manhattan","Broadway-Lafayette St / Bleecker St (B,D,F,V)","Manhattan",NA,"F","B,D,F,V,4,5,6","ORANGE","express",NA,-73.9956498473487,40.7251648749495,"25fa064dabbbe845f4738e7158a27205"
"3334",333,292,"Broadway-Lafayette St","Bleecker St","Houston St","Broadway-Lafayette St / Bleecker St (B,D,F,V) Manhattan","Broadway-Lafayette St / Bleecker St (B,D,F,V)","Manhattan",NA,"V","B,D,F,V,4,5,6","ORANGE","express",NA,-73.9956498473487,40.7251648749495,"97f51ce361c9ec0c2dcc51b73480487b"
"3341",334,218,"Broadway-Nassau St","Fulton St","Fulton St","Broadway-Nassau St / Fulton St (A,C) Manhattan","Broadway-Nassau St / Fulton St (A,C)","Manhattan",NA,"A","A,C,J,M,Z,2,3,4,5","BLUE","express",NA,-74.0083290002315,40.7104930008052,"ec312ee8612e9034b235edc876f193a9"
"3342",334,218,"Broadway-Nassau St","Fulton St","Fulton St","Broadway-Nassau St / Fulton St (A,C) Manhattan","Broadway-Nassau St / Fulton St (A,C)","Manhattan",NA,"C","A,C,J,M,Z,2,3,4,5","BLUE","express",NA,-74.0083290002315,40.7104930008052,"9b8b5387b47c81b60673b2fe4390faf9"
"3351",335,105,"Brooklyn Bridge","City Hall","Centre St","Brooklyn Bridge / City Hall (4,5,6) Manhattan","Brooklyn Bridge / City Hall (4,5,6)","Manhattan",NA,"4","J,M,Z,4,5,6","GREEN","express",NA,-74.0053960010417,40.7122130013643,"1cde70b2ca15816526760381bf54b13d"
"3352",335,105,"Brooklyn Bridge","City Hall","Centre St","Brooklyn Bridge / City Hall (4,5,6) Manhattan","Brooklyn Bridge / City Hall (4,5,6)","Manhattan",NA,"5","J,M,Z,4,5,6","GREEN","express",NA,-74.0053960010417,40.7122130013643,"677fd86dad24076862f7f02021e810a4"
"3353",335,105,"Brooklyn Bridge","City Hall","Centre St","Brooklyn Bridge / City Hall (4,5,6) Manhattan","Brooklyn Bridge / City Hall (4,5,6)","Manhattan",NA,"6","J,M,Z,4,5,6","GREEN","express",NA,-74.0053960010417,40.7122130013643,"0af7d7fe48ed39cce767f7887c8a73e3"
"3371",337,179,"Canal St",NA,"6th Ave","Canal St (A,C,E) Manhattan","Canal St (A,C,E)","Manhattan",NA,"A","A,C,E","BLUE","express",NA,-74.0054049990978,40.721907001414,"e9798fd82661179403b7cdd7dae02a98"
"3372",337,179,"Canal St",NA,"6th Ave","Canal St (A,C,E) Manhattan","Canal St (A,C,E)","Manhattan",NA,"C","A,C,E","BLUE","express",NA,-74.0054049990978,40.721907001414,"1f3c25b84e13e3ff46873ea9ba9793c7"
"3373",337,179,"Canal St",NA,"6th Ave","Canal St (A,C,E) Manhattan","Canal St (A,C,E)","Manhattan",NA,"E","A,C,E","BLUE","express",NA,-74.0054049990978,40.721907001414,"9872757cfa6e9a5a22213a3ffad9958d"
"3381",338,307,"Canal St",NA,"Centre St","Canal St (J,M,Z) Manhattan","Canal St (J,M,Z)","Manhattan",NA,"J","J,M,N,Q,R,W,Z,6","BROWN","express",NA,-73.9999338314919,40.718018195425,"79cd90dca3235d1ffcd8db41245be1e1"
"3382",338,307,"Canal St",NA,"Centre St","Canal St (J,M,Z) Manhattan","Canal St (J,M,Z)","Manhattan",NA,"M","J,M,N,Q,R,W,Z,6","BROWN","express",NA,-73.9999338314919,40.718018195425,"32932c12f0791e23413c5f786b26f579"
"3383",338,307,"Canal St",NA,"Centre St","Canal St (J,M,Z) Manhattan","Canal St (J,M,Z)","Manhattan",NA,"Z","J,M,N,Q,R,W,Z,6","BROWN","express",NA,-73.9999338314919,40.718018195425,"5ac4447e23df52407aac35c70a5de0c0"
"3391",339,374,"Canal St",NA,"Broadway","Canal St (N,Q,R,W) Manhattan","Canal St (N,Q,R,W)","Manhattan",NA,"N","J,M,N,Q,R,W,Z,6","YELLOW","express",NA,-74.0018632734107,40.7194121795583,"1d668d1d8302d0cbebf63a64ffd1ee55"
"3392",339,374,"Canal St",NA,"Broadway","Canal St (N,Q,R,W) Manhattan","Canal St (N,Q,R,W)","Manhattan",NA,"Q","J,M,N,Q,R,W,Z,6","YELLOW","express",NA,-74.0018632734107,40.7194121795583,"01e1fbcc46aaba0ec5ad7d9ca1dd17bf"
"3393",339,374,"Canal St",NA,"Broadway","Canal St (N,Q,R,W) Manhattan","Canal St (N,Q,R,W)","Manhattan",NA,"R","J,M,N,Q,R,W,Z,6","YELLOW","express",NA,-74.0018632734107,40.7194121795583,"57592bfb78410a3f26a52ed096da0b60"
"3394",339,374,"Canal St",NA,"Broadway","Canal St (N,Q,R,W) Manhattan","Canal St (N,Q,R,W)","Manhattan",NA,"W","J,M,N,Q,R,W,Z,6","YELLOW","express",NA,-74.0018632734107,40.7194121795583,"ff83db121d7827ac9bef30d813771a1c"
"3421",342,217,"Chambers St","Park Pl","Church St","Chambers St / Park Pl (A,C) Manhattan","Chambers St / Park Pl (A,C)","Manhattan",NA,"A","A,C,E,2,3","BLUE","express",NA,-74.0079863744785,40.7149151597429,"2fbc2121952ebd0e76baccc85a517a56"
"3422",342,217,"Chambers St","Park Pl","Church St","Chambers St / Park Pl (A,C) Manhattan","Chambers St / Park Pl (A,C)","Manhattan",NA,"C","A,C,E,2,3","BLUE","express",NA,-74.0079863744785,40.7149151597429,"f4c0a911f45ef7e11c04717a3fe98b81"
"3431",343,306,"Chambers St","Brooklyn Bridge","Centre St","Chambers St / Brooklyn Bridge (J,M,Z) Manhattan","Chambers St / Brooklyn Bridge (J,M,Z)","Manhattan",NA,"J","J,M,Z,4,5,6","BROWN","express",NA,-74.0038514483097,40.7130408702152,"356c02ebab9298323ccc86141c1c0e6d"
"3432",343,306,"Chambers St","Brooklyn Bridge","Centre St","Chambers St / Brooklyn Bridge (J,M,Z) Manhattan","Chambers St / Brooklyn Bridge (J,M,Z)","Manhattan",NA,"M","J,M,Z,4,5,6","BROWN","express",NA,-74.0038514483097,40.7130408702152,"4ee96312f394a5904994a87d0c64aa2d"
"3433",343,306,"Chambers St","Brooklyn Bridge","Centre St","Chambers St / Brooklyn Bridge (J,M,Z) Manhattan","Chambers St / Brooklyn Bridge (J,M,Z)","Manhattan",NA,"Z","J,M,Z,4,5,6","BROWN","express",NA,-74.0038514483097,40.7130408702152,"4317d963b7953b501c64590f91391e54"
"3441",344,4,"Chambers St",NA,"West Broadway","Chambers St (1,2,3) Manhattan","Chambers St (1,2,3)","Manhattan",NA,"1","1,2,3","RED","express",NA,-74.0092380011469,40.7155140019216,"1c20169c4bddcf9dca9a2576577b040a"
"3442",344,4,"Chambers St",NA,"West Broadway","Chambers St (1,2,3) Manhattan","Chambers St (1,2,3)","Manhattan",NA,"2","1,2,3","RED","express",NA,-74.0092380011469,40.7155140019216,"8ae33c3721530cdf808b30f6f2d1a6e0"
"3443",344,4,"Chambers St",NA,"West Broadway","Chambers St (1,2,3) Manhattan","Chambers St (1,2,3)","Manhattan",NA,"3","1,2,3","RED","express",NA,-74.0092380011469,40.7155140019216,"e567e5576f8dc17ce7d0295cc607a62b"
"3461",346,375,"City Hall",NA,"Broadway","City Hall (R,W) Manhattan","City Hall (R,W)","Manhattan",NA,"R","R,W","YELLOW",NA,NA,-74.0070409988307,40.7132720009284,"edab40901c5f3519c8c315088ddbcd44"
"3462",346,375,"City Hall",NA,"Broadway","City Hall (R,W) Manhattan","City Hall (R,W)","Manhattan",NA,"W","R,W","YELLOW",NA,NA,-74.0070409988307,40.7132720009284,"7913c540227f1ff84d5449e05a896f6a"
"3471",347,301,"Essex St","Delancey St","Delancey St","Essex St / Delancey St (F,J,M,Z) Manhattan","Essex St / Delancey St (F,J,M,Z)","Manhattan",NA,"F","F,J,M,Z","BROWN-ORANGE","express",NA,-73.9882021793358,40.7185313179353,"2a8d666685347ec82ac1af7f903a7f1c"
"3472",347,301,"Essex St","Delancey St","Delancey St","Essex St / Delancey St (F,J,M,Z) Manhattan","Essex St / Delancey St (F,J,M,Z)","Manhattan",NA,"J","F,J,M,Z","BROWN-ORANGE","express",NA,-73.9882021793358,40.7185313179353,"6441147b35b36ccba886854e71cf2c3b"
"3473",347,301,"Essex St","Delancey St","Delancey St","Essex St / Delancey St (F,J,M,Z) Manhattan","Essex St / Delancey St (F,J,M,Z)","Manhattan",NA,"M","F,J,M,Z","BROWN-ORANGE","express",NA,-73.9882021793358,40.7185313179353,"dff8396e5eec922f2d89af1cbf07b133"
"3474",347,301,"Essex St","Delancey St","Delancey St","Essex St / Delancey St (F,J,M,Z) Manhattan","Essex St / Delancey St (F,J,M,Z)","Manhattan",NA,"Z","F,J,M,Z","BROWN-ORANGE","express",NA,-73.9882021793358,40.7185313179353,"510bd17bccdf376c5f729f95f4884454"
"3521",352,104,"Fulton St","Broadway-Nassau St","Broadway","Fulton St / Broadway-Nassau St (4,5) Manhattan","Fulton St / Broadway-Nassau St (4,5)","Manhattan",NA,"4","A,C,J,M,Z,2,3,4,5","GREEN","express",NA,-74.0090910348331,40.7108604936398,"40a68ea00964dfc97dcc25c00859279e"
"3522",352,104,"Fulton St","Broadway-Nassau St","Broadway","Fulton St / Broadway-Nassau St (4,5) Manhattan","Fulton St / Broadway-Nassau St (4,5)","Manhattan",NA,"5","A,C,J,M,Z,2,3,4,5","GREEN","express",NA,-74.0090910348331,40.7108604936398,"7f57cb1bf28915ee9ba7953a98b30581"
"3531",353,305,"Fulton St","Broadway-Nassau St","Nassau St","Fulton St / Broadway-Nassau St (J,M,Z) Manhattan","Fulton St / Broadway-Nassau St (J,M,Z)","Manhattan",NA,"J","A,C,J,M,Z,2,3,4,5","BROWN","express",NA,-74.007744999628,40.7102150021283,"2f5d731732d2c60e3101748d4512fb1d"
"3532",353,305,"Fulton St","Broadway-Nassau St","Nassau St","Fulton St / Broadway-Nassau St (J,M,Z) Manhattan","Fulton St / Broadway-Nassau St (J,M,Z)","Manhattan",NA,"M","A,C,J,M,Z,2,3,4,5","BROWN","express",NA,-74.007744999628,40.7102150021283,"2fc4fe934494db20d97f1d48ee3aa561"
"3533",353,305,"Fulton St","Broadway-Nassau St","Nassau St","Fulton St / Broadway-Nassau St (J,M,Z) Manhattan","Fulton St / Broadway-Nassau St (J,M,Z)","Manhattan",NA,"Z","A,C,J,M,Z,2,3,4,5","BROWN","express",NA,-74.007744999628,40.7102150021283,"0014736637c7795e95b83e7b8c5492ca"
"3541",354,71,"Fulton St","Broadway-Nassau St","William St","Fulton St / Broadway-Nassau St (2,3) Manhattan","Fulton St / Broadway-Nassau St (2,3)","Manhattan",NA,"2","A,C,J,M,Z,2,3,4,5","RED","express",NA,-74.0064038934397,40.7095479524215,"04763c3d96fddbc95e7e7a6a54eaf275"
"3542",354,71,"Fulton St","Broadway-Nassau St","William St","Fulton St / Broadway-Nassau St (2,3) Manhattan","Fulton St / Broadway-Nassau St (2,3)","Manhattan",NA,"3","A,C,J,M,Z,2,3,4,5","RED","express",NA,-74.0064038934397,40.7095479524215,"cb4468702a2e9003130bd035230fc97c"
"3551",355,114,"Grand Central","42nd St","Lexington Ave","Grand Central / 42nd St (4,5,6) Manhattan","Grand Central / 42nd St (4,5,6)","Manhattan",NA,"4","S,4,5,6,7","GREEN","express",NA,-73.9770762500737,40.7518958014252,"4fe78ce98b6ef8d991530f027c1eafab"
"3552",355,114,"Grand Central","42nd St","Lexington Ave","Grand Central / 42nd St (4,5,6) Manhattan","Grand Central / 42nd St (4,5,6)","Manhattan",NA,"5","S,4,5,6,7","GREEN","express",NA,-73.9770762500737,40.7518958014252,"2ee4000af4ffd27520e77eb721168039"
"3553",355,114,"Grand Central","42nd St","Lexington Ave","Grand Central / 42nd St (4,5,6) Manhattan","Grand Central / 42nd St (4,5,6)","Manhattan",NA,"6","S,4,5,6,7","GREEN","express",NA,-73.9770762500737,40.7518958014252,"a9ade4208e65b702266a21967e050b01"
"3581",358,291,"Grand St",NA,"Chrystie St","Grand St (B,D) Manhattan","Grand St (B,D)","Manhattan",NA,"B","B,D","ORANGE","express",NA,-73.993807497312,40.7181584446685,"09d9f47d42630baf6cfeca1abdce8d42"
"3582",358,291,"Grand St",NA,"Chrystie St","Grand St (B,D) Manhattan","Grand St (B,D)","Manhattan",NA,"D","B,D","ORANGE","express",NA,-73.993807497312,40.7181584446685,"d8ea2ef1efec98a65571ee006b8afbb7"
"3601",360,363,"Lexington Ave","59th St","59th St","Lexington Ave / 59th St (N,R,W) Manhattan","Lexington Ave / 59th St (N,R,W)","Manhattan",NA,"N","F,N,R,W,4,5,6","YELLOW",NA,NA,-73.9676837875593,40.7628297134837,"e0d371626fdb475ced0fda998b80b842"
"3602",360,363,"Lexington Ave","59th St","59th St","Lexington Ave / 59th St (N,R,W) Manhattan","Lexington Ave / 59th St (N,R,W)","Manhattan",NA,"R","F,N,R,W,4,5,6","YELLOW",NA,NA,-73.9676837875593,40.7628297134837,"1ae2cb17a89bb3aa29dd2922c601c1de"
"3603",360,363,"Lexington Ave","59th St","59th St","Lexington Ave / 59th St (N,R,W) Manhattan","Lexington Ave / 59th St (N,R,W)","Manhattan",NA,"W","F,N,R,W,4,5,6","YELLOW",NA,NA,-73.9676837875593,40.7628297134837,"42c4220f8c76b12dceb6ef0856e5ef60"
"3631",363,257,"Lexington Ave","53rd St","53rd St","Lexington Ave / 53rd St (E,V) Manhattan","Lexington Ave / 53rd St (E,V)","Manhattan",NA,"E","E,V,4,6","BLUE-ORANGE","express",NA,-73.9709846389131,40.7583672430501,"d4a26144942100af7f67b0c1d8bf14f6"
"3632",363,257,"Lexington Ave","53rd St","53rd St","Lexington Ave / 53rd St (E,V) Manhattan","Lexington Ave / 53rd St (E,V)","Manhattan",NA,"V","E,V,4,6","BLUE-ORANGE","express",NA,-73.9709846389131,40.7583672430501,"0a02313547469094a22f5f1f831fe62b"
"3641",364,70,"Park Pl","Chambers St","Broadway","Park Pl / Chambers St (2,3) Manhattan","Park Pl / Chambers St (2,3)","Manhattan",NA,"2","A,C,E,2,3","RED","express",NA,-74.0076650006896,40.7125210012895,"e27807da50d9208baafbd4db9163f97f"
"3642",364,70,"Park Pl","Chambers St","Broadway","Park Pl / Chambers St (2,3) Manhattan","Park Pl / Chambers St (2,3)","Manhattan",NA,"3","A,C,E,2,3","RED","express",NA,-74.0076650006896,40.7125210012895,"bbecefd6313917eb6613c8f3dcab87a8"
"3651",365,373,"Prince St",NA,"Broadway","Prince St (N,R,W) Manhattan","Prince St (N,R,W)","Manhattan",NA,"N","N,R,W","YELLOW",NA,NA,-73.9977699052444,40.7242600527019,"fe8274c352198534a7b850f886cc075d"
"3652",365,373,"Prince St",NA,"Broadway","Prince St (N,R,W) Manhattan","Prince St (N,R,W)","Manhattan",NA,"R","N,R,W","YELLOW",NA,NA,-73.9977699052444,40.7242600527019,"7640fd6524b3d4968e394c37a5394663"
"3653",365,373,"Prince St",NA,"Broadway","Prince St (N,R,W) Manhattan","Prince St (N,R,W)","Manhattan",NA,"W","N,R,W","YELLOW",NA,NA,-73.9977699052444,40.7242600527019,"af9711ec84c198534303614fbf6372ef"
"3661",366,377,"Rector St",NA,"Trinity Pl","Rector St (R,W) Manhattan","Rector St (R,W)","Manhattan",NA,"R","R,W","YELLOW",NA,NA,-74.0129550011207,40.7077540011688,"da517ba966baa97ec2e4a5469d2f6da9"
"3662",366,377,"Rector St",NA,"Trinity Pl","Rector St (R,W) Manhattan","Rector St (R,W)","Manhattan",NA,"W","R,W","YELLOW",NA,NA,-74.0129550011207,40.7077540011688,"d5b5ce7f8cbf3c9273acf0cb5ba75fea"
"3681",368,180,"Spring St",NA,"6th Ave","Spring St (C,E) Manhattan","Spring St (C,E)","Manhattan",NA,"C","C,E","BLUE",NA,NA,-74.0040157510025,40.7255184926234,"107ae11d096d693b3f2632e4d12f855d"
"3682",368,180,"Spring St",NA,"6th Ave","Spring St (C,E) Manhattan","Spring St (C,E)","Manhattan",NA,"E","C,E","BLUE",NA,NA,-74.0040157510025,40.7255184926234,"89c0977dd1fb771e181cdaf1822fd8c0"
"3701",370,157,"Times Sq","42nd St","7th Ave/Broadway","Times Sq / 42nd St (N,Q,R,S,W,7) Manhattan","Times Sq / 42nd St (N,Q,R,S,W,7)","Manhattan",NA,"N","A,C,E,N,Q,R,S,W,1,2,3,7","GREY-PURPLE-YELLOW","express",NA,-73.9863672548726,40.7557930804806,"90a937aa2d06346daf900c1de9d79e8b"
"3702",370,157,"Times Sq","42nd St","7th Ave/Broadway","Times Sq / 42nd St (N,Q,R,S,W,7) Manhattan","Times Sq / 42nd St (N,Q,R,S,W,7)","Manhattan",NA,"Q","A,C,E,N,Q,R,S,W,1,2,3,7","GREY-PURPLE-YELLOW","express",NA,-73.9863672548726,40.7557930804806,"01d00339e1e23d4d3f434a80d0ea6568"
"3703",370,157,"Times Sq","42nd St","7th Ave/Broadway","Times Sq / 42nd St (N,Q,R,S,W,7) Manhattan","Times Sq / 42nd St (N,Q,R,S,W,7)","Manhattan",NA,"R","A,C,E,N,Q,R,S,W,1,2,3,7","GREY-PURPLE-YELLOW","express",NA,-73.9863672548726,40.7557930804806,"5952dab6b13db26beed0abd55c283127"
"3704",370,157,"Times Sq","42nd St","7th Ave/Broadway","Times Sq / 42nd St (N,Q,R,S,W,7) Manhattan","Times Sq / 42nd St (N,Q,R,S,W,7)","Manhattan",NA,"S","A,C,E,N,Q,R,S,W,1,2,3,7","GREY-PURPLE-YELLOW","express",NA,-73.9863672548726,40.7557930804806,"0533ce928d90429488eb409ea894ad96"
"3705",370,157,"Times Sq","42nd St","7th Ave/Broadway","Times Sq / 42nd St (N,Q,R,S,W,7) Manhattan","Times Sq / 42nd St (N,Q,R,S,W,7)","Manhattan",NA,"W","A,C,E,N,Q,R,S,W,1,2,3,7","GREY-PURPLE-YELLOW","express",NA,-73.9863672548726,40.7557930804806,"2b24bc3f71af788d3ea9cfea89ae0ab6"
"3706",370,157,"Times Sq","42nd St","7th Ave/Broadway","Times Sq / 42nd St (N,Q,R,S,W,7) Manhattan","Times Sq / 42nd St (N,Q,R,S,W,7)","Manhattan",NA,"7","A,C,E,N,Q,R,S,W,1,2,3,7","GREY-PURPLE-YELLOW","express",NA,-73.9863672548726,40.7557930804806,"2af67f39587dda6c1b0db0fa97646ec7"
"3711",371,371,"Union Sq","14th St","14 St","Union Sq / 14th St (L,N,Q,R,W) Manhattan","Union Sq / 14th St (L,N,Q,R,W)","Manhattan",NA,"L","L,N,Q,R,W,4,5,6","GREY-YELLOW","express",NA,-73.9907624164714,40.7348339897264,"a8ed13a924f5aa7bc43d49b00c327c04"
"3712",371,371,"Union Sq","14th St","14 St","Union Sq / 14th St (L,N,Q,R,W) Manhattan","Union Sq / 14th St (L,N,Q,R,W)","Manhattan",NA,"N","L,N,Q,R,W,4,5,6","GREY-YELLOW","express",NA,-73.9907624164714,40.7348339897264,"46dabda6ea4e511dad58fedbbcd87606"
"3713",371,371,"Union Sq","14th St","14 St","Union Sq / 14th St (L,N,Q,R,W) Manhattan","Union Sq / 14th St (L,N,Q,R,W)","Manhattan",NA,"Q","L,N,Q,R,W,4,5,6","GREY-YELLOW","express",NA,-73.9907624164714,40.7348339897264,"c6a1954a128935d1b29034e66ed76a92"
"3714",371,371,"Union Sq","14th St","14 St","Union Sq / 14th St (L,N,Q,R,W) Manhattan","Union Sq / 14th St (L,N,Q,R,W)","Manhattan",NA,"R","L,N,Q,R,W,4,5,6","GREY-YELLOW","express",NA,-73.9907624164714,40.7348339897264,"82e686bd7272149cd5bfcc51f0f4124f"
"3715",371,371,"Union Sq","14th St","14 St","Union Sq / 14th St (L,N,Q,R,W) Manhattan","Union Sq / 14th St (L,N,Q,R,W)","Manhattan",NA,"W","L,N,Q,R,W,4,5,6","GREY-YELLOW","express",NA,-73.9907624164714,40.7348339897264,"eb160f6d36f468ea7fea430b0302f75c"
"3721",372,293,"W 4th St",NA,"6th Ave","W 4th St (A,C,E) Manhattan","W 4th St (A,C,E)","Manhattan",NA,"A","A,B,C,D,E,F,V","BLUE","express",NA,-74.0010044213473,40.7317264017794,"49862af13d4cdf9758d2eaf2efcab310"
"3722",372,293,"W 4th St",NA,"6th Ave","W 4th St (A,C,E) Manhattan","W 4th St (A,C,E)","Manhattan",NA,"C","A,B,C,D,E,F,V","BLUE","express",NA,-74.0010044213473,40.7317264017794,"fc096ee88165a5a9b323292efb91742b"
"3723",372,293,"W 4th St",NA,"6th Ave","W 4th St (A,C,E) Manhattan","W 4th St (A,C,E)","Manhattan",NA,"E","A,B,C,D,E,F,V","BLUE","express",NA,-74.0010044213473,40.7317264017794,"712d70b9f19f1d3b3d921d1221044590"
"3731",373,103,"Wall St",NA,"Broadway","Wall St (4,5) Manhattan","Wall St (4,5)","Manhattan",NA,"4","4,5","GREEN","express",NA,-74.0116838634199,40.7077593523476,"da5030baf3ab29e9a31cd7ed4c3a9ce8"
"3732",373,103,"Wall St",NA,"Broadway","Wall St (4,5) Manhattan","Wall St (4,5)","Manhattan",NA,"5","4,5","GREEN","express",NA,-74.0116838634199,40.7077593523476,"f44403d04387de3515069caa8a701ad0"
"3741",374,72,"Wall St",NA,"William St","Wall St (2,3) Manhattan","Wall St (2,3)","Manhattan",NA,"2","2,3","RED","express",NA,-74.0094879994771,40.7063750001966,"4fea50966b9b34b84d665fe5a247ab86"
"3742",374,72,"Wall St",NA,"William St","Wall St (2,3) Manhattan","Wall St (2,3)","Manhattan",NA,"3","2,3","RED","express",NA,-74.0094879994771,40.7063750001966,"8e4fb2f8451e5b0a01d37edc64207756"
"3751",375,378,"Whitehall St","South Ferry","Water St","Whitehall St / South Ferry (R,W) Manhattan","Whitehall St / South Ferry (R,W)","Manhattan",NA,"R","R,W","YELLOW",NA,NA,-74.0128482396999,40.702537693623,"0ba828a1707b8488258471fd34333d65"
"3752",375,378,"Whitehall St","South Ferry","Water St","Whitehall St / South Ferry (R,W) Manhattan","Whitehall St / South Ferry (R,W)","Manhattan",NA,"W","R,W","YELLOW",NA,NA,-74.0128482396999,40.702537693623,"1512b298351985cb81e860f1315bc4ce"
"3781",378,329,"104th St",NA,"Jamaica Ave","104th St (J,Z) Queens","104th St (J,Z)","Queens",NA,"J","J,Z","BROWN",NA,NA,-73.8432129993352,40.6952010012252,"e67e31bf1b95c53b2445a8b9487a04d4"
"3782",378,329,"104th St",NA,"Jamaica Ave","104th St (J,Z) Queens","104th St (J,Z)","Queens",NA,"Z","J,Z","BROWN",NA,NA,-73.8432129993352,40.6952010012252,"3728f142eda053cb733068bb4e9bea31"
"3821",382,331,"121st St",NA,"Jamaica Ave","121st St (J,Z) Queens","121st St (J,Z)","Queens",NA,"J","J,Z","BROWN",NA,NA,-73.8289211254181,40.7003920539162,"c72495986e31c3f1fc298b27c275c2fc"
"3822",382,331,"121st St",NA,"Jamaica Ave","121st St (J,Z) Queens","121st St (J,Z)","Queens",NA,"Z","J,Z","BROWN",NA,NA,-73.8289211254181,40.7003920539162,"6a2c9f4255e238d168e0ff07782843f4"
"3881",388,258,"23rd St","Ely Ave","44th Dr","23rd St / Ely Ave (E,V) Queens","23rd St / Ely Ave (E,V)","Queens",NA,"E","E,G,V,7","BLUE-ORANGE","express",NA,-73.9450360016766,40.7476580010182,"bdc891b3da7dfc919fdc8a1fbffea80d"
"3882",388,258,"23rd St","Ely Ave","44th Dr","23rd St / Ely Ave (E,V) Queens","23rd St / Ely Ave (E,V)","Queens",NA,"V","E,G,V,7","BLUE-ORANGE","express",NA,-73.9450360016766,40.7476580010182,"4d234b9b0dce6924399ac2476e839cba"
"3891",389,360,"30th Ave",NA,"31st St","30th Ave (N,W) Queens","30th Ave (N,W)","Queens",NA,"N","N,W","YELLOW",NA,NA,-73.9213899369434,40.7668928230515,"4f2b9d42c013e7dbf22f153c707b5ba7"
"3892",389,360,"30th Ave",NA,"31st St","30th Ave (N,W) Queens","30th Ave (N,W)","Queens",NA,"W","N,W","YELLOW",NA,NA,-73.9213899369434,40.7668928230515,"d735144754f6fa46fd20013219c6f535"
"3911",391,358,"36th Ave",NA,"31st St","36th Ave (N,W) Queens","36th Ave (N,W)","Queens",NA,"N","N,W","YELLOW",NA,NA,-73.92974811133,40.7565843200805,"f15492e13a113a9df6ba9583fdc96cd7"
"3912",391,358,"36th Ave",NA,"31st St","36th Ave (N,W) Queens","36th Ave (N,W)","Queens",NA,"W","N,W","YELLOW",NA,NA,-73.92974811133,40.7565843200805,"bd419756c8e49fe0dfa166d676e79fd9"
"3921",392,260,"36th St",NA,"Northern Blvd","36th St (G,R,V) Queens","36th St (G,R,V)","Queens",NA,"G","G,R,V","MULTI",NA,NA,-73.9278859783254,40.752072867807,"f8623a1988bf169906491e87eeae88ff"
"3922",392,260,"36th St",NA,"Northern Blvd","36th St (G,R,V) Queens","36th St (G,R,V)","Queens",NA,"R","G,R,V","MULTI",NA,NA,-73.9278859783254,40.752072867807,"6a9f03cfbc1541777ab2a694c8181721"
"3923",392,260,"36th St",NA,"Northern Blvd","36th St (G,R,V) Queens","36th St (G,R,V)","Queens",NA,"V","G,R,V","MULTI",NA,NA,-73.9278859783254,40.752072867807,"3046a90ff521e6c97e8a3dec2eb4c3b9"
"3931",393,357,"39th Ave",NA,"31st St","39th Ave (N,W) Queens","39th Ave (N,W)","Queens",NA,"N","N,W","YELLOW",NA,NA,-73.9329080006734,40.7527070014466,"6d15c6145b5111ecc2c80bf5f05912f2"
"3932",393,357,"39th Ave",NA,"31st St","39th Ave (N,W) Queens","39th Ave (N,W)","Queens",NA,"W","N,W","YELLOW",NA,NA,-73.9329080006734,40.7527070014466,"9449508f648127b40642a83e16f618b3"
"3961",396,262,"46th St",NA,"Broadway","46th St (G,R,V) Queens","46th St (G,R,V)","Queens",NA,"G","G,R,V","MULTI",NA,NA,-73.9142107082265,40.7567282312644,"bccac0fac45d0b50d05cff255fef9cb2"
"3962",396,262,"46th St",NA,"Broadway","46th St (G,R,V) Queens","46th St (G,R,V)","Queens",NA,"R","G,R,V","MULTI",NA,NA,-73.9142107082265,40.7567282312644,"f45dfe017237bb56f30ef82d7e8e0487"
"3963",396,262,"46th St",NA,"Broadway","46th St (G,R,V) Queens","46th St (G,R,V)","Queens",NA,"V","G,R,V","MULTI",NA,NA,-73.9142107082265,40.7567282312644,"8d8b7c722c96a5cfdaa589412a50c531"
"4001",400,269,"63rd Dr","Rego Park","Queens Blvd","63rd Dr / Rego Park (G,R,V) Queens","63rd Dr / Rego Park (G,R,V)","Queens",NA,"G","G,R,V","MULTI",NA,NA,-73.8623230381202,40.7301223015867,"cdab21751550ab64fd36a9ca05cfaae0"
"4002",400,269,"63rd Dr","Rego Park","Queens Blvd","63rd Dr / Rego Park (G,R,V) Queens","63rd Dr / Rego Park (G,R,V)","Queens",NA,"R","G,R,V","MULTI",NA,NA,-73.8623230381202,40.7301223015867,"fd52dde7573f2a4be3ad7da797d7a818"
"4003",400,269,"63rd Dr","Rego Park","Queens Blvd","63rd Dr / Rego Park (G,R,V) Queens","63rd Dr / Rego Park (G,R,V)","Queens",NA,"V","G,R,V","MULTI",NA,NA,-73.8623230381202,40.7301223015867,"7948aeaf8d70c2880bc40fa2c8b26e58"
"4011",401,264,"65th St",NA,"Broadway","65th St (G,R,V) Queens","65th St (G,R,V)","Queens",NA,"G","G,R,V","MULTI",NA,NA,-73.8975598659516,40.7493418755105,"8b6e56d702b2f1540e583939c6de72a7"
"4012",401,264,"65th St",NA,"Broadway","65th St (G,R,V) Queens","65th St (G,R,V)","Queens",NA,"R","G,R,V","MULTI",NA,NA,-73.8975598659516,40.7493418755105,"461e43275ff303e1dd22f5c9ee5adc93"
"4013",401,264,"65th St",NA,"Broadway","65th St (G,R,V) Queens","65th St (G,R,V)","Queens",NA,"V","G,R,V","MULTI",NA,NA,-73.8975598659516,40.7493418755105,"f4d3b1303e498e4bb2523af83f827c80"
"4021",402,270,"67th Ave",NA,"Queens Blvd","67th Ave (G,R,V) Queens","67th Ave (G,R,V)","Queens",NA,"G","G,R,V","MULTI",NA,NA,-73.8537040006555,40.7269620014444,"a5b263922021385d51d5a360d4e9e579"
"4022",402,270,"67th Ave",NA,"Queens Blvd","67th Ave (G,R,V) Queens","67th Ave (G,R,V)","Queens",NA,"R","G,R,V","MULTI",NA,NA,-73.8537040006555,40.7269620014444,"c9a486b44ed9c58946fed31a3b8291f1"
"4023",402,270,"67th Ave",NA,"Queens Blvd","67th Ave (G,R,V) Queens","67th Ave (G,R,V)","Queens",NA,"V","G,R,V","MULTI",NA,NA,-73.8537040006555,40.7269620014444,"37c2e2db0302b2cdd509f932c0942221"
"4041",404,271,"71st Ave","Forest Hills","Queens Blvd","71st Ave / Forest Hills (E,F,G,R,V) Queens","71st Ave / Forest Hills (E,F,G,R,V)","Queens",NA,"E","E,F,G,R,V","MULTI","express",NA,-73.8439753572198,40.721453320865,"e57b3cdacddba3d9c92cb1fd391d4123"
"4042",404,271,"71st Ave","Forest Hills","Queens Blvd","71st Ave / Forest Hills (E,F,G,R,V) Queens","71st Ave / Forest Hills (E,F,G,R,V)","Queens",NA,"F","E,F,G,R,V","MULTI","express",NA,-73.8439753572198,40.721453320865,"146d9b2f6d6599abd914702d4894e519"
"4043",404,271,"71st Ave","Forest Hills","Queens Blvd","71st Ave / Forest Hills (E,F,G,R,V) Queens","71st Ave / Forest Hills (E,F,G,R,V)","Queens",NA,"G","E,F,G,R,V","MULTI","express",NA,-73.8439753572198,40.721453320865,"98684cd5f363d9321240a3a82355d639"
"4044",404,271,"71st Ave","Forest Hills","Queens Blvd","71st Ave / Forest Hills (E,F,G,R,V) Queens","71st Ave / Forest Hills (E,F,G,R,V)","Queens",NA,"R","E,F,G,R,V","MULTI","express",NA,-73.8439753572198,40.721453320865,"5b97f61e984bcdd64d27ea033bb1e2d7"
"4045",404,271,"71st Ave","Forest Hills","Queens Blvd","71st Ave / Forest Hills (E,F,G,R,V) Queens","71st Ave / Forest Hills (E,F,G,R,V)","Queens",NA,"V","E,F,G,R,V","MULTI","express",NA,-73.8439753572198,40.721453320865,"0604c6f9e6b454097bfeeb0fda986a6b"
"4061",406,272,"75th Ave",NA,"Queens Blvd","75th Ave (E,F) Queens","75th Ave (E,F)","Queens",NA,"E","E,F","BLUE-ORANGE",NA,NA,-73.8377130162358,40.7186434514707,"ac1639fc4a318f7e29699e528dbbeb4c"
"4062",406,272,"75th Ave",NA,"Queens Blvd","75th Ave (E,F) Queens","75th Ave (E,F)","Queens",NA,"F","E,F","BLUE-ORANGE",NA,NA,-73.8377130162358,40.7186434514707,"2491fc034f2859a943d66b678c55bd64"
"4071",407,326,"75th St","Eldert Ln","Jamaica Ave","75th St / Eldert Ln (J,Z) Queens","75th St / Eldert Ln (J,Z)","Queens",NA,"J","J,Z","BROWN",NA,NA,-73.8665017509182,40.6914187063848,"e1f37d1cfe24617f66f277caeb57a5e2"
"4072",407,326,"75th St","Eldert Ln","Jamaica Ave","75th St / Eldert Ln (J,Z) Queens","75th St / Eldert Ln (J,Z)","Queens",NA,"Z","J,Z","BROWN",NA,NA,-73.8665017509182,40.6914187063848,"51a734b62372ae83d5fd3d94d7ba577a"
"4141",414,361,"Astoria Blvd",NA,"31st St","Astoria Blvd (N,W) Queens","Astoria Blvd (N,W)","Queens",NA,"N","N,W","YELLOW",NA,NA,-73.9181156329289,40.770022164436,"b298890bc031529056c01d9ae775ade2"
"4142",414,361,"Astoria Blvd",NA,"31st St","Astoria Blvd (N,W) Queens","Astoria Blvd (N,W)","Queens",NA,"W","N,W","YELLOW",NA,NA,-73.9181156329289,40.770022164436,"f6466107aa648ca02e435684b346620a"
"4151",415,253,"Beach 105th St",NA,"Rockaway Freeway","Beach 105th St (A,S) Queens","Beach 105th St (A,S)","Queens",NA,"A","A,S","BLUE",NA,NA,-73.826345812777,40.5835451355988,"11bb9921b233f7c639246c5737a8c6b1"
"4152",415,253,"Beach 105th St",NA,"Rockaway Freeway","Beach 105th St (A,S) Queens","Beach 105th St (A,S)","Queens",NA,"S","A,S","BLUE",NA,NA,-73.826345812777,40.5835451355988,"92a7bb69717783a3a92d74f9ce517520"
"4211",421,251,"Beach 90th St",NA,"Rockaway Freeway","Beach 90th St (A,S) Queens","Beach 90th St (A,S)","Queens",NA,"A","A,S","BLUE",NA,NA,-73.8143698657443,40.5877560455626,"271f2f1b88631f7d0f30bea4855741c6"
"4212",421,251,"Beach 90th St",NA,"Rockaway Freeway","Beach 90th St (A,S) Queens","Beach 90th St (A,S)","Queens",NA,"S","A,S","BLUE",NA,NA,-73.8143698657443,40.5877560455626,"ba1c2daec9520859fbf8afc4c1e65e76"
"4221",422,252,"Beach 98th St",NA,"Rockaway Freeway","Beach 98th St (A,S) Queens","Beach 98th St (A,S)","Queens",NA,"A","A,S","BLUE",NA,NA,-73.820146206834,40.5854743479815,"5c2faf800514c3002dac58b1b3a8cdfa"
"4222",422,252,"Beach 98th St",NA,"Rockaway Freeway","Beach 98th St (A,S) Queens","Beach 98th St (A,S)","Queens",NA,"S","A,S","BLUE",NA,NA,-73.820146206834,40.5854743479815,"e32a368067bdd206844998f3775fb73b"
"4231",423,244,"Broad Channel",NA,NA,"Broad Channel (A,S) Queens","Broad Channel (A,S)","Queens",NA,"A","A,S","BLUE",NA,NA,-73.8157690016698,40.6079880007588,"710c51cc5a5c1122e2e1c3ceca7780e9"
"4232",423,244,"Broad Channel",NA,NA,"Broad Channel (A,S) Queens","Broad Channel (A,S)","Queens",NA,"S","A,S","BLUE",NA,NA,-73.8157690016698,40.6079880007588,"c9d22063304d778db4f77aa3da6f607e"
"4241",424,359,"Broadway",NA,"31st St","Broadway (N,W) Queens","Broadway (N,W)","Queens",NA,"N","N,W","YELLOW",NA,NA,-73.9253834627502,40.7619717088172,"b577ffd9bc7fa98499b42e11c6225c32"
"4242",424,359,"Broadway",NA,"31st St","Broadway (N,W) Queens","Broadway (N,W)","Queens",NA,"W","N,W","YELLOW",NA,NA,-73.9253834627502,40.7619717088172,"013b1ff07503d0a29847d200127417a4"
"4261",426,362,"Astoria-Ditmars Blvd",NA,"31st St","Astoria-Ditmars Blvd (N,W) Queens","Astoria-Ditmars Blvd (N,W)","Queens",NA,"N","N,W","YELLOW",NA,NA,-73.9107065460878,40.7761269935985,"cbd3f4604202ad61f68229a14628dfcd"
"4262",426,362,"Astoria-Ditmars Blvd",NA,"31st St","Astoria-Ditmars Blvd (N,W) Queens","Astoria-Ditmars Blvd (N,W)","Queens",NA,"W","N,W","YELLOW",NA,NA,-73.9107065460878,40.7761269935985,"0d9131f1d28d60ff96a2bd9fe324deea"
"4271",427,266,"Elmhurst Ave",NA,"Broadway","Elmhurst Ave (G,R,V) Queens","Elmhurst Ave (G,R,V)","Queens",NA,"G","G,R,V","MULTI",NA,NA,-73.8810180005206,40.7418530013284,"0b79f808f2bb5d5eaeae21aa873e664a"
"4272",427,266,"Elmhurst Ave",NA,"Broadway","Elmhurst Ave (G,R,V) Queens","Elmhurst Ave (G,R,V)","Queens",NA,"R","G,R,V","MULTI",NA,NA,-73.8810180005206,40.7418530013284,"4b4b29947ee094df30e654c2e674d253"
"4273",427,266,"Elmhurst Ave",NA,"Broadway","Elmhurst Ave (G,R,V) Queens","Elmhurst Ave (G,R,V)","Queens",NA,"V","G,R,V","MULTI",NA,NA,-73.8810180005206,40.7418530013284,"8149d6863ca3c092532bf934c569aa43"
"4312",431,267,"Grand Ave","Newtown","Queens Blvd","Grand Ave / Newtown (G,R,V) Queens","Grand Ave / Newtown (G,R,V)","Queens",NA,"G","G,R,V","MULTI",NA,NA,-73.8774844665807,40.7370144814485,"bb0648f3d4e116940713fa219574c236"
"4313",431,267,"Grand Ave","Newtown","Queens Blvd","Grand Ave / Newtown (G,R,V) Queens","Grand Ave / Newtown (G,R,V)","Queens",NA,"R","G,R,V","MULTI",NA,NA,-73.8774844665807,40.7370144814485,"9b0999b1be9819663728fe5f5cdd8b93"
"4314",431,267,"Grand Ave","Newtown","Queens Blvd","Grand Ave / Newtown (G,R,V) Queens","Grand Ave / Newtown (G,R,V)","Queens",NA,"V","G,R,V","MULTI",NA,NA,-73.8774844665807,40.7370144814485,"fbec425c4ae5380489aca51c2a963d34"
"4341",434,465,"Jamaica Center","Parsons/Archer","Archer Ave","Jamaica Center / Parsons/Archer (E,J,Z) Queens","Jamaica Center / Parsons/Archer (E,J,Z)","Queens",NA,"E","E,J,Z","BLUE-BROWN","express",NA,-73.7999281760241,40.7024704299514,"d7b216f6fccf5ada83377c6da6ebb97d"
"4342",434,465,"Jamaica Center","Parsons/Archer","Archer Ave","Jamaica Center / Parsons/Archer (E,J,Z) Queens","Jamaica Center / Parsons/Archer (E,J,Z)","Queens",NA,"J","E,J,Z","BLUE-BROWN","express",NA,-73.7999281760241,40.7024704299514,"bce063637f71f5c18173143eccdd9103"
"4343",434,465,"Jamaica Center","Parsons/Archer","Archer Ave","Jamaica Center / Parsons/Archer (E,J,Z) Queens","Jamaica Center / Parsons/Archer (E,J,Z)","Queens",NA,"Z","E,J,Z","BLUE-BROWN","express",NA,-73.7999281760241,40.7024704299514,"2429b04f76e8e0d3444a9c8b70f94d63"
"4401",440,263,"Northern Blvd",NA,"Broadway","Northern Blvd (G,R,V) Queens","Northern Blvd (G,R,V)","Queens",NA,"G","G,R,V","MULTI",NA,NA,-73.9068920187443,40.7532806448116,"5df1c874dbcb15471af634eee66e5f9f"
"4402",440,263,"Northern Blvd",NA,"Broadway","Northern Blvd (G,R,V) Queens","Northern Blvd (G,R,V)","Queens",NA,"R","G,R,V","MULTI",NA,NA,-73.9068920187443,40.7532806448116,"fe56ba0bda354323236fd3e57ad61020"
"4403",440,263,"Northern Blvd",NA,"Broadway","Northern Blvd (G,R,V) Queens","Northern Blvd (G,R,V)","Queens",NA,"V","G,R,V","MULTI",NA,NA,-73.9068920187443,40.7532806448116,"c692d0a21fbb604fe4e169691bedf8ac"
"4421",442,259,"Queens Plz",NA,"Queens Blvd","Queens Plz (E,G,R,V) Queens","Queens Plz (E,G,R,V)","Queens",NA,"E","E,G,R,V","MULTI","express",NA,-73.9373584094432,40.7489367176443,"78e8acb07a7e24d78248d1cbc0e10e5e"
"4422",442,259,"Queens Plz",NA,"Queens Blvd","Queens Plz (E,G,R,V) Queens","Queens Plz (E,G,R,V)","Queens",NA,"G","E,G,R,V","MULTI","express",NA,-73.9373584094432,40.7489367176443,"55fc45b0de90c073a4ad98a581b47376"
"4423",442,259,"Queens Plz",NA,"Queens Blvd","Queens Plz (E,G,R,V) Queens","Queens Plz (E,G,R,V)","Queens",NA,"R","E,G,R,V","MULTI","express",NA,-73.9373584094432,40.7489367176443,"694203f0b02efb3a026875de5171c10f"
"4424",442,259,"Queens Plz",NA,"Queens Blvd","Queens Plz (E,G,R,V) Queens","Queens Plz (E,G,R,V)","Queens",NA,"V","E,G,R,V","MULTI","express",NA,-73.9373584094432,40.7489367176443,"93acaf1e87e57de9fbbfda2b065fb586"
"4431",443,163,"Queensboro Plz",NA,"Queensboro Bridge","Queensboro Plz (N,W,7) Queens","Queensboro Plz (N,W,7)","Queens",NA,"N","N,W,7","PURPLE-YELLOW","express",NA,-73.9401630002925,40.7505620008759,"183e12acd73473118fc9c083c0a0fad6"
"4432",443,163,"Queensboro Plz",NA,"Queensboro Bridge","Queensboro Plz (N,W,7) Queens","Queensboro Plz (N,W,7)","Queens",NA,"W","N,W,7","PURPLE-YELLOW","express",NA,-73.9401630002925,40.7505620008759,"19028cd2ffcd3042e7c50a8aab2c0bb9"
"4433",443,163,"Queensboro Plz",NA,"Queensboro Bridge","Queensboro Plz (N,W,7) Queens","Queensboro Plz (N,W,7)","Queens",NA,"7","N,W,7","PURPLE-YELLOW","express",NA,-73.9401630002925,40.7505620008759,"239a2d59cefb08f66d89c7e063af9c68"
"4451",445,254,"Rockaway Park","Beach 116 St","Beach 116 St","Rockaway Park / Beach 116 St (A,S) Queens","Rockaway Park / Beach 116 St (A,S)","Queens",NA,"A","A,S","BLUE",NA,NA,-73.8374759221689,40.5802897909886,"afe5e7995d103715c5b86dca5b8a4799"
"4452",445,254,"Rockaway Park","Beach 116 St","Beach 116 St","Rockaway Park / Beach 116 St (A,S) Queens","Rockaway Park / Beach 116 St (A,S)","Queens",NA,"S","A,S","BLUE",NA,NA,-73.8374759221689,40.5802897909886,"3b2bb50f853ed6d79f47a800fa1cb78c"
"4461",446,265,"Jackson Hts-Roosevelt Ave","74th St-Broadway","Broadway","Jackson Hts-Roosevelt Ave (E,F,G,R,V) Queens","Jackson Hts-Roosevelt Ave (E,F,G,R,V)","Queens",NA,"E","E,F,G,R,V,7","MULTI","express",NA,-73.8917931827223,40.7468260085757,"b38ed609987dc075333786265fc09297"
"4462",446,265,"Jackson Hts-Roosevelt Ave","74th St-Broadway","Broadway","Jackson Hts-Roosevelt Ave (E,F,G,R,V) Queens","Jackson Hts-Roosevelt Ave (E,F,G,R,V)","Queens",NA,"F","E,F,G,R,V,7","MULTI","express",NA,-73.8917931827223,40.7468260085757,"e8ed7b174c4c48674fad1fa01efe2056"
"4463",446,265,"Jackson Hts-Roosevelt Ave","74th St-Broadway","Broadway","Jackson Hts-Roosevelt Ave (E,F,G,R,V) Queens","Jackson Hts-Roosevelt Ave (E,F,G,R,V)","Queens",NA,"G","E,F,G,R,V,7","MULTI","express",NA,-73.8917931827223,40.7468260085757,"74d686b253ad94c77e451d828159e9f4"
"4464",446,265,"Jackson Hts-Roosevelt Ave","74th St-Broadway","Broadway","Jackson Hts-Roosevelt Ave (E,F,G,R,V) Queens","Jackson Hts-Roosevelt Ave (E,F,G,R,V)","Queens",NA,"R","E,F,G,R,V,7","MULTI","express",NA,-73.8917931827223,40.7468260085757,"b12c32fb2350f15870c808afa95b0df4"
"4465",446,265,"Jackson Hts-Roosevelt Ave","74th St-Broadway","Broadway","Jackson Hts-Roosevelt Ave (E,F,G,R,V) Queens","Jackson Hts-Roosevelt Ave (E,F,G,R,V)","Queens",NA,"V","E,F,G,R,V,7","MULTI","express",NA,-73.8917931827223,40.7468260085757,"16046a8d029ae009d91a52d3ff64b849"
"4481",448,261,"Steinway St",NA,"Broadway","Steinway St (G,R,V) Queens","Steinway St (G,R,V)","Queens",NA,"G","G,R,V","MULTI",NA,NA,-73.9188899994442,40.7587100007467,"2894ad2b4d0b4e90a02bfad6229d4693"
"4482",448,261,"Steinway St",NA,"Broadway","Steinway St (G,R,V) Queens","Steinway St (G,R,V)","Queens",NA,"R","G,R,V","MULTI",NA,NA,-73.9188899994442,40.7587100007467,"3d550b38ea7673a875173ee97d459378"
"4483",448,261,"Steinway St",NA,"Broadway","Steinway St (G,R,V) Queens","Steinway St (G,R,V)","Queens",NA,"V","G,R,V","MULTI",NA,NA,-73.9188899994442,40.7587100007467,"d86f64ee3e94d8160fa4dc3f8c682330"
"4491",449,464,"Sutphin Blvd","Archer Ave","Archer Ave","Sutphin Blvd / Archer Ave (E,J,Z) Queens","Sutphin Blvd / Archer Ave (E,J,Z)","Queens",NA,"E","E,J,Z","BLUE-BROWN","express",NA,-73.8077129002595,40.700520377764,"8c83d1e80426ea7009ce5b95780e50d7"
"4492",449,464,"Sutphin Blvd","Archer Ave","Archer Ave","Sutphin Blvd / Archer Ave (E,J,Z) Queens","Sutphin Blvd / Archer Ave (E,J,Z)","Queens",NA,"J","E,J,Z","BLUE-BROWN","express",NA,-73.8077129002595,40.700520377764,"8dc728a5cba9389d75f79f16cb63c75a"
"4493",449,464,"Sutphin Blvd","Archer Ave","Archer Ave","Sutphin Blvd / Archer Ave (E,J,Z) Queens","Sutphin Blvd / Archer Ave (E,J,Z)","Queens",NA,"Z","E,J,Z","BLUE-BROWN","express",NA,-73.8077129002595,40.700520377764,"4e5a9436519717b6a2faa95988aab94f"
"4511",451,273,"Union Tpke","Kew Gardens","Queens Blvd","Union Tpke / Kew Gardens (E,F) Queens","Union Tpke / Kew Gardens (E,F)","Queens",NA,"E","E,F","BLUE-ORANGE","express",NA,-73.8307977947104,40.7141893143281,"ff0855bc93d0594988a9158925dfa62a"
"4512",451,273,"Union Tpke","Kew Gardens","Queens Blvd","Union Tpke / Kew Gardens (E,F) Queens","Union Tpke / Kew Gardens (E,F)","Queens",NA,"F","E,F","BLUE-ORANGE","express",NA,-73.8307977947104,40.7141893143281,"fe039694aaf5b40330fe8c03770e0a6c"
"4521",452,274,"Van Wyck Blvd","Briarwood","Main St","Van Wyck Blvd / Briarwood (E,F) Queens","Van Wyck Blvd / Briarwood (E,F)","Queens",NA,"E","E,F","BLUE-ORANGE",NA,NA,-73.8205729991268,40.7091760020818,"09d9e63980f25d2349539a32e3d2a1d6"
"4522",452,274,"Van Wyck Blvd","Briarwood","Main St","Van Wyck Blvd / Briarwood (E,F) Queens","Van Wyck Blvd / Briarwood (E,F)","Queens",NA,"F","E,F","BLUE-ORANGE",NA,NA,-73.8205729991268,40.7091760020818,"61d70b099669bddfa50d2f0c344231a5"
"4551",455,328,"Woodhaven Blvd",NA,"Jamaica Ave","Woodhaven Blvd (J,Z) Queens","Woodhaven Blvd (J,Z)","Queens",NA,"J","J,Z","BROWN","express",NA,-73.8521642525909,40.693662024722,"05b303c56c65bf1614772303f648d32d"
"4552",455,328,"Woodhaven Blvd",NA,"Jamaica Ave","Woodhaven Blvd (J,Z) Queens","Woodhaven Blvd (J,Z)","Queens",NA,"Z","J,Z","BROWN","express",NA,-73.8521642525909,40.693662024722,"10474094130f3d738810da9f0332c361"
"4561",456,268,"Woodhaven Blvd",NA,"Queens Blvd","Woodhaven Blvd (G,R,V) Queens","Woodhaven Blvd (G,R,V)","Queens",NA,"G","G,R,V","MULTI",NA,NA,-73.8703660000914,40.7335020007514,"b853af51f5963151899fd60785ae666c"
"4562",456,268,"Woodhaven Blvd",NA,"Queens Blvd","Woodhaven Blvd (G,R,V) Queens","Woodhaven Blvd (G,R,V)","Queens",NA,"R","G,R,V","MULTI",NA,NA,-73.8703660000914,40.7335020007514,"93c2bb95fead7c9df6a343febdcf8f17"
"4563",456,268,"Woodhaven Blvd",NA,"Queens Blvd","Woodhaven Blvd (G,R,V) Queens","Woodhaven Blvd (G,R,V)","Queens",NA,"V","G,R,V","MULTI",NA,NA,-73.8703660000914,40.7335020007514,"1f19d1d1f94330387b8b2e223b715af7"
"4791",479,401,"Coney Island","Stillwell Ave","Surf Ave","Coney Island / Stillwell Ave (D,F,N,Q) Brooklyn","Coney Island / Stillwell Ave (D,F,N,Q)","Brooklyn",NA,"D","D,F,N,Q","ORANGE",NA,NA,-73.9810138814604,40.5757573723815,"9440ea3dffdbf66f6214401e41bc97ee"
"4792",479,401,"Coney Island","Stillwell Ave","Surf Ave","Coney Island / Stillwell Ave (D,F,N,Q) Brooklyn","Coney Island / Stillwell Ave (D,F,N,Q)","Brooklyn",NA,"F","D,F,N,Q","ORANGE",NA,NA,-73.9810138814604,40.5757573723815,"ef8f592bbc8b82ff78fff0a4a32d2054"
"4793",479,401,"Coney Island","Stillwell Ave","Surf Ave","Coney Island / Stillwell Ave (D,F,N,Q) Brooklyn","Coney Island / Stillwell Ave (D,F,N,Q)","Brooklyn",NA,"N","D,F,N,Q","ORANGE",NA,NA,-73.9810138814604,40.5757573723815,"eb5759b71700f89e677c24047bda8996"
"4794",479,401,"Coney Island","Stillwell Ave","Surf Ave","Coney Island / Stillwell Ave (D,F,N,Q) Brooklyn","Coney Island / Stillwell Ave (D,F,N,Q)","Brooklyn",NA,"Q","D,F,N,Q","ORANGE",NA,NA,-73.9810138814604,40.5757573723815,"94306985ec9ce4776886f60392d40afd"
"4812",481,99,"Times Sq","42nd St","7th Ave/Broadway","Times Sq (1,2,3) Manhattan","Times Sq / 42nd St (1,2,3)","Manhattan",NA,"1","A,C,E,N,Q,R,S,W,1,2,3,7","RED","express",NA,-73.9869488826463,40.7560466375957,"df4b46af1ad90cd755cdacd6b389c2e7"
"4813",481,99,"Times Sq","42nd St","7th Ave/Broadway","Times Sq (1,2,3) Manhattan","Times Sq / 42nd St (1,2,3)","Manhattan",NA,"2","A,C,E,N,Q,R,S,W,1,2,3,7","RED","express",NA,-73.9869488826463,40.7560466375957,"2565c45dd978ab10bdd23de37bf447a9"
"4814",481,99,"Times Sq","42nd St","7th Ave/Broadway","Times Sq (1,2,3) Manhattan","Times Sq / 42nd St (1,2,3)","Manhattan",NA,"3","A,C,E,N,Q,R,S,W,1,2,3,7","RED","express",NA,-73.9869488826463,40.7560466375957,"f7fcfcf5aa6272978c818619f9d78d3c"
